4	www.climaton.com									
(Timestamp)	(Location)	(Conditions)	(Temperature) (°F °C)	Feels Like (°F °C)	(Wind Speed) (mph)	Wind	Dew Point (°F °C)	Humidity (%)	Pressure (inches)	Visibility (miles)
Fri Jan 29 08:46:22 2010	San Jose, California 95101  	mostly cloudy	48 9	48 9	0		45 7	87	30.06	10
Fri Jan 29 08:46:23 2010	Charlotte, North Carolina 28201  	clear sky	45 7	40 4	9	NE	25 -4	45	30.16	10
Fri Jan 29 08:46:23 2010	San Diego, California 92101  	clear sky	55 13	55 13	0		50 10	82	30.07	5
Fri Jan 29 08:46:24 2010	Denver, Colorado 80214  	mostly cloudy	25 -4	21 -6	3	SE	21 -6	86	30.08	8
Fri Jan 29 08:46:24 2010	Memphis, Tennessee 37501  	mostly cloudy	34 1	24 -4	16-28	NE	21 -6	59	30.31	10
Fri Jan 29 08:46:25 2010	Los Angeles, California 90001  	clear sky	57 14	57 14	0		48 9	72	30.06	10
Fri Jan 29 08:46:26 2010	New York, New York 10001  	clear sky	19 -7	16-Apr	18-26	W	0 -18	41	30.19	10
Fri Jan 29 08:46:26 2010	El Paso, Texas 79901  	light snow	30 -1	20 -7	12	N	27 -3	86	30.1	4
Fri Jan 29 08:46:26 2010	Baltimore, Maryland 21201  	normal	23 -5	23 -5			0 -18	35	30.33	
Fri Jan 29 08:46:27 2010	Las Vegas, Nevada 89101  	clear sky	46 8	45 7	3	SE	36 2	66	30.08	10
Fri Jan 29 08:46:27 2010	Washington, Washington D. C. 20001  	clear sky	25 -4	13 -11	14	NW	15-May	42	30.34	10
Fri Jan 29 08:46:27 2010	Austin, Texas 73301  	heavy rain	57 14	54 12	14-22	NW	55 13	94	29.93	2.5
Fri Jan 29 08:46:28 2010	Nashville, Tennessee 37201  	mostly cloudy	28 -2	20 -7	8	N	16 -9	59	30.36	10
Fri Jan 29 08:46:28 2010	Oklahoma City, Oklahoma 73101  	mostly cloudy	27 -3	15 -9	16	N	25 -4	93	30.16	6
Fri Jan 29 08:46:28 2010	San Francisco, California 94101  	mostly cloudy	52 11	52 11	0		48 9	87	30.04	6
Fri Jan 29 08:46:29 2010	Fort Worth, Texas 76101  	moderate rain	46 8	42 6	8	NE	43 6	87	30	8
Fri Jan 29 08:46:29 2010	Phoenix, Arizona 85001  	mostly cloudy	55 13	53 12	7	E	48 9	77	30.03	10
Fri Jan 29 08:46:30 2010	Portland, Oregon 97201  	clear sky	19 -7	16-Mar	21-36	W	16-Mar	49	29.98	10
Fri Jan 29 08:46:31 2010	Indianapolis, Indiana 46201  	clear sky	12-Oct	16-Apr	3	N	17-Jan	66	30.45	10
Fri Jan 29 08:46:31 2010	San Antonio, Texas 78201  	light rain	57 14	54 12	29-Dec	N	54 12	88	29.9	5
Fri Jan 29 08:46:31 2010	Chicago, Illinois 60601  	clear sky	14-Jul	-2 -19	5	NW	-6 -21	55	30.52	10
Fri Jan 29 08:46:32 2010	Jacksonville, Florida 32099  	clear sky	48 9	48 9	0		41 5	76	30.18	10
Fri Jan 29 08:46:33 2010	Columbus, Ohio 43085  	clear sky	12-Oct	-2 -19	8	N	17-Jan	66	30.42	10
Fri Jan 29 08:46:33 2010	Dallas, Texas 75201  	light rain	43 6	39 4	6	NE	41 5	93	30.02	6
Fri Jan 29 08:46:33 2010	Houston, Texas 77001  	light rain	64 18	63 17	21-Dec	SE	63 17	94	29.86	9
Fri Jan 29 08:46:34 2010	Milwaukee, Wisconsin 53201  	clear sky	15-May	-6 -21	6	NW	-11 -24	46	30.51	10
Fri Jan 29 08:46:34 2010	Detroit, Michigan 48201  	clear sky	13-Sep	0 -18	5	W	-2 -19	61	30.45	10
Fri Jan 29 08:46:34 2010	Seattle, Washington 98101  	clear sky	46 8	45 7	3	SE	34 1	61	30	10
Fri Jan 29 08:46:36 2010	Philadelphia, Pennsylvania 19019  	clear sky	18 -8	16-Apr	15-24	NW	-2 -19	41	30.29	10
Fri Jan 29 09:30:08 2010	San Jose, California 95101  	mostly cloudy	48 9	48 9	0		45 7	87	30.06	10
Fri Jan 29 09:30:09 2010	Charlotte, North Carolina 28201  	clear sky	45 7	40 4	9	NE	25 -4	45	30.16	10
Fri Jan 29 09:30:09 2010	San Diego, California 92101  	clear sky	55 13	55 13	0		50 10	82	30.07	5
Fri Jan 29 09:30:10 2010	Denver, Colorado 80214  	mostly cloudy	25 -4	21 -6	3	SE	21 -6	86	30.08	8
Fri Jan 29 09:30:10 2010	Memphis, Tennessee 37501  	mostly cloudy	34 1	24 -4	16-28	NE	21 -6	59	30.31	10
Fri Jan 29 09:30:10 2010	Los Angeles, California 90001  	clear sky	57 14	57 14	0		48 9	72	30.06	10
Fri Jan 29 09:30:11 2010	New York, New York 10001  	clear sky	19 -7	16-Apr	18-26	W	0 -18	41	30.19	10
Fri Jan 29 09:30:11 2010	El Paso, Texas 79901  	light snow	30 -1	20 -7	12	N	27 -3	86	30.1	4
Fri Jan 29 09:30:11 2010	Baltimore, Maryland 21201  	normal	23 -5	23 -5			0 -18	35	30.33	
Fri Jan 29 09:30:12 2010	Las Vegas, Nevada 89101  	clear sky	46 8	45 7	3	SE	36 2	66	30.08	10
Fri Jan 29 09:30:12 2010	Washington, Washington D. C. 20001  	clear sky	25 -4	13 -11	14	NW	15-May	42	30.34	10
Fri Jan 29 09:30:12 2010	Austin, Texas 73301  	heavy rain	57 14	54 12	14-22	NW	55 13	94	29.93	2.5
Fri Jan 29 09:30:13 2010	Nashville, Tennessee 37201  	mostly cloudy	28 -2	20 -7	8	N	16 -9	59	30.36	10
Fri Jan 29 09:30:13 2010	Oklahoma City, Oklahoma 73101  	mostly cloudy	27 -3	15 -9	16	N	25 -4	93	30.16	6
Fri Jan 29 09:30:13 2010	San Francisco, California 94101  	mostly cloudy	52 11	52 11	0		48 9	87	30.04	6
Fri Jan 29 09:30:14 2010	Portland, Oregon 97201  	clear sky	19 -7	16-Mar	21-36	W	16-Mar	49	29.98	10
Fri Jan 29 09:30:14 2010	Fort Worth, Texas 76101  	moderate rain	46 8	42 6	8	NE	43 6	87	30	8
Fri Jan 29 09:30:14 2010	Phoenix, Arizona 85001  	mostly cloudy	55 13	53 12	7	E	48 9	77	30.03	10
Fri Jan 29 09:30:15 2010	Indianapolis, Indiana 46201  	clear sky	12-Oct	16-Apr	3	N	17-Jan	66	30.45	10
Fri Jan 29 09:30:15 2010	San Antonio, Texas 78201  	light rain	57 14	54 12	29-Dec	N	54 12	88	29.9	5
Fri Jan 29 09:30:15 2010	Chicago, Illinois 60601  	clear sky	14-Jul	-2 -19	5	NW	-6 -21	55	30.52	10
Fri Jan 29 09:30:16 2010	Columbus, Ohio 43085  	clear sky	12-Oct	-2 -19	8	N	17-Jan	66	30.42	10
Fri Jan 29 09:30:16 2010	Jacksonville, Florida 32099  	clear sky	48 9	48 9	0		41 5	76	30.18	10
Fri Jan 29 09:30:17 2010	Seattle, Washington 98101  	clear sky	46 8	45 7	3	SE	34 1	61	30	10
Fri Jan 29 09:30:17 2010	Dallas, Texas 75201  	light rain	43 6	39 4	6	NE	41 5	93	30.02	6
Fri Jan 29 09:30:17 2010	Houston, Texas 77001  	light rain	64 18	63 17	21-Dec	SE	63 17	94	29.86	9
Fri Jan 29 09:30:18 2010	Milwaukee, Wisconsin 53201  	clear sky	15-May	-6 -21	6	NW	-11 -24	46	30.51	10
Fri Jan 29 09:30:18 2010	Detroit, Michigan 48201  	clear sky	13-Sep	0 -18	5	W	-2 -19	61	30.45	10
Fri Jan 29 09:30:18 2010	Philadelphia, Pennsylvania 19019  	clear sky	18 -8	16-Apr	15-24	NW	-2 -19	41	30.29	10
Fri Jan 29 12:02:09 2010	Charlotte, North Carolina 28201  	clear sky	39 4	35 2	6	NE	23 -5	52	30.19	10
Fri Jan 29 12:02:09 2010	San Jose, California 95101  	clear sky	46 8	46 8	0		45 7	93	30.03	7
Fri Jan 29 12:02:10 2010	Denver, Colorado 80214  	mostly cloudy	25 -4	19 -7	5	S	21 -6	86	30.05	6
Fri Jan 29 12:02:10 2010	San Diego, California 92101  	mostly cloudy	54 12	54 12	0		48 9	82	30.06	6
Fri Jan 29 12:02:11 2010	Memphis, Tennessee 37501  	mostly cloudy	32 0	21 -6	18-26	NE	21 -6	64	30.23	10
Fri Jan 29 12:02:11 2010	El Paso, Texas 79901  	light snow	30 -1	20 -7	13	N	25 -4	80	30.11	6
Fri Jan 29 12:02:11 2010	Los Angeles, California 90001  	clear sky	54 12	54 12	0		45 7	71	30.05	10
Fri Jan 29 12:02:12 2010	New York, New York 10001  	clear sky	18 -8	13-Aug	22-Aug	W	-2 -19	41	30.27	10
Fri Jan 29 12:02:12 2010	Baltimore, Maryland 21201  	normal	21 -6	21 -6			0 -18	38	30.37	
Fri Jan 29 12:02:13 2010	Washington, Washington D. C. 20001  	mostly cloudy	21 -6	13-Aug	14-24	N	17-Jan	41	30.39	10
Fri Jan 29 12:02:13 2010	Las Vegas, Nevada 89101  	clear sky	45 7	44 7	3	E	34 1	66	30.07	10
Fri Jan 29 12:02:13 2010	Austin, Texas 73301  	mostly cloudy	48 9	42 6	14-22	NW	46 8	93	29.94	10
Fri Jan 29 12:02:14 2010	Nashville, Tennessee 37201  	mostly cloudy	28 -2	20 -7	8	N	16 -9	59	30.34	10
Fri Jan 29 12:02:14 2010	Oklahoma City, Oklahoma 73101  	light snow	25 -4	11-Dec	17	N	21 -6	86	30.14	3
Fri Jan 29 12:02:14 2010	San Francisco, California 94101  	mostly cloudy	46 8	45 7	3	SW	45 7	93	30.04	6
Fri Jan 29 12:02:15 2010	Portland, Oregon 97201  	clear sky	18 -8	0 -18	25-51	W	0 -18	44	30.01	10
Fri Jan 29 12:02:15 2010	Fort Worth, Texas 76101  	light rain	39 4	31 -1	15-23	NW	37 3	93	29.99	10
Fri Jan 29 12:02:15 2010	Phoenix, Arizona 85001  	mostly cloudy	54 12	52 11	7	E	48 9	82	30.04	10
Fri Jan 29 12:02:16 2010	San Antonio, Texas 78201  	mostly cloudy	48 9	42 6	14-25	N	46 8	93	29.9	8
Fri Jan 29 12:02:16 2010	Chicago, Illinois 60601  	mostly cloudy	14-Jul	-5 -21	7	N	-8 -22	51	30.5	10
Fri Jan 29 12:02:17 2010	Indianapolis, Indiana 46201  	mostly cloudy	12-Oct	17-Jan	5	N	16-Mar	72	30.43	10
Fri Jan 29 12:02:17 2010	Jacksonville, Florida 32099  	mostly cloudy	48 9	47 8	3	NW	43 6	81	30.19	10
Fri Jan 29 12:02:18 2010	Columbus, Ohio 43085  	clear sky	13-Sep	-1 -18	6	N	0 -18	66	30.44	10
Fri Jan 29 12:02:18 2010	Dallas, Texas 75201  	light rain	41 5	36 2	8	NE	39 4	93	30	6
Fri Jan 29 12:02:18 2010	Houston, Texas 77001  	mostly cloudy	66 19	65 18	14-20	S	64 18	94	29.79	8
Fri Jan 29 12:02:19 2010	Detroit, Michigan 48201  	clear sky	14-Jul	-4 -20	6	W	0 -18	72	30.43	10
Fri Jan 29 12:02:19 2010	Milwaukee, Wisconsin 53201  	clear sky	16-Mar	-10 -23	8	NW	-9 -23	55	30.49	10
Fri Jan 29 12:02:19 2010	Seattle, Washington 98101  	clear sky	45 7	45 7	0		34 1	66	29.97	10
Fri Jan 29 12:02:20 2010	Philadelphia, Pennsylvania 19019  	clear sky	18 -8	15-May	23-Dec	NW	-2 -19	41	30.32	10
Fri Jan 29 12:46:48 2010	Charlotte, North Carolina 28201  	clear sky	39 4	33 1	8	NE	19 -7	44	30.2	10
Fri Jan 29 12:46:48 2010	San Jose, California 95101  	clear sky	46 8	46 8	0		43 6	87	30.02	8
Fri Jan 29 12:46:49 2010	Memphis, Tennessee 37501  	mostly cloudy	32 0	21 -6	18-24	NE	21 -6	64	30.2	10
Fri Jan 29 12:46:49 2010	Denver, Colorado 80214  	mostly cloudy	25 -4	25 -4	0		21 -6	86	30.04	5
Fri Jan 29 12:46:49 2010	San Diego, California 92101  	mostly cloudy	54 12	54 12	0		46 8	77	30.05	8
Fri Jan 29 12:46:50 2010	New York, New York 10001  	clear sky	18 -8	14-Jun	17-Oct	W	0 -18	44	30.26	10
Fri Jan 29 12:46:50 2010	El Paso, Texas 79901  	mostly cloudy	30 -1	21 -6	10	N	27 -3	86	30.12	7
Fri Jan 29 12:46:50 2010	Los Angeles, California 90001  	clear sky	52 11	52 11	0		45 7	76	30.04	10
Fri Jan 29 12:46:51 2010	Washington, Washington D. C. 20001  	mostly cloudy	19 -7	15-May	14	N	0 -18	41	30.4	10
Fri Jan 29 12:46:51 2010	Baltimore, Maryland 21201  	normal	19 -7	19 -7			0 -18	41	30.38	
Fri Jan 29 12:46:51 2010	Las Vegas, Nevada 89101  	mostly cloudy	43 6	43 6	0		34 1	70	30.06	10
Fri Jan 29 12:46:53 2010	Oklahoma City, Oklahoma 73101  	mostly cloudy	25 -4	11-Dec	16-24	N	21 -6	86	30.13	3
Fri Jan 29 12:46:53 2010	Austin, Texas 73301  	moderate rain	45 7	37 3	20-25	N	43 6	93	29.94	4
Fri Jan 29 12:46:53 2010	San Francisco, California 94101  	mostly cloudy	48 9	48 9	0		46 8	93	30.03	7
Fri Jan 29 12:46:54 2010	Nashville, Tennessee 37201  	mostly cloudy	28 -2	18 -8	12	N	16 -9	59	30.33	10
Fri Jan 29 12:46:54 2010	Fort Worth, Texas 76101  	moderate rain	37 3	29 -2	23-Dec	NW	36 2	93	30.01	8
Fri Jan 29 12:46:55 2010	Portland, Oregon 97201  	clear sky	18 -8	0 -18	24-35	W	-2 -19	41	30.02	10
Fri Jan 29 12:46:55 2010	Phoenix, Arizona 85001  	mostly cloudy	54 12	53 12	5	E	48 9	82	30.03	10
Fri Jan 29 12:46:55 2010	Chicago, Illinois 60601  	mostly cloudy	14-Jul	-5 -21	7	NW	-8 -22	51	30.51	10
Fri Jan 29 12:46:56 2010	Indianapolis, Indiana 46201  	mostly cloudy	11-Dec	17-Feb	6	NE	16-Mar	66	30.44	10
Fri Jan 29 12:46:56 2010	San Antonio, Texas 78201  	light rain	46 8	39 4	18-23	N	43 6	87	29.94	5
Fri Jan 29 12:46:57 2010	Columbus, Ohio 43085  	clear sky	13-Sep	-1 -18	6	N	0 -18	66	30.44	10
Fri Jan 29 12:46:57 2010	Jacksonville, Florida 32099  	mostly cloudy	48 9	48 9	0		43 6	81	30.18	10
Fri Jan 29 12:46:58 2010	Dallas, Texas 75201  	light rain	41 5	35 2	9	NE	39 4	93	30.01	6
Fri Jan 29 12:46:58 2010	Houston, Texas 77001  	light rain	66 19	65 18	15-24	S	64 18	94	29.78	8
Fri Jan 29 12:46:59 2010	Detroit, Michigan 48201  	clear sky	14-Jul	-4 -20	6	W	0 -18	72	30.45	10
Fri Jan 29 12:46:59 2010	Milwaukee, Wisconsin 53201  	clear sky	16-Mar	-9 -23	7	NW	-9 -23	55	30.5	10
Fri Jan 29 12:46:59 2010	Seattle, Washington 98101  	mostly cloudy	45 7	45 7	0		36 2	70	29.96	10
Fri Jan 29 12:47:00 2010	Philadelphia, Pennsylvania 19019  	clear sky	18 -8	13-Sep	23-Jul	W	0 -18	44	30.33	10
Fri Jan 29 13:34:32 2010	Charlotte, North Carolina 28201  	clear sky	39 4	33 1	8	NE	19 -7	44	30.2	10
Fri Jan 29 13:34:32 2010	San Diego, California 92101  	mostly cloudy	54 12	54 12	0		46 8	77	30.05	8
Fri Jan 29 13:34:32 2010	San Jose, California 95101  	clear sky	46 8	46 8	0		43 6	87	30.02	8
Fri Jan 29 13:34:33 2010	Memphis, Tennessee 37501  	mostly cloudy	32 0	21 -6	18-24	NE	21 -6	64	30.2	10
Fri Jan 29 13:34:33 2010	Denver, Colorado 80214  	mostly cloudy	25 -4	25 -4	0		21 -6	86	30.04	5
Fri Jan 29 13:34:33 2010	Los Angeles, California 90001  	clear sky	52 11	52 11	0		45 7	76	30.04	10
Fri Jan 29 13:34:34 2010	New York, New York 10001  	clear sky	18 -8	14-Jun	17-Oct	W	0 -18	44	30.26	10
Fri Jan 29 13:34:34 2010	El Paso, Texas 79901  	mostly cloudy	30 -1	21 -6	10	N	27 -3	86	30.12	7
Fri Jan 29 13:34:35 2010	Washington, Washington D. C. 20001  	mostly cloudy	19 -7	15-May	14	N	0 -18	41	30.4	10
Fri Jan 29 13:34:35 2010	Baltimore, Maryland 21201  	normal	19 -7	19 -7			0 -18	41	30.38	
Fri Jan 29 13:34:35 2010	Las Vegas, Nevada 89101  	mostly cloudy	43 6	43 6	0		34 1	70	30.06	10
Fri Jan 29 13:34:36 2010	Oklahoma City, Oklahoma 73101  	mostly cloudy	25 -4	11-Dec	16-24	N	21 -6	86	30.13	3
Fri Jan 29 13:34:36 2010	Austin, Texas 73301  	moderate rain	45 7	37 3	20-25	N	43 6	93	29.94	4
Fri Jan 29 13:34:36 2010	San Francisco, California 94101  	mostly cloudy	48 9	48 9	0		46 8	93	30.03	7
Fri Jan 29 13:34:37 2010	Nashville, Tennessee 37201  	mostly cloudy	28 -2	18 -8	12	N	16 -9	59	30.33	10
Fri Jan 29 13:34:37 2010	Fort Worth, Texas 76101  	moderate rain	37 3	29 -2	23-Dec	NW	36 2	93	30.01	8
Fri Jan 29 13:34:37 2010	Phoenix, Arizona 85001  	mostly cloudy	54 12	53 12	5	E	48 9	82	30.03	10
Fri Jan 29 13:34:38 2010	Portland, Oregon 97201  	clear sky	18 -8	0 -18	24-35	W	-2 -19	41	30.02	10
Fri Jan 29 13:34:38 2010	San Antonio, Texas 78201  	light rain	46 8	39 4	18-23	N	43 6	87	29.94	5
Fri Jan 29 13:34:38 2010	Chicago, Illinois 60601  	mostly cloudy	14-Jul	-5 -21	7	NW	-8 -22	51	30.51	10
Fri Jan 29 13:34:39 2010	Indianapolis, Indiana 46201  	mostly cloudy	11-Dec	17-Feb	6	NE	16-Mar	66	30.44	10
Fri Jan 29 13:34:39 2010	Jacksonville, Florida 32099  	mostly cloudy	48 9	48 9	0		43 6	81	30.18	10
Fri Jan 29 13:34:40 2010	Columbus, Ohio 43085  	clear sky	13-Sep	-1 -18	6	N	0 -18	66	30.44	10
Fri Jan 29 13:34:40 2010	Dallas, Texas 75201  	light rain	41 5	35 2	9	NE	39 4	93	30.01	6
Fri Jan 29 13:34:41 2010	Houston, Texas 77001  	light rain	66 19	65 18	15-24	S	64 18	94	29.78	8
Fri Jan 29 13:34:41 2010	Milwaukee, Wisconsin 53201  	clear sky	16-Mar	-9 -23	7	NW	-9 -23	55	30.5	10
Fri Jan 29 13:34:41 2010	Seattle, Washington 98101  	mostly cloudy	45 7	45 7	0		36 2	70	29.96	10
Fri Jan 29 13:34:42 2010	Detroit, Michigan 48201  	clear sky	14-Jul	-4 -20	6	W	0 -18	72	30.45	10
Fri Jan 29 13:34:42 2010	Philadelphia, Pennsylvania 19019  	clear sky	18 -8	13-Sep	23-Jul	W	0 -18	44	30.33	10
Fri Jan 29 14:22:21 2010	Charlotte, North Carolina 28201  	clear sky	37 3	32 0	6	NE	19 -7	48	30.23	10
Fri Jan 29 14:22:21 2010	San Jose, California 95101  	clear sky	46 8	46 8	0		43 6	87	30.02	9
Fri Jan 29 14:22:22 2010	Denver, Colorado 80214  	clear sky	21 -6	14 -10	5	S	19 -7	93	30.04	4
Fri Jan 29 14:22:22 2010	Memphis, Tennessee 37501  	mostly cloudy	32 0	22 -6	13	NE	21 -6	64	30.23	10
Fri Jan 29 14:22:22 2010	San Diego, California 92101  	mostly cloudy	54 12	54 12	0		46 8	77	30.05	9
Fri Jan 29 14:22:23 2010	El Paso, Texas 79901  	mostly cloudy	30 -1	22 -6	9	N	27 -3	86	30.12	10
Fri Jan 29 14:22:23 2010	Los Angeles, California 90001  	clear sky	52 11	52 11	0		43 6	71	30.04	10
Fri Jan 29 14:22:24 2010	New York, New York 10001  	clear sky	16 -9	17-Jan	16-16	W	-2 -19	44	30.27	10
Fri Jan 29 14:22:24 2010	Las Vegas, Nevada 89101  	mostly cloudy	43 6	42 6	3	SW	34 1	70	30.06	10
Fri Jan 29 14:22:24 2010	Baltimore, Maryland 21201  	normal	19 -7	19 -7			0 -18	41	30.4	
Fri Jan 29 14:22:25 2010	Washington, Washington D. C. 20001  	mostly cloudy	19 -7	16-Apr	16-21	NW	0 -18	41	30.43	10
Fri Jan 29 14:22:25 2010	Austin, Texas 73301  	light rain	45 7	38 3	17-25	NW	43 6	93	29.96	8
Fri Jan 29 14:22:25 2010	San Francisco, California 94101  	mostly cloudy	48 9	48 9	0		46 8	93	30.03	7
Fri Jan 29 14:22:26 2010	Nashville, Tennessee 37201  	mostly cloudy	28 -2	19 -7	10	NE	16 -9	59	30.31	10
Fri Jan 29 14:22:26 2010	Oklahoma City, Oklahoma 73101  	mostly cloudy	25 -4	11-Dec	16-22	N	21 -6	86	30.12	4
Fri Jan 29 14:22:26 2010	Fort Worth, Texas 76101  	light rain	37 3	28 -2	16-24	NW	34 1	87	30.01	10
Fri Jan 29 14:22:27 2010	Phoenix, Arizona 85001  	mostly cloudy	54 12	52 11	8	E	48 9	82	30.02	10
Fri Jan 29 14:22:27 2010	Portland, Oregon 97201  	clear sky	18 -8	0 -18	26-41	W	-6 -21	34	30.02	10
Fri Jan 29 14:22:27 2010	Chicago, Illinois 60601  	mostly cloudy	14-Jul	-6 -21	8	NW	-8 -22	51	30.51	10
Fri Jan 29 14:22:28 2010	Indianapolis, Indiana 46201  	mostly cloudy	11-Dec	17-Jan	7	NE	16-Mar	66	30.45	10
Fri Jan 29 14:22:28 2010	San Antonio, Texas 78201  	light rain	45 7	39 4	14-25	N	43 6	93	29.98	10
Fri Jan 29 14:22:29 2010	Columbus, Ohio 43085  	clear sky	13-Sep	0 -18	5	N	0 -18	66	30.46	10
Fri Jan 29 14:22:29 2010	Dallas, Texas 75201  	light rain	39 4	35 2	5	NE	37 3	93	30.03	6
Fri Jan 29 14:22:29 2010	Jacksonville, Florida 32099  	mostly cloudy	50 10	50 10	0		46 8	87	30.18	10
Fri Jan 29 14:22:30 2010	Houston, Texas 77001  	heavy Tstorm	63 17	61 16	14-32	NW	61 16	94	29.78	1.2
Fri Jan 29 14:22:30 2010	Milwaukee, Wisconsin 53201  	clear sky	16-Mar	-9 -23	7	W	-9 -23	55	30.52	10
Fri Jan 29 14:22:30 2010	Seattle, Washington 98101  	clear sky	45 7	45 7	0		36 2	70	29.96	10
Fri Jan 29 14:22:31 2010	Detroit, Michigan 48201  	clear sky	13-Sep	0 -18	5	NW	0 -18	66	30.44	10
Fri Jan 29 14:22:31 2010	Philadelphia, Pennsylvania 19019  	clear sky	16 -9	16-Apr	10	NW	0 -18	48	30.34	10
Fri Jan 29 15:07:18 2010	Charlotte, North Carolina 28201  	clear sky	37 3	32 0	6	NE	18 -8	44	30.25	10
Fri Jan 29 15:07:18 2010	San Jose, California 95101  	clear sky	45 7	45 7	0		43 6	93	30.02	9
Fri Jan 29 15:07:19 2010	Denver, Colorado 80214  	clear sky	19 -7	11-Dec	5	SW	16 -9	86	30.03	4
Fri Jan 29 15:07:19 2010	Memphis, Tennessee 37501  	mostly cloudy	32 0	22 -6	15	NE	21 -6	64	30.24	9
Fri Jan 29 15:07:19 2010	San Diego, California 92101  	mostly cloudy	52 11	52 11	0		46 8	82	30.05	9
Fri Jan 29 15:07:20 2010	El Paso, Texas 79901  	mostly cloudy	30 -1	21 -6	10	NE	25 -4	80	30.12	10
Fri Jan 29 15:07:20 2010	Los Angeles, California 90001  	clear sky	50 10	50 10	0		43 6	76	30.04	10
Fri Jan 29 15:07:21 2010	New York, New York 10001  	clear sky	16 -9	17-Jan	15-28	NW	-2 -19	44	30.3	10
Fri Jan 29 15:07:21 2010	Baltimore, Maryland 21201  	normal	19 -7	19 -7			0 -18	41	30.41	
Fri Jan 29 15:07:21 2010	Las Vegas, Nevada 89101  	mostly cloudy	43 6	43 6	0		34 1	70	30.06	10
Fri Jan 29 15:07:22 2010	Washington, Washington D. C. 20001  	mostly cloudy	19 -7	16-Apr	17-21	NW	0 -18	41	30.44	10
Fri Jan 29 15:07:22 2010	Austin, Texas 73301  	scattered Tstorm	43 6	35 2	16-25	NW	41 5	93	30.01	6
Fri Jan 29 15:07:22 2010	San Francisco, California 94101  	mostly cloudy	48 9	47 8	3	S	46 8	93	30.03	7
Fri Jan 29 15:07:23 2010	Nashville, Tennessee 37201  	mostly cloudy	28 -2	19 -7	10	NE	16 -9	59	30.3	10
Fri Jan 29 15:07:23 2010	Oklahoma City, Oklahoma 73101  	light snow	25 -4	11-Dec	17-24	N	21 -6	86	30.12	2.5
Fri Jan 29 15:07:23 2010	Fort Worth, Texas 76101  	light rain	36 2	26 -3	18-24	NW	34 1	93	30.03	10
Fri Jan 29 15:07:24 2010	Portland, Oregon 97201  	clear sky	18 -8	-2 -19	32-44	W	-4 -20	37	30.02	10
Fri Jan 29 15:07:24 2010	Phoenix, Arizona 85001  	clear sky	52 11	51 11	5	E	48 9	87	30.03	10
Fri Jan 29 15:07:24 2010	Chicago, Illinois 60601  	mostly cloudy	15-May	-5 -21	5	NW	-6 -21	60	30.51	10
Fri Jan 29 15:07:25 2010	Indianapolis, Indiana 46201  	mostly cloudy	11-Dec	0 -18	8	N	16-Mar	66	30.46	10
Fri Jan 29 15:07:25 2010	San Antonio, Texas 78201  	heavy rain	41 5	33 1	14-28	N	37 3	87	30.04	4
Fri Jan 29 15:07:26 2010	Columbus, Ohio 43085  	clear sky	13-Sep	-2 -19	7	N	0 -18	66	30.46	10
Fri Jan 29 15:07:26 2010	Dallas, Texas 75201  	light rain	37 3	31 -1	8	N	36 2	93	30.03	6
Fri Jan 29 15:07:26 2010	Jacksonville, Florida 32099  	mostly cloudy	52 11	52 11	3	NE	46 8	82	30.18	9
Fri Jan 29 15:07:27 2010	Houston, Texas 77001  	moderate rain	59 15	57 14	20-Dec	NW	55 13	88	29.83	7
Fri Jan 29 15:07:27 2010	Milwaukee, Wisconsin 53201  	clear sky	16-Mar	-9 -23	7	NW	-8 -22	60	30.51	10
Fri Jan 29 15:07:27 2010	Seattle, Washington 98101  	mostly cloudy	45 7	45 7	0		37 3	76	29.96	10
Fri Jan 29 15:07:28 2010	Detroit, Michigan 48201  	clear sky	13-Sep	0 -18	5	W	0 -18	66	30.47	10
Fri Jan 29 15:07:28 2010	Philadelphia, Pennsylvania 19019  	clear sky	18 -8	14-Jul	9	W	17-Jan	48	30.37	10
Fri Jan 29 15:52:55 2010	Charlotte, North Carolina 28201  	clear sky	37 3	29 -2	17-Dec	E	19 -7	48	30.27	10
Fri Jan 29 15:52:55 2010	San Jose, California 95101  	mostly cloudy	45 7	45 7	0		43 6	93	30.02	9
Fri Jan 29 15:52:56 2010	Memphis, Tennessee 37501  	mostly cloudy	30 -1	19 -7	15	E	25 -4	80	30.24	8
Fri Jan 29 15:52:56 2010	Denver, Colorado 80214  	clear sky	19 -7	19 -7	0		16 -9	86	30.03	6
Fri Jan 29 15:52:56 2010	San Diego, California 92101  	clear sky	52 11	52 11	0		45 7	76	30.05	9
Fri Jan 29 15:52:57 2010	New York, New York 10001  	clear sky	16 -9	0 -18	17-24	W	-2 -19	44	30.31	10
Fri Jan 29 15:52:57 2010	El Paso, Texas 79901  	mostly cloudy	30 -1	23 -5	7	N	25 -4	80	30.14	10
Fri Jan 29 15:52:57 2010	Los Angeles, California 90001  	clear sky	50 10	50 10	0		43 6	76	30.03	10
Fri Jan 29 15:52:58 2010	Washington, Washington D. C. 20001  	mostly cloudy	21 -6	14-Jul	16-23	NW	17-Jan	41	30.45	10
Fri Jan 29 15:52:58 2010	Las Vegas, Nevada 89101  	mostly cloudy	41 5	39 4	3	W	34 1	75	30.06	10
Fri Jan 29 15:52:58 2010	Baltimore, Maryland 21201  	normal	21 -6	21 -6			0 -18	38	30.42	
Fri Jan 29 15:52:59 2010	Oklahoma City, Oklahoma 73101  	light snow	23 -5	13-Sep	17	N	19 -7	86	30.13	1
Fri Jan 29 15:52:59 2010	Austin, Texas 73301  	light rain	41 5	35 2	23-Oct	NW	41 5	100	30.06	7
Fri Jan 29 15:52:59 2010	San Francisco, California 94101  	mostly cloudy	48 9	48 9	0		46 8	93	30.01	6
Fri Jan 29 15:53:00 2010	Nashville, Tennessee 37201  	light snow	28 -2	19 -7	10	NE	14 -10	54	30.33	9
Fri Jan 29 15:53:00 2010	Fort Worth, Texas 76101  	light rain	36 2	27 -3	15-23	NW	34 1	93	30.05	10
Fri Jan 29 15:53:01 2010	Portland, Oregon 97201  	clear sky	18 -8	17-Jan	22-45	W	-2 -19	41	30.04	10
Fri Jan 29 15:53:01 2010	Phoenix, Arizona 85001  	clear sky	52 11	52 11	3	E	48 9	87	30.03	10
Fri Jan 29 15:53:01 2010	Chicago, Illinois 60601  	mostly cloudy	14-Jul	-2 -19	5	NW	-6 -21	55	30.52	10
Fri Jan 29 15:53:02 2010	Indianapolis, Indiana 46201  	mostly cloudy	11-Dec	0 -18	8	NE	16-Mar	66	30.44	10
Fri Jan 29 15:53:02 2010	San Antonio, Texas 78201  	moderate rain	41 5	33 1	14-22	N	39 4	93	30.05	4
Fri Jan 29 15:53:03 2010	Columbus, Ohio 43085  	clear sky	12-Oct	-1 -18	7	N	0 -18	61	30.46	10
Fri Jan 29 15:53:03 2010	Dallas, Texas 75201  	moderate rain	37 3	32 0	7	N	36 2	93	30.05	4
Fri Jan 29 15:53:03 2010	Jacksonville, Florida 32099  	mostly cloudy	54 12	53 12	5	N	46 8	77	30.2	9
Fri Jan 29 15:53:04 2010	Houston, Texas 77001  	light rain	57 14	54 12	13-24	NW	55 13	94	29.86	8
Fri Jan 29 15:53:04 2010	Milwaukee, Wisconsin 53201  	clear sky	16-Mar	-9 -23	7	NW	-8 -22	60	30.51	10
Fri Jan 29 15:53:04 2010	Seattle, Washington 98101  	clear sky	45 7	45 7	0		37 3	76	29.97	10
Fri Jan 29 15:53:05 2010	Detroit, Michigan 48201  	clear sky	12-Oct	0 -18	6	NW	0 -18	61	30.47	10
Fri Jan 29 15:53:05 2010	Philadelphia, Pennsylvania 19019  	clear sky	18 -8	15-May	12	W	17-Jan	48	30.38	10
Fri Jan 29 16:40:36 2010	Charlotte, North Carolina 28201  	clear sky	41 5	34 1	13-17	E	11-Dec	30	30.27	10
Fri Jan 29 16:40:36 2010	San Diego, California 92101  	mostly cloudy	52 11	52 11	0		45 7	76	30.06	10
Fri Jan 29 16:40:36 2010	San Jose, California 95101  	mostly cloudy	45 7	45 7	0		43 6	93	30.02	9
Fri Jan 29 16:40:37 2010	Memphis, Tennessee 37501  	mostly cloudy	30 -1	22 -6	18-Sep	NE	25 -4	80	30.28	4
Fri Jan 29 16:40:37 2010	Denver, Colorado 80214  	clear sky	21 -6	21 -6	0		18 -8	86	30.04	7
Fri Jan 29 16:40:37 2010	Los Angeles, California 90001  	clear sky	52 11	52 11	0		39 4	62	30.05	10
Fri Jan 29 16:40:38 2010	New York, New York 10001  	clear sky	18 -8	15-May	13-28	W	-4 -20	37	30.31	10
Fri Jan 29 16:40:38 2010	Baltimore, Maryland 21201  	normal	21 -6	21 -6			0 -18	38	30.44	
Fri Jan 29 16:40:38 2010	El Paso, Texas 79901  	mostly cloudy	30 -1	30 -1	0		25 -4	80	30.15	10
Fri Jan 29 16:40:39 2010	Washington, Washington D. C. 20001  	mostly cloudy	21 -6	14-Jul	15	N	17-Jan	41	30.46	10
Fri Jan 29 16:40:39 2010	Las Vegas, Nevada 89101  	mostly cloudy	43 6	40 4	5	SW	34 1	70	30.07	10
Fri Jan 29 16:40:39 2010	Austin, Texas 73301  	moderate rain	41 5	34 1	13-21	NW	39 4	93	30.06	3
Fri Jan 29 16:40:40 2010	Nashville, Tennessee 37201  	light snow	27 -3	16 -9	13	NE	18 -8	68	30.36	1.5
Fri Jan 29 16:40:40 2010	Oklahoma City, Oklahoma 73101  	light snow	23 -5	12-Nov	14-22	N	19 -7	86	30.12	1.7
Fri Jan 29 16:40:40 2010	San Francisco, California 94101  	mostly cloudy	48 9	46 8	5	SW	46 8	93	30.01	7
Fri Jan 29 16:40:41 2010	Portland, Oregon 97201  	clear sky	19 -7	17-Jan	26-38	W	0 -18	41	30.04	10
Fri Jan 29 16:40:41 2010	Fort Worth, Texas 76101  	moderate rain	36 2	27 -3	15-23	NW	32 0	87	30.08	7
Fri Jan 29 16:40:41 2010	Phoenix, Arizona 85001  	clear sky	52 11	52 11	3	E	48 9	87	30.05	10
Fri Jan 29 16:40:42 2010	Indianapolis, Indiana 46201  	mostly cloudy	14 -10	15-May	6	NE	16-Mar	61	30.48	10
Fri Jan 29 16:40:42 2010	San Antonio, Texas 78201  	light rain	43 6	35 2	17-24	N	37 3	81	30.05	8
Fri Jan 29 16:40:42 2010	Chicago, Illinois 60601  	mostly cloudy	13-Sep	0 -18	5	N	-4 -20	56	30.51	10
Fri Jan 29 16:40:43 2010	Columbus, Ohio 43085  	clear sky	12-Oct	0 -18	6	NE	0 -18	61	30.46	10
Fri Jan 29 16:40:43 2010	Jacksonville, Florida 32099  	mostly cloudy	55 13	54 12	5	SE	45 7	67	30.2	9
Fri Jan 29 16:40:44 2010	Dallas, Texas 75201  	light rain	37 3	32 0	7	N	36 2	93	30.08	6
Fri Jan 29 16:40:44 2010	Houston, Texas 77001  	light rain	57 14	53 12	18-24	NW	54 12	88	29.89	10
Fri Jan 29 16:40:45 2010	Detroit, Michigan 48201  	clear sky	11-Dec	-1 -18	10	NW	-2 -19	52	30.46	10
Fri Jan 29 16:40:45 2010	Seattle, Washington 98101  	mostly cloudy	45 7	41 5	7	SE	36 2	70	29.96	10
Fri Jan 29 16:40:45 2010	Milwaukee, Wisconsin 53201  	clear sky	14-Jul	-6 -21	8	NW	-6 -21	55	30.49	10
Fri Jan 29 16:40:46 2010	Philadelphia, Pennsylvania 19019  	clear sky	19 -7	15-May	15	NW	17-Jan	45	30.38	10
Fri Jan 29 17:25:03 2010	Charlotte, North Carolina 28201  	clear sky	41 5	34 1	13-17	E	11-Dec	30	30.27	10
Fri Jan 29 17:25:03 2010	San Jose, California 95101  	mostly cloudy	45 7	45 7	0		43 6	93	30.02	9
Fri Jan 29 17:25:04 2010	Memphis, Tennessee 37501  	mostly cloudy	30 -1	19 -7	14	NE	27 -3	86	30.27	2
Fri Jan 29 17:25:04 2010	Denver, Colorado 80214  	clear sky	21 -6	21 -6	0		18 -8	86	30.04	7
Fri Jan 29 17:25:04 2010	San Diego, California 92101  	mostly cloudy	52 11	52 11	0		45 7	76	30.06	10
Fri Jan 29 17:25:05 2010	New York, New York 10001  	clear sky	18 -8	15-May	13-28	W	-4 -20	37	30.31	10
Fri Jan 29 17:25:05 2010	El Paso, Texas 79901  	mostly cloudy	30 -1	30 -1	0		25 -4	80	30.15	10
Fri Jan 29 17:25:05 2010	Los Angeles, California 90001  	clear sky	52 11	52 11	0		39 4	62	30.05	10
Fri Jan 29 17:25:06 2010	Washington, Washington D. C. 20001  	mostly cloudy	21 -6	14-Jul	15	N	17-Jan	41	30.46	10
Fri Jan 29 17:25:06 2010	Las Vegas, Nevada 89101  	mostly cloudy	43 6	40 4	5	SW	34 1	70	30.07	10
Fri Jan 29 17:25:06 2010	Baltimore, Maryland 21201  	normal	21 -6	21 -6			0 -18	38	30.44	
Fri Jan 29 17:25:07 2010	Oklahoma City, Oklahoma 73101  	light snow	23 -5	12-Oct	15	N	19 -7	86	30.13	1.7
Fri Jan 29 17:25:07 2010	Austin, Texas 73301  	light rain	41 5	33 1	16-21	NW	39 4	93	30.05	7
Fri Jan 29 17:25:07 2010	San Francisco, California 94101  	mostly cloudy	48 9	46 8	5	SW	46 8	93	30.01	7
Fri Jan 29 17:25:08 2010	Nashville, Tennessee 37201  	light snow	25 -4	15 -9	10	NE	19 -7	80	30.36	1
Fri Jan 29 17:25:08 2010	Fort Worth, Texas 76101  	moderate rain	36 2	27 -3	15-23	NW	32 0	87	30.08	7
Fri Jan 29 17:25:09 2010	Portland, Oregon 97201  	clear sky	19 -7	17-Jan	26-38	W	0 -18	41	30.04	10
Fri Jan 29 17:25:09 2010	Chicago, Illinois 60601  	mostly cloudy	13-Sep	0 -18	5	N	-4 -20	56	30.51	10
Fri Jan 29 17:25:09 2010	Phoenix, Arizona 85001  	clear sky	52 11	52 11	3	E	48 9	87	30.05	10
Fri Jan 29 17:25:10 2010	Indianapolis, Indiana 46201  	mostly cloudy	14 -10	15-May	6	NE	16-Mar	61	30.48	10
Fri Jan 29 17:25:10 2010	San Antonio, Texas 78201  	light rain	43 6	35 2	17-24	N	37 3	81	30.05	8
Fri Jan 29 17:25:11 2010	Columbus, Ohio 43085  	clear sky	12-Oct	0 -18	6	NE	0 -18	61	30.46	10
Fri Jan 29 17:25:11 2010	Dallas, Texas 75201  	light rain	37 3	32 0	7	N	36 2	93	30.07	6
Fri Jan 29 17:25:11 2010	Jacksonville, Florida 32099  	mostly cloudy	55 13	54 12	5	SE	45 7	67	30.2	9
Fri Jan 29 17:25:12 2010	Seattle, Washington 98101  	mostly cloudy	45 7	41 5	7	SE	36 2	70	29.96	10
Fri Jan 29 17:25:12 2010	Houston, Texas 77001  	light rain	57 14	53 12	18-24	NW	54 12	88	29.89	10
Fri Jan 29 17:25:12 2010	Milwaukee, Wisconsin 53201  	clear sky	14-Jul	-6 -21	8	NW	-6 -21	55	30.49	10
Fri Jan 29 17:25:13 2010	Philadelphia, Pennsylvania 19019  	clear sky	19 -7	15-May	15	NW	17-Jan	45	30.38	10
Fri Jan 29 17:25:13 2010	Detroit, Michigan 48201  	clear sky	11-Dec	-1 -18	10	NW	-2 -19	52	30.46	10
Fri Jan 29 18:13:32 2010	Charlotte, North Carolina 28201  	clear sky	43 6	37 3	17-Dec	NE	16 -9	33	30.28	10
Fri Jan 29 18:13:32 2010	San Jose, California 95101  	mostly cloudy	46 8	45 7	3	SE	43 6	87	30.02	8
Fri Jan 29 18:13:32 2010	San Diego, California 92101  	mostly cloudy	54 12	54 12	3	E	45 7	71	30.08	9
Fri Jan 29 18:13:33 2010	Memphis, Tennessee 37501  	mostly cloudy	30 -1	19 -7	14	NE	27 -3	86	30.23	2
Fri Jan 29 18:13:33 2010	Denver, Colorado 80214  	clear sky	27 -3	27 -3	0		21 -6	80	30.05	10
Fri Jan 29 18:13:34 2010	El Paso, Texas 79901  	mostly cloudy	32 0	29 -2	3	N	25 -4	74	30.16	10
Fri Jan 29 18:13:34 2010	New York, New York 10001  	clear sky	19 -7	15-May	15-26	W	-4 -20	35	30.29	10
Fri Jan 29 18:13:34 2010	Los Angeles, California 90001  	clear sky	54 12	54 12	0		39 4	58	30.05	10
Fri Jan 29 18:13:35 2010	Washington, Washington D. C. 20001  	mostly cloudy	21 -6	13-Aug	14	NW	17-Jan	41	30.45	10
Fri Jan 29 18:13:35 2010	Las Vegas, Nevada 89101  	mostly cloudy	43 6	42 6	3	W	34 1	70	30.08	10
Fri Jan 29 18:13:35 2010	Baltimore, Maryland 21201  	normal	21 -6	21 -6			0 -18	38	30.4	
Fri Jan 29 18:13:36 2010	Oklahoma City, Oklahoma 73101  	light snow	23 -5	12-Nov	13	N	19 -7	86	30.15	1.7
Fri Jan 29 18:13:36 2010	Austin, Texas 73301  	mostly cloudy	41 5	33 1	14-22	NW	37 3	87	30.07	10
Fri Jan 29 18:13:36 2010	San Francisco, California 94101  	mostly cloudy	50 10	50 10	3	N	46 8	87	30.02	8
Fri Jan 29 18:13:37 2010	Nashville, Tennessee 37201  	light snow	25 -4	16 -9	9	NE	21 -6	86	30.36	1
Fri Jan 29 18:13:37 2010	Fort Worth, Texas 76101  	moderate rain	34 1	23 -5	20-26	W	30 -1	86	30.1	10
Fri Jan 29 18:13:37 2010	Phoenix, Arizona 85001  	clear sky	54 12	54 12	3	E	48 9	82	30.07	10
Fri Jan 29 18:13:38 2010	Portland, Oregon 97201  	clear sky	21 -6	15-May	23-36	W	-2 -19	35	30.04	10
Fri Jan 29 18:13:38 2010	San Antonio, Texas 78201  	light rain	43 6	34 1	21-25	N	37 3	81	30.06	10
Fri Jan 29 18:13:38 2010	Chicago, Illinois 60601  	mostly cloudy	12-Oct	12-Oct	0		-2 -19	56	30.52	10
Fri Jan 29 18:13:39 2010	Indianapolis, Indiana 46201  	mostly cloudy	16 -9	15-May	8	E	16-Mar	57	30.48	10
Fri Jan 29 18:13:40 2010	Columbus, Ohio 43085  	clear sky	11-Dec	0 -18	8	NE	0 -18	56	30.49	10
Fri Jan 29 18:13:40 2010	Dallas, Texas 75201  	light rain	37 3	32 0	7	N	36 2	93	30.08	8
Fri Jan 29 18:13:40 2010	Jacksonville, Florida 32099  	mostly cloudy	59 15	58 14	6	E	39 4	48	30.19	10
Fri Jan 29 18:13:41 2010	Houston, Texas 77001  	light rain	52 11	46 8	20-26	NW	48 9	87	29.98	10
Fri Jan 29 18:13:41 2010	Milwaukee, Wisconsin 53201  	clear sky	12-Oct	16-Apr	3	N	-6 -21	47	30.5	10
Fri Jan 29 18:13:41 2010	Seattle, Washington 98101  	mostly cloudy	46 8	46 8	0		36 2	66	29.98	10
Fri Jan 29 18:13:42 2010	Philadelphia, Pennsylvania 19019  	clear sky	21 -6	13-Aug	14	NW	17-Jan	41	30.36	10
Fri Jan 29 18:13:42 2010	Detroit, Michigan 48201  	clear sky	16 -9	15-May	8	NW	-2 -19	44	30.47	10
Fri Jan 29 18:58:36 2010	Charlotte, North Carolina 28201  	clear sky	43 6	37 3	10	NE	16 -9	33	30.28	10
Fri Jan 29 18:58:36 2010	San Jose, California 95101  	mostly cloudy	48 9	46 8	5	NE	45 7	87	30.03	8
Fri Jan 29 18:58:37 2010	Memphis, Tennessee 37501  	mostly cloudy	30 -1	17 -8	22-28	E	27 -3	86	30.15	8
Fri Jan 29 18:58:37 2010	San Diego, California 92101  	mostly cloudy	55 13	54 12	5	E	43 6	62	30.08	10
Fri Jan 29 18:58:37 2010	Denver, Colorado 80214  	clear sky	34 1	34 1	0		21 -6	59	30.07	10
Fri Jan 29 18:58:38 2010	New York, New York 10001  	clear sky	19 -7	14-Jun	28-Dec	W	-2 -19	38	30.26	10
Fri Jan 29 18:58:38 2010	El Paso, Texas 79901  	clear sky	36 2	31 -1	6	N	27 -3	69	30.16	10
Fri Jan 29 18:58:38 2010	Los Angeles, California 90001  	clear sky	57 14	57 14	0		43 6	59	30.06	10
Fri Jan 29 18:58:39 2010	Washington, Washington D. C. 20001  	mostly cloudy	23 -5	13 -11	9	NW	17-Jan	38	30.42	10
Fri Jan 29 18:58:39 2010	Baltimore, Maryland 21201  	normal	25 -4	25 -4			0 -18	33	30.39	
Fri Jan 29 18:58:39 2010	Las Vegas, Nevada 89101  	mostly cloudy	46 8	46 8	0		34 1	61	30.09	10
Fri Jan 29 18:58:40 2010	Oklahoma City, Oklahoma 73101  	light snow	23 -5	12-Nov	13	N	19 -7	86	30.13	0.7
Fri Jan 29 18:58:40 2010	Austin, Texas 73301  	mostly cloudy	43 6	35 2	18-24	N	37 3	81	30.04	10
Fri Jan 29 18:58:40 2010	San Francisco, California 94101  	mostly cloudy	52 11	49 9	8	NE	46 8	82	30.01	7
Fri Jan 29 18:58:41 2010	Nashville, Tennessee 37201  	light snow	25 -4	15 -9	10	NE	21 -6	86	30.35	1.5
Fri Jan 29 18:58:41 2010	Fort Worth, Texas 76101  	mostly cloudy	34 1	23 -5	17-25	NW	30 -1	86	30.07	10
Fri Jan 29 18:58:41 2010	Phoenix, Arizona 85001  	clear sky	55 13	54 12	6	E	48 9	77	30.09	10
Fri Jan 29 18:58:42 2010	Portland, Oregon 97201  	clear sky	19 -7	17-Feb	24-38	W	-2 -19	38	30	10
Fri Jan 29 18:58:42 2010	San Antonio, Texas 78201  	clear sky	45 7	36 2	24-28	NW	37 3	76	30.07	10
Fri Jan 29 18:58:42 2010	Chicago, Illinois 60601  	mostly cloudy	14 -10	14 -10	0		0 -18	52	30.52	10
Fri Jan 29 18:58:43 2010	Jacksonville, Florida 32099  	mostly cloudy	63 17	63 17	8	E	37 3	39	30.15	10
Fri Jan 29 18:58:43 2010	Indianapolis, Indiana 46201  	mostly cloudy	18 -8	15-May	12	E	15-May	57	30.46	10
Fri Jan 29 18:58:44 2010	Columbus, Ohio 43085  	clear sky	11-Dec	-1 -18	10	N	0 -18	56	30.49	10
Fri Jan 29 18:58:44 2010	Dallas, Texas 75201  	light rain	37 3	30 -1	10	NW	36 2	93	30.06	6
Fri Jan 29 18:58:45 2010	Houston, Texas 77001  	mostly cloudy	52 11	47 8	17-25	NW	46 8	82	29.94	10
Fri Jan 29 18:58:45 2010	Milwaukee, Wisconsin 53201  	clear sky	11-Dec	11-Dec	0		-4 -20	47	30.52	10
Fri Jan 29 18:58:45 2010	Seattle, Washington 98101  	mostly cloudy	48 9	48 9	0		37 3	66	29.99	10
Fri Jan 29 18:58:46 2010	Philadelphia, Pennsylvania 19019  	clear sky	21 -6	12-Oct	21-Oct	NW	17-Jan	41	30.33	10
Fri Jan 29 18:58:46 2010	Detroit, Michigan 48201  	clear sky	16 -9	13-Aug	17-May	NW	-2 -19	44	30.48	10
Fri Jan 29 19:50:27 2010	San Jose, California 95101  	mostly cloudy	52 11	50 10	7	E	46 8	82	30.02	8
Fri Jan 29 19:50:28 2010	Charlotte, North Carolina 28201  	clear sky	43 6	37 3	17-Oct	NE	14 -10	31	30.24	10
Fri Jan 29 19:50:28 2010	San Diego, California 92101  	mostly cloudy	61 16	60 16	7	S	45 7	55	30.1	7
Fri Jan 29 19:50:29 2010	Memphis, Tennessee 37501  	mostly cloudy	30 -1	17 -8	23-29	E	27 -3	86	30.11	8
Fri Jan 29 19:50:29 2010	Los Angeles, California 90001  	clear sky	63 17	63 17	3	N	39 4	42	30.07	10
Fri Jan 29 19:50:29 2010	Denver, Colorado 80214  	clear sky	37 3	37 3	0		18 -8	44	30.07	10
Fri Jan 29 19:50:30 2010	New York, New York 10001  	clear sky	21 -6	12-Oct	22-Oct	W	-2 -19	35	30.24	10
Fri Jan 29 19:50:30 2010	El Paso, Texas 79901  	clear sky	37 3	32 0	7	N	28 -2	70	30.16	10
Fri Jan 29 19:50:31 2010	Washington, Washington D. C. 20001  	mostly cloudy	25 -4	14 -10	12	NW	17-Jan	36	30.4	10
Fri Jan 29 19:50:31 2010	Las Vegas, Nevada 89101  	mostly cloudy	48 9	46 8	5	NE	28 -2	46	30.1	10
Fri Jan 29 19:50:31 2010	Baltimore, Maryland 21201  	normal	25 -4	25 -4			0 -18	33	30.37	
Fri Jan 29 19:50:32 2010	Austin, Texas 73301  	mostly cloudy	43 6	36 2	13-25	NW	36 2	75	30.06	10
Fri Jan 29 19:50:32 2010	San Francisco, California 94101  	mostly cloudy	52 11	50 10	7	E	48 9	87	30.03	5
Fri Jan 29 19:50:33 2010	Oklahoma City, Oklahoma 73101  	normal	23 -5	12-Oct	16	N	19 -7	86	30.11	0.5
Fri Jan 29 19:50:33 2010	Nashville, Tennessee 37201  	light snow	25 -4	16 -9	9	NE	21 -6	86	30.32	0.7
Fri Jan 29 19:50:34 2010	Fort Worth, Texas 76101  	mostly cloudy	34 1	23 -5	18-24	NW	30 -1	86	30.06	10
Fri Jan 29 19:50:35 2010	Portland, Oregon 97201  	clear sky	21 -6	16-Mar	28-35	W	-2 -19	35	29.98	10
Fri Jan 29 19:50:35 2010	Phoenix, Arizona 85001  	clear sky	59 15	58 14	6	E	48 9	67	30.09	10
Fri Jan 29 19:50:35 2010	Chicago, Illinois 60601  	mostly cloudy	18 -8	18 -8	0		17-Jan	48	30.48	10
Fri Jan 29 19:50:36 2010	San Antonio, Texas 78201  	clear sky	46 8	39 4	18-30	N	37 3	71	30.06	10
Fri Jan 29 19:50:36 2010	Indianapolis, Indiana 46201  	mostly cloudy	18 -8	14-Jun	10	E	14-Jul	62	30.43	10
Fri Jan 29 19:50:37 2010	Columbus, Ohio 43085  	clear sky	14 -10	16-Apr	7	NE	0 -18	52	30.45	10
Fri Jan 29 19:50:37 2010	Jacksonville, Florida 32099  	mostly cloudy	64 18	64 18	6	E	39 4	39	30.12	10
Fri Jan 29 19:50:38 2010	Dallas, Texas 75201  	light rain	37 3	28 -2	14	NW	36 2	93	30.04	7
Fri Jan 29 19:50:38 2010	Houston, Texas 77001  	mostly cloudy	52 11	47 8	16-21	NW	48 9	87	29.92	10
Fri Jan 29 19:50:39 2010	Detroit, Michigan 48201  	clear sky	19 -7	13-Sep	17-Aug	NW	0 -18	41	30.46	10
Fri Jan 29 19:50:39 2010	Milwaukee, Wisconsin 53201  	clear sky	14 -10	14 -10	0		-6 -21	40	30.5	10
Fri Jan 29 19:50:39 2010	Seattle, Washington 98101  	mostly cloudy	50 10	50 10	0		37 3	62	29.98	10
Fri Jan 29 19:50:41 2010	Philadelphia, Pennsylvania 19019  	clear sky	21 -6	13-Sep	21-Dec	NW	17-Jan	41	30.31	10
Fri Jan 29 20:48:16 2010	Charlotte, North Carolina 28201  	mostly cloudy	45 7	41 5	17-Jul	NE	11-Dec	26	30.22	10
Fri Jan 29 20:48:16 2010	San Diego, California 92101  	mostly cloudy	61 16	61 16	6	S	45 7	55	30.09	9
Fri Jan 29 20:48:16 2010	San Jose, California 95101  	mostly cloudy	55 13	53 12	8	SE	48 9	77	30.02	10
Fri Jan 29 20:48:17 2010	Denver, Colorado 80214  	clear sky	39 4	35 2	6	N	11-Dec	33	30.05	10
Fri Jan 29 20:48:17 2010	Memphis, Tennessee 37501  	mostly cloudy	30 -1	19 -7	16	E	27 -3	86	30.05	9
Fri Jan 29 20:48:17 2010	Los Angeles, California 90001  	clear sky	63 17	63 17	0		39 4	42	30.06	10
Fri Jan 29 20:48:18 2010	El Paso, Texas 79901  	clear sky	39 4	33 1	8	N	28 -2	65	30.14	10
Fri Jan 29 20:48:20 2010	New York, New York 10001  	clear sky	21 -6	13-Aug	14-20	NW	-2 -19	35	30.23	10
Fri Jan 29 20:48:21 2010	Washington, Washington D. C. 20001  	mostly cloudy	25 -4	16 -9	9	N	17-Jan	36	30.38	10
Fri Jan 29 20:48:21 2010	Las Vegas, Nevada 89101  	mostly cloudy	50 10	50 10	3	E	30 -1	46	30.08	10
Fri Jan 29 20:48:21 2010	Baltimore, Maryland 21201  	normal	25 -4	25 -4			0 -18	33	30.35	
Fri Jan 29 20:48:22 2010	Austin, Texas 73301  	mostly cloudy	43 6	35 2	16-25	NW	36 2	75	30.04	10
Fri Jan 29 20:48:22 2010	San Francisco, California 94101  	mostly cloudy	52 11	50 10	6	SE	48 9	87	30.01	7
Fri Jan 29 20:48:23 2010	Oklahoma City, Oklahoma 73101  	normal	21 -6	14-Jul	17-25	N	19 -7	93	30.09	0.5
Fri Jan 29 20:48:23 2010	Nashville, Tennessee 37201  	light snow	25 -4	15 -9	10	NE	21 -6	86	30.26	0.7
Fri Jan 29 20:48:24 2010	Fort Worth, Texas 76101  	mostly cloudy	34 1	24 -4	16-24	NW	30 -1	86	30.02	10
Fri Jan 29 20:48:24 2010	Phoenix, Arizona 85001  	mostly cloudy	59 15	59 15	0		46 8	63	30.07	10
Fri Jan 29 20:48:25 2010	Portland, Oregon 97201  	clear sky	21 -6	16-Apr	24-35	W	-2 -19	35	29.99	10
Fri Jan 29 20:48:25 2010	Chicago, Illinois 60601  	mostly cloudy	19 -7	19 -7	0		16-Mar	49	30.45	10
Fri Jan 29 20:48:26 2010	San Antonio, Texas 78201  	clear sky	48 9	41 5	20-24	NW	37 3	66	30.03	10
Fri Jan 29 20:48:26 2010	Indianapolis, Indiana 46201  	mostly cloudy	18 -8	14-Jul	9	E	14-Jul	62	30.39	10
Fri Jan 29 20:48:27 2010	Jacksonville, Florida 32099  	mostly cloudy	66 19	66 19	7	E	43 6	43	30.09	10
Fri Jan 29 20:48:27 2010	Columbus, Ohio 43085  	clear sky	16 -9	16 -9	0		17-Jan	52	30.43	10
Fri Jan 29 20:48:28 2010	Dallas, Texas 75201  	mostly cloudy	37 3	28 -2	14	NW	36 2	93	30.02	10
Fri Jan 29 20:48:28 2010	Houston, Texas 77001  	mostly cloudy	54 12	51 11	9	NW	48 9	82	29.89	10
Fri Jan 29 20:48:29 2010	Detroit, Michigan 48201  	clear sky	19 -7	11-Dec	5	NW	0 -18	41	30.44	10
Fri Jan 29 20:48:29 2010	Milwaukee, Wisconsin 53201  	clear sky	16 -9	16 -9	0		-6 -21	37	30.46	10
Fri Jan 29 20:48:29 2010	Seattle, Washington 98101  	clear sky	52 11	52 11	0		37 3	58	29.99	10
Fri Jan 29 20:48:30 2010	Philadelphia, Pennsylvania 19019  	clear sky	23 -5	12-Oct	15-24	W	17-Jan	38	30.3	10
Fri Jan 29 21:32:48 2010	San Jose, California 95101  	mostly cloudy	55 13	53 12	8	SE	48 9	77	30.02	10
Fri Jan 29 21:32:49 2010	Charlotte, North Carolina 28201  	mostly cloudy	45 7	41 5	17-Jul	NE	11-Dec	26	30.22	10
Fri Jan 29 21:32:49 2010	San Diego, California 92101  	mostly cloudy	61 16	61 16	6	S	45 7	55	30.09	9
Fri Jan 29 21:32:50 2010	Denver, Colorado 80214  	clear sky	39 4	35 2	6	N	11-Dec	33	30.05	10
Fri Jan 29 21:32:50 2010	Memphis, Tennessee 37501  	mostly cloudy	30 -1	19 -7	16	E	27 -3	86	30.05	9
Fri Jan 29 21:32:50 2010	Los Angeles, California 90001  	clear sky	63 17	63 17	0		39 4	42	30.06	10
Fri Jan 29 21:32:51 2010	New York, New York 10001  	clear sky	21 -6	13-Aug	14-20	NW	-2 -19	35	30.23	10
Fri Jan 29 21:32:51 2010	El Paso, Texas 79901  	clear sky	39 4	33 1	8	N	28 -2	65	30.14	10
Fri Jan 29 21:32:51 2010	Baltimore, Maryland 21201  	normal	25 -4	25 -4			0 -18	33	30.35	
Fri Jan 29 21:32:52 2010	Washington, Washington D. C. 20001  	mostly cloudy	25 -4	16 -9	9	N	17-Jan	36	30.38	10
Fri Jan 29 21:32:52 2010	Las Vegas, Nevada 89101  	mostly cloudy	50 10	50 10	3	E	30 -1	46	30.08	10
Fri Jan 29 21:32:52 2010	Austin, Texas 73301  	mostly cloudy	43 6	35 2	16-25	NW	36 2	75	30.04	10
Fri Jan 29 21:32:53 2010	Oklahoma City, Oklahoma 73101  	normal	21 -6	14-Jul	17-25	N	19 -7	93	30.09	0.5
Fri Jan 29 21:32:53 2010	Nashville, Tennessee 37201  	light snow	25 -4	15 -9	10	NE	21 -6	86	30.26	0.7
Fri Jan 29 21:32:53 2010	San Francisco, California 94101  	mostly cloudy	52 11	50 10	6	SE	48 9	87	30.01	7
Fri Jan 29 21:32:54 2010	Portland, Oregon 97201  	clear sky	21 -6	16-Apr	24-35	W	-2 -19	35	29.99	10
Fri Jan 29 21:32:54 2010	Fort Worth, Texas 76101  	mostly cloudy	34 1	24 -4	16-24	NW	30 -1	86	30.02	10
Fri Jan 29 21:32:54 2010	Phoenix, Arizona 85001  	mostly cloudy	59 15	59 15	0		46 8	63	30.07	10
Fri Jan 29 21:32:55 2010	San Antonio, Texas 78201  	clear sky	48 9	41 5	20-24	NW	37 3	66	30.03	10
Fri Jan 29 21:32:55 2010	Indianapolis, Indiana 46201  	mostly cloudy	18 -8	14-Jul	9	E	14-Jul	62	30.39	10
Fri Jan 29 21:32:55 2010	Chicago, Illinois 60601  	mostly cloudy	19 -7	19 -7	0		16-Mar	49	30.45	10
Fri Jan 29 21:32:56 2010	Jacksonville, Florida 32099  	mostly cloudy	66 19	66 19	7	E	43 6	43	30.09	10
Fri Jan 29 21:32:56 2010	Columbus, Ohio 43085  	clear sky	16 -9	16 -9	0		17-Jan	52	30.43	10
Fri Jan 29 21:32:57 2010	Dallas, Texas 75201  	mostly cloudy	37 3	28 -2	14	NW	36 2	93	30.02	10
Fri Jan 29 21:32:57 2010	Houston, Texas 77001  	mostly cloudy	54 12	51 11	9	NW	48 9	82	29.89	10
Fri Jan 29 21:32:57 2010	Seattle, Washington 98101  	clear sky	52 11	52 11	0		37 3	58	29.99	10
Fri Jan 29 21:32:58 2010	Detroit, Michigan 48201  	clear sky	19 -7	11-Dec	5	NW	0 -18	41	30.44	10
Fri Jan 29 21:32:58 2010	Philadelphia, Pennsylvania 19019  	clear sky	23 -5	12-Oct	15-24	W	17-Jan	38	30.3	10
Fri Jan 29 21:32:58 2010	Milwaukee, Wisconsin 53201  	clear sky	16 -9	16 -9	0		-6 -21	37	30.46	10
Fri Jan 29 22:19:43 2010	Charlotte, North Carolina 28201  	mostly cloudy	43 6	37 3	12	NE	14 -10	31	30.23	10
Fri Jan 29 22:19:43 2010	San Jose, California 95101  	mostly cloudy	61 16	59 15	22-Dec	E	48 9	63	29.96	10
Fri Jan 29 22:19:44 2010	Memphis, Tennessee 37501  	light rain	32 0	22 -6	14	NE	28 -2	86	30.04	4
Fri Jan 29 22:19:44 2010	San Diego, California 92101  	mostly cloudy	61 16	61 16	6	S	48 9	63	30.06	9
Fri Jan 29 22:19:44 2010	Denver, Colorado 80214  	clear sky	39 4	39 4	0		12-Oct	30	30.01	10
Fri Jan 29 22:19:45 2010	New York, New York 10001  	clear sky	23 -5	12-Nov	14-22	W	-2 -19	32	30.23	10
Fri Jan 29 22:19:45 2010	El Paso, Texas 79901  	clear sky	43 6	39 4	7	N	30 -1	61	30.1	10
Fri Jan 29 22:19:45 2010	Los Angeles, California 90001  	clear sky	66 19	66 19	0		39 4	37	30.03	10
Fri Jan 29 22:19:46 2010	Washington, Washington D. C. 20001  	mostly cloudy	27 -3	18 -8	17-Sep	NW	17-Jan	33	30.38	10
Fri Jan 29 22:19:46 2010	Baltimore, Maryland 21201  	normal	25 -4	25 -4			0 -18	33	30.35	
Fri Jan 29 22:19:46 2010	Las Vegas, Nevada 89101  	mostly cloudy	54 12	54 12	0		28 -2	38	30.06	10
Fri Jan 29 22:19:47 2010	Oklahoma City, Oklahoma 73101  	mostly cloudy	21 -6	15-May	21-26	N	19 -7	93	30.07	0.5
Fri Jan 29 22:19:47 2010	Austin, Texas 73301  	mostly cloudy	43 6	35 2	16-26	NW	34 1	70	30.03	10
Fri Jan 29 22:19:47 2010	San Francisco, California 94101  	mostly cloudy	52 11	50 10	6	NE	46 8	82	29.99	8
Fri Jan 29 22:19:48 2010	Nashville, Tennessee 37201  	moderate snow	25 -4	14 -10	12	NE	21 -6	86	30.23	0.2
Fri Jan 29 22:19:48 2010	Fort Worth, Texas 76101  	mostly cloudy	34 1	25 -4	14-22	NW	28 -2	80	30.02	10
Fri Jan 29 22:19:48 2010	Phoenix, Arizona 85001  	clear sky	63 17	63 17	0		46 8	55	30.04	10
Fri Jan 29 22:19:49 2010	Portland, Oregon 97201  	clear sky	21 -6	16-Mar	28-38	W	-2 -19	35	30	10
Fri Jan 29 22:19:49 2010	San Antonio, Texas 78201  	clear sky	48 9	42 6	15-26	NW	37 3	66	30.02	10
Fri Jan 29 22:19:49 2010	Chicago, Illinois 60601  	mostly cloudy	19 -7	13-Aug	9	E	14-Jul	57	30.41	10
Fri Jan 29 22:19:50 2010	Jacksonville, Florida 32099  	mostly cloudy	68 20	68 20	6	NE	45 7	43	30.08	10
Fri Jan 29 22:19:50 2010	Indianapolis, Indiana 46201  	mostly cloudy	18 -8	13-Aug	8	NE	14-Jul	62	30.35	10
Fri Jan 29 22:19:51 2010	Columbus, Ohio 43085  	clear sky	16 -9	15-May	8	NE	17-Jan	52	30.41	10
Fri Jan 29 22:19:51 2010	Dallas, Texas 75201  	mostly cloudy	36 2	27 -3	14-24	NW	34 1	93	30	6
Fri Jan 29 22:19:51 2010	Houston, Texas 77001  	mostly cloudy	52 11	47 8	14-23	NW	45 7	76	29.9	10
Fri Jan 29 22:19:52 2010	Detroit, Michigan 48201  	clear sky	19 -7	12-Oct	7	N	0 -18	41	30.42	10
Fri Jan 29 22:19:52 2010	Milwaukee, Wisconsin 53201  	clear sky	18 -8	13-Sep	7	NE	17-Jan	48	30.43	10
Fri Jan 29 22:19:52 2010	Seattle, Washington 98101  	mostly cloudy	54 12	54 12	0		37 3	54	29.98	10
Fri Jan 29 22:19:53 2010	Philadelphia, Pennsylvania 19019  	clear sky	23 -5	12-Oct	16-23	NW	17-Jan	38	30.3	10
Fri Jan 29 23:05:13 2010	San Jose, California 95101  	mostly cloudy	61 16	60 16	22-Aug	E	48 9	63	29.95	10
Fri Jan 29 23:05:14 2010	Charlotte, North Carolina 28201  	mostly cloudy	43 6	38 3	9	NE	14 -10	31	30.22	10
Fri Jan 29 23:05:14 2010	San Diego, California 92101  	mostly cloudy	63 17	62 17	9	SW	50 10	63	30.04	9
Fri Jan 29 23:05:14 2010	Denver, Colorado 80214  	clear sky	41 5	41 5	0		14-Jul	24	29.99	10
Fri Jan 29 23:05:15 2010	Memphis, Tennessee 37501  	mostly cloudy	30 -1	18 -8	18-24	NE	28 -2	93	30	2
Fri Jan 29 23:05:15 2010	El Paso, Texas 79901  	clear sky	43 6	40 4	5	NW	30 -1	61	30.08	10
Fri Jan 29 23:05:15 2010	Los Angeles, California 90001  	clear sky	66 19	66 19	0		39 4	37	30.01	10
Fri Jan 29 23:05:16 2010	New York, New York 10001  	clear sky	23 -5	12-Nov	21-Dec	NW	0 -18	35	30.24	10
Fri Jan 29 23:05:16 2010	Las Vegas, Nevada 89101  	mostly cloudy	54 12	53 12	5	E	28 -2	38	30.02	10
Fri Jan 29 23:05:16 2010	Baltimore, Maryland 21201  	normal	25 -4	25 -4			0 -18	33	30.34	
Fri Jan 29 23:05:17 2010	Washington, Washington D. C. 20001  	mostly cloudy	27 -3	16 -9	13-17	NW	17-Jan	33	30.37	10
Fri Jan 29 23:05:17 2010	Austin, Texas 73301  	mostly cloudy	39 4	30 -1	18-24	NW	32 0	75	30.02	10
Fri Jan 29 23:05:17 2010	San Francisco, California 94101  	mostly cloudy	57 14	54 12	13-22	S	46 8	67	29.96	10
Fri Jan 29 23:05:18 2010	Oklahoma City, Oklahoma 73101  	normal	21 -6	14-Jul	16-24	N	19 -7	93	30.08	0.5
Fri Jan 29 23:05:18 2010	Nashville, Tennessee 37201  	light snow	27 -3	16 -9	12	NE	21 -6	80	30.19	1
Fri Jan 29 23:05:18 2010	Fort Worth, Texas 76101  	mostly cloudy	34 1	23 -5	20-25	NW	28 -2	80	30.01	10
Fri Jan 29 23:05:19 2010	Portland, Oregon 97201  	clear sky	21 -6	16-Apr	25-36	W	-2 -19	35	30.02	10
Fri Jan 29 23:05:19 2010	Chicago, Illinois 60601  	mostly cloudy	19 -7	13-Sep	8	E	14-Jul	57	30.41	10
Fri Jan 29 23:05:19 2010	Phoenix, Arizona 85001  	clear sky	64 18	64 18	0		45 7	49	30.01	10
Fri Jan 29 23:05:20 2010	San Antonio, Texas 78201  	clear sky	48 9	41 5	18-24	NW	36 2	62	30.02	10
Fri Jan 29 23:05:20 2010	Indianapolis, Indiana 46201  	mostly cloudy	19 -7	13-Aug	9	E	14-Jul	57	30.34	10
Fri Jan 29 23:05:21 2010	Columbus, Ohio 43085  	clear sky	16 -9	14-Jul	6	NE	17-Jan	52	30.38	10
Fri Jan 29 23:05:21 2010	Dallas, Texas 75201  	mostly cloudy	36 2	26 -3	18-24	NW	30 -1	80	30.01	10
Fri Jan 29 23:05:21 2010	Jacksonville, Florida 32099  	mostly cloudy	66 19	66 19	12	E	46 8	49	30.06	10
Fri Jan 29 23:05:22 2010	Milwaukee, Wisconsin 53201  	clear sky	16 -9	15-May	8	NE	17-Jan	52	30.41	10
Fri Jan 29 23:05:22 2010	Houston, Texas 77001  	mostly cloudy	48 9	41 5	20-25	NW	43 6	81	29.91	10
Fri Jan 29 23:05:22 2010	Seattle, Washington 98101  	mostly cloudy	54 12	54 12	0		37 3	54	29.96	10
Fri Jan 29 23:05:23 2010	Detroit, Michigan 48201  	clear sky	19 -7	11-Dec	5	NW	0 -18	41	30.4	10
Fri Jan 29 23:05:23 2010	Philadelphia, Pennsylvania 19019  	clear sky	23 -5	12-Nov	23-Dec	NW	17-Jan	38	30.3	10
Fri Jan 29 23:48:37 2010	Charlotte, North Carolina 28201  	mostly cloudy	43 6	37 3	10	N	16 -9	33	30.24	10
Fri Jan 29 23:48:37 2010	San Jose, California 95101  	clear sky	63 17	61 16	15-22	S	45 7	52	29.95	10
Fri Jan 29 23:48:38 2010	Memphis, Tennessee 37501  	mostly cloudy	32 0	21 -6	17-24	NE	28 -2	86	30	1.7
Fri Jan 29 23:48:38 2010	Denver, Colorado 80214  	clear sky	43 6	39 4	7	N	16-Mar	19	29.98	10
Fri Jan 29 23:48:38 2010	San Diego, California 92101  	mostly cloudy	61 16	61 16	6	SW	52 11	72	30.03	9
Fri Jan 29 23:48:39 2010	El Paso, Texas 79901  	clear sky	46 8	46 8	0		30 -1	53	30.08	10
Fri Jan 29 23:48:39 2010	Los Angeles, California 90001  	clear sky	66 19	66 19	0		41 5	40	30.01	10
Fri Jan 29 23:48:40 2010	New York, New York 10001  	clear sky	21 -6	12-Nov	23-Aug	W	-2 -19	35	30.25	10
Fri Jan 29 23:48:41 2010	Washington, Washington D. C. 20001  	mostly cloudy	27 -3	18 -8	20-Sep	NW	17-Jan	33	30.36	10
Fri Jan 29 23:48:41 2010	Baltimore, Maryland 21201  	normal	27 -3	27 -3			0 -18	30	30.34	
Fri Jan 29 23:48:41 2010	Las Vegas, Nevada 89101  	mostly cloudy	55 13	55 13	0		28 -2	35	30.01	10
Fri Jan 29 23:48:42 2010	Austin, Texas 73301  	mostly cloudy	43 6	34 1	21-29	NW	30 -1	61	30.04	10
Fri Jan 29 23:48:42 2010	San Francisco, California 94101  	mostly cloudy	59 15	56 13	18-22	SW	46 8	63	29.96	10
Fri Jan 29 23:48:43 2010	Oklahoma City, Oklahoma 73101  	mostly cloudy	21 -6	15-May	21	N	19 -7	93	30.08	1.2
Fri Jan 29 23:48:43 2010	Nashville, Tennessee 37201  	light snow	27 -3	15 -9	15	NE	23 -5	86	30.14	0.7
Fri Jan 29 23:48:44 2010	Fort Worth, Texas 76101  	mostly cloudy	32 0	22 -6	15-23	NW	27 -3	80	30.03	10
Fri Jan 29 23:48:44 2010	Phoenix, Arizona 85001  	clear sky	64 18	64 18	0		43 6	45	30	10
Fri Jan 29 23:48:45 2010	Portland, Oregon 97201  	clear sky	19 -7	17-Jan	25-35	W	-2 -19	38	30.05	10
Fri Jan 29 23:48:45 2010	San Antonio, Texas 78201  	clear sky	46 8	39 4	17-25	NW	32 0	57	30.03	10
Fri Jan 29 23:48:45 2010	Chicago, Illinois 60601  	mostly cloudy	19 -7	12-Oct	7	NE	13-Sep	62	30.39	10
Fri Jan 29 23:48:46 2010	Jacksonville, Florida 32099  	mostly cloudy	63 17	62 17	10	E	46 8	55	30.06	10
Fri Jan 29 23:48:46 2010	Indianapolis, Indiana 46201  	mostly cloudy	19 -7	15-May	14	NE	14-Jul	57	30.31	10
Fri Jan 29 23:48:47 2010	Columbus, Ohio 43085  	clear sky	14 -10	16-Mar	8	N	16-Mar	61	30.37	10
Fri Jan 29 23:48:48 2010	Dallas, Texas 75201  	mostly cloudy	34 1	23 -5	17-25	NW	28 -2	80	30.03	10
Fri Jan 29 23:48:49 2010	Houston, Texas 77001  	mostly cloudy	46 8	39 4	16-24	NW	39 4	76	29.94	10
Fri Jan 29 23:48:49 2010	Seattle, Washington 98101  	clear sky	55 13	55 13	0		37 3	51	29.95	10
Fri Jan 29 23:48:50 2010	Detroit, Michigan 48201  	clear sky	19 -7	12-Oct	7	N	0 -18	41	30.4	10
Fri Jan 29 23:48:50 2010	Milwaukee, Wisconsin 53201  	clear sky	16 -9	13-Aug	5	E	17-Jan	52	30.41	10
Fri Jan 29 23:48:50 2010	Philadelphia, Pennsylvania 19019  	clear sky	21 -6	13-Sep	18-Dec	NW	17-Jan	41	30.31	10
Mon Feb  1 00:15:34 2010	Charlotte, North Carolina 28201  	clear sky	39 4	35 2	5	S	16 -9	38	30.21	10
Mon Feb  1 00:15:34 2010	San Jose, California 95101  	mostly cloudy	61 16	61 16	5	NW	46 8	59	29.97	10
Mon Feb  1 00:15:35 2010	Denver, Colorado 80214  	clear sky	39 4	32 0	10	N	19 -7	44	29.79	10
Mon Feb  1 00:15:35 2010	Memphis, Tennessee 37501  	clear sky	37 3	35 2	3	N	27 -3	65	30.3	10
Mon Feb  1 00:15:35 2010	San Diego, California 92101  	clear sky	61 16	60 16	10	W	48 9	63	29.93	9
Mon Feb  1 00:15:36 2010	Los Angeles, California 90001  	clear sky	66 19	66 19	5	W	48 9	52	29.9	8
Mon Feb  1 00:15:36 2010	El Paso, Texas 79901  	mostly cloudy	57 14	57 14	0		34 1	41	29.9	10
Mon Feb  1 00:15:37 2010	New York, New York 10001  	clear sky	28 -2	20 -7	8	W	17-Jan	31	30.08	10
Mon Feb  1 00:15:37 2010	Baltimore, Maryland 21201  	normal	30 -1	30 -1			15-May	34	30.16	
Mon Feb  1 00:15:37 2010	Las Vegas, Nevada 89101  	mostly cloudy	59 15	59 15	0		32 0	36	29.9	10
Mon Feb  1 00:15:38 2010	Washington, Washington D. C. 20001  	clear sky	34 1	29 -2	5	W	16-Mar	27	30.17	10
Mon Feb  1 00:15:38 2010	San Francisco, California 94101  	mostly cloudy	54 12	53 12	5	N	48 9	82	29.98	10
Mon Feb  1 00:15:38 2010	Austin, Texas 73301  	mostly cloudy	36 2	36 2	0		30 -1	80	30.2	7
Mon Feb  1 00:15:39 2010	Oklahoma City, Oklahoma 73101  	mostly cloudy	27 -3	16 -9	12	SE	25 -4	93	30.18	2.5
Mon Feb  1 00:15:39 2010	Nashville, Tennessee 37201  	clear sky	36 2	36 2	0		18 -8	47	30.3	10
Mon Feb  1 00:15:40 2010	Fort Worth, Texas 76101  	mostly cloudy	34 1	27 -3	9	SE	28 -2	80	30.21	10
Mon Feb  1 00:15:40 2010	Portland, Oregon 97201  	clear sky	25 -4	16 -9	8	W	15-May	42	30.02	10
Mon Feb  1 00:15:40 2010	Phoenix, Arizona 85001  	clear sky	66 19	66 19	0		39 4	37	29.86	10
Mon Feb  1 00:15:41 2010	Chicago, Illinois 60601  	mostly cloudy	28 -2	16 -9	15	W	11-Dec	50	30.21	10
Mon Feb  1 00:15:41 2010	San Antonio, Texas 78201  	mostly cloudy	37 3	32 0	7	NE	30 -1	75	30.19	7
Mon Feb  1 00:15:42 2010	Indianapolis, Indiana 46201  	clear sky	28 -2	19 -7	10	W	11-Dec	50	30.24	10
Mon Feb  1 00:15:42 2010	Jacksonville, Florida 32099  	mostly cloudy	45 7	38 3	15	NE	36 2	70	30.23	10
Mon Feb  1 00:15:43 2010	Columbus, Ohio 43085  	clear sky	28 -2	17 -8	13-21	W	12-Oct	46	30.18	10
Mon Feb  1 00:15:43 2010	Dallas, Texas 75201  	mostly cloudy	37 3	37 3	0		28 -2	70	30.22	10
Mon Feb  1 00:15:43 2010	Houston, Texas 77001  	mostly cloudy	43 6	43 6	0		32 0	65	30.21	8
Mon Feb  1 00:15:44 2010	Seattle, Washington 98101  	mostly cloudy	50 10	48 9	5	SW	43 6	76	29.97	10
Mon Feb  1 00:15:44 2010	Milwaukee, Wisconsin 53201  	mostly cloudy	25 -4	13 -11	13	NW	15-May	42	30.2	9
Mon Feb  1 00:15:45 2010	Philadelphia, Pennsylvania 19019  	clear sky	28 -2	21 -6	6	W	17-Jan	31	30.13	10
Mon Feb  1 00:15:45 2010	Detroit, Michigan 48201  	clear sky	27 -3	15 -9	16-21	W	11-Dec	54	30.07	10
Mon Feb  1 00:58:31 2010	San Jose, California 95101  	mostly cloudy	59 15	59 15	5	W	45 7	59	29.96	10
Mon Feb  1 00:58:31 2010	Charlotte, North Carolina 28201  	clear sky	36 2	36 2	0		18 -8	47	30.23	10
Mon Feb  1 00:58:32 2010	Denver, Colorado 80214  	clear sky	37 3	31 -1	8	N	19 -7	48	29.81	10
Mon Feb  1 00:58:32 2010	San Diego, California 92101  	clear sky	61 16	60 16	10	NW	48 9	63	29.94	10
Mon Feb  1 00:58:33 2010	Memphis, Tennessee 37501  	mostly cloudy	36 2	30 -1	7	NE	27 -3	69	30.29	10
Mon Feb  1 00:58:33 2010	El Paso, Texas 79901  	mostly cloudy	57 14	57 14	3	S	34 1	41	29.9	10
Mon Feb  1 00:58:33 2010	Los Angeles, California 90001  	clear sky	64 18	64 18	5	W	46 8	52	29.92	9
Mon Feb  1 00:58:34 2010	New York, New York 10001  	clear sky	28 -2	20 -7	8	SW	16-Mar	33	30.1	10
Mon Feb  1 00:58:34 2010	Baltimore, Maryland 21201  	normal	30 -1	30 -1			15-May	34	30.16	
Mon Feb  1 00:58:35 2010	Austin, Texas 73301  	mostly cloudy	36 2	34 1	3	E	30 -1	80	30.2	8
Mon Feb  1 00:58:35 2010	Las Vegas, Nevada 89101  	mostly cloudy	59 15	59 15	5	E	30 -1	33	29.9	10
Mon Feb  1 00:58:35 2010	Washington, Washington D. C. 20001  	clear sky	32 0	26 -3	6	SW	15-May	31	30.19	10
Mon Feb  1 00:58:36 2010	Oklahoma City, Oklahoma 73101  	mostly cloudy	27 -3	16 -9	12	SE	25 -4	93	30.17	2
Mon Feb  1 00:58:36 2010	San Francisco, California 94101  	mostly cloudy	54 12	53 12	5	N	48 9	82	29.98	10
Mon Feb  1 00:58:37 2010	Fort Worth, Texas 76101  	mostly cloudy	34 1	28 -2	7	SE	28 -2	80	30.21	10
Mon Feb  1 00:58:37 2010	Phoenix, Arizona 85001  	clear sky	70 21	76 24	7	SW	39 4	33	29.86	10
Mon Feb  1 00:58:37 2010	Nashville, Tennessee 37201  	clear sky	36 2	36 2	0		18 -8	47	30.3	10
Mon Feb  1 00:58:38 2010	Chicago, Illinois 60601  	mostly cloudy	27 -3	18 -8	10	NW	11-Dec	54	30.23	10
Mon Feb  1 00:58:38 2010	San Antonio, Texas 78201  	mostly cloudy	36 2	30 -1	8	NE	30 -1	80	30.17	7
Mon Feb  1 00:58:38 2010	Portland, Oregon 97201  	clear sky	23 -5	15 -9	7	W	14-Jul	49	30.03	10
Mon Feb  1 00:58:39 2010	Indianapolis, Indiana 46201  	clear sky	27 -3	18 -8	9	W	11-Dec	54	30.24	10
Mon Feb  1 00:58:40 2010	Columbus, Ohio 43085  	clear sky	27 -3	18 -8	10	SW	11-Dec	54	30.19	10
Mon Feb  1 00:58:40 2010	Dallas, Texas 75201  	mostly cloudy	37 3	33 1	5	S	30 -1	75	30.22	10
Mon Feb  1 00:58:40 2010	Jacksonville, Florida 32099  	mostly cloudy	45 7	39 4	14-20	NE	36 2	70	30.25	10
Mon Feb  1 00:58:41 2010	Houston, Texas 77001  	mostly cloudy	41 5	37 3	6	W	30 -1	65	30.23	10
Mon Feb  1 00:58:41 2010	Seattle, Washington 98101  	mostly cloudy	50 10	48 9	6	S	43 6	76	29.97	10
Mon Feb  1 00:58:42 2010	Detroit, Michigan 48201  	clear sky	27 -3	16 -9	22-Dec	W	11-Dec	54	30.09	10
Mon Feb  1 00:58:42 2010	Philadelphia, Pennsylvania 19019  	clear sky	27 -3	19 -7	8	W	16-Mar	36	30.14	10
Mon Feb  1 00:58:42 2010	Milwaukee, Wisconsin 53201  	mostly cloudy	23 -5	12-Nov	13	W	15-May	45	30.22	10
Mon Feb  1 01:44:41 2010	Charlotte, North Carolina 28201  	clear sky	34 1	29 -2	6	SW	27 -3	75	30.25	10
Mon Feb  1 01:44:41 2010	San Jose, California 95101  	mostly cloudy	61 16	61 16	6	NW	46 8	59	29.97	10
Mon Feb  1 01:44:41 2010	San Diego, California 92101  	clear sky	59 15	58 14	8	W	50 10	72	29.95	10
Mon Feb  1 01:44:42 2010	Denver, Colorado 80214  	clear sky	36 2	32 0	5	N	19 -7	51	29.82	10
Mon Feb  1 01:44:42 2010	Memphis, Tennessee 37501  	mostly cloudy	34 1	28 -2	7	NE	27 -3	75	30.3	10
Mon Feb  1 01:44:42 2010	Los Angeles, California 90001  	clear sky	63 17	63 17	0		46 8	55	29.92	9
Mon Feb  1 01:44:43 2010	New York, New York 10001  	clear sky	28 -2	22 -6	5	N	17-Jan	31	30.1	10
Mon Feb  1 01:44:43 2010	El Paso, Texas 79901  	mostly cloudy	55 13	55 13	3	SW	34 1	44	29.9	10
Mon Feb  1 01:44:43 2010	Baltimore, Maryland 21201  	normal	28 -2	28 -2			13-Sep	43	30.17	
Mon Feb  1 01:44:44 2010	Las Vegas, Nevada 89101  	mostly cloudy	57 14	56 13	5	N	28 -2	33	29.9	10
Mon Feb  1 01:44:44 2010	Austin, Texas 73301  	mostly cloudy	36 2	30 -1	7	E	30 -1	80	30.19	8
Mon Feb  1 01:44:44 2010	Washington, Washington D. C. 20001  	clear sky	28 -2	20 -7	8	SW	13-Sep	43	30.2	10
Mon Feb  1 01:44:45 2010	Nashville, Tennessee 37201  	clear sky	32 0	29 -2	3	SE	21 -6	64	30.3	10
Mon Feb  1 01:44:45 2010	Oklahoma City, Oklahoma 73101  	mostly cloudy	27 -3	16 -9	14	S	25 -4	93	30.17	2
Mon Feb  1 01:44:45 2010	San Francisco, California 94101  	mostly cloudy	54 12	54 12	3	NE	50 10	88	29.97	9
Mon Feb  1 01:44:46 2010	Phoenix, Arizona 85001  	clear sky	68 20	68 20	6	SW	39 4	35	29.86	10
Mon Feb  1 01:44:46 2010	Portland, Oregon 97201  	clear sky	21 -6	13 -11	6	W	14-Jul	53	30.04	10
Mon Feb  1 01:44:46 2010	Fort Worth, Texas 76101  	mostly cloudy	34 1	34 1	0		28 -2	80	30.2	10
Mon Feb  1 01:44:47 2010	Chicago, Illinois 60601  	clear sky	25 -4	16 -9	8	W	11-Dec	58	30.24	10
Mon Feb  1 01:44:47 2010	Indianapolis, Indiana 46201  	clear sky	25 -4	17 -8	7	W	11-Dec	58	30.25	10
Mon Feb  1 01:44:47 2010	San Antonio, Texas 78201  	mostly cloudy	36 2	30 -1	7	NE	30 -1	80	30.17	7
Mon Feb  1 01:44:48 2010	Columbus, Ohio 43085  	clear sky	25 -4	16 -9	8	W	11-Dec	58	30.21	10
Mon Feb  1 01:44:48 2010	Jacksonville, Florida 32099  	mostly cloudy	45 7	39 4	13-20	NE	36 2	70	30.24	10
Mon Feb  1 01:44:49 2010	Dallas, Texas 75201  	mostly cloudy	37 3	35 2	3	SW	28 -2	70	30.21	10
Mon Feb  1 01:44:49 2010	Houston, Texas 77001  	clear sky	39 4	37 3	3	SW	30 -1	70	30.21	8
Mon Feb  1 01:44:49 2010	Seattle, Washington 98101  	mostly cloudy	50 10	50 10	3	N	43 6	76	29.97	10
Mon Feb  1 01:44:50 2010	Detroit, Michigan 48201  	mostly cloudy	27 -3	18 -8	17-Oct	W	11-Dec	54	30.11	10
Mon Feb  1 01:44:50 2010	Philadelphia, Pennsylvania 19019  	clear sky	27 -3	20 -7	6	SW	16-Mar	36	30.15	10
Mon Feb  1 01:44:50 2010	Milwaukee, Wisconsin 53201  	clear sky	21 -6	12-Nov	8	NW	14-Jul	53	30.24	10
Mon Feb  1 02:28:38 2010	Charlotte, North Carolina 28201  	clear sky	34 1	29 -2	6	SW	27 -3	75	30.25	10
Mon Feb  1 02:28:38 2010	San Jose, California 95101  	mostly cloudy	61 16	61 16	6	NW	46 8	59	29.97	10
Mon Feb  1 02:28:39 2010	Denver, Colorado 80214  	clear sky	36 2	32 0	5	N	19 -7	51	29.82	10
Mon Feb  1 02:28:39 2010	Memphis, Tennessee 37501  	mostly cloudy	34 1	28 -2	7	NE	27 -3	75	30.3	10
Mon Feb  1 02:28:39 2010	San Diego, California 92101  	clear sky	59 15	58 14	8	W	50 10	72	29.95	10
Mon Feb  1 02:28:40 2010	El Paso, Texas 79901  	mostly cloudy	55 13	55 13	3	SW	34 1	44	29.9	10
Mon Feb  1 02:28:40 2010	Los Angeles, California 90001  	clear sky	63 17	63 17	0		46 8	55	29.92	9
Mon Feb  1 02:28:41 2010	New York, New York 10001  	clear sky	28 -2	22 -6	5	N	17-Jan	31	30.1	10
Mon Feb  1 02:28:41 2010	Las Vegas, Nevada 89101  	mostly cloudy	57 14	56 13	5	N	28 -2	33	29.9	10
Mon Feb  1 02:28:41 2010	Baltimore, Maryland 21201  	normal	28 -2	28 -2			13-Sep	43	30.17	
Mon Feb  1 02:28:42 2010	Austin, Texas 73301  	mostly cloudy	36 2	30 -1	7	E	30 -1	80	30.19	8
Mon Feb  1 02:28:42 2010	Washington, Washington D. C. 20001  	clear sky	28 -2	20 -7	8	SW	13-Sep	43	30.2	10
Mon Feb  1 02:28:43 2010	Nashville, Tennessee 37201  	clear sky	32 0	29 -2	3	SE	21 -6	64	30.3	10
Mon Feb  1 02:28:43 2010	Oklahoma City, Oklahoma 73101  	mostly cloudy	27 -3	16 -9	14	S	25 -4	93	30.17	2
Mon Feb  1 02:28:43 2010	San Francisco, California 94101  	mostly cloudy	54 12	54 12	3	NE	50 10	88	29.97	9
Mon Feb  1 02:28:44 2010	Phoenix, Arizona 85001  	clear sky	68 20	68 20	6	SW	39 4	35	29.86	10
Mon Feb  1 02:28:44 2010	Portland, Oregon 97201  	clear sky	21 -6	13 -11	6	W	14-Jul	53	30.04	10
Mon Feb  1 02:28:44 2010	Fort Worth, Texas 76101  	mostly cloudy	34 1	34 1	0		28 -2	80	30.2	10
Mon Feb  1 02:28:45 2010	Chicago, Illinois 60601  	clear sky	25 -4	16 -9	8	W	11-Dec	58	30.24	10
Mon Feb  1 02:28:45 2010	San Antonio, Texas 78201  	mostly cloudy	36 2	30 -1	7	NE	30 -1	80	30.17	7
Mon Feb  1 02:28:46 2010	Indianapolis, Indiana 46201  	clear sky	25 -4	17 -8	7	W	11-Dec	58	30.25	10
Mon Feb  1 02:28:46 2010	Jacksonville, Florida 32099  	mostly cloudy	45 7	39 4	13-20	NE	36 2	70	30.24	10
Mon Feb  1 02:28:47 2010	Columbus, Ohio 43085  	clear sky	25 -4	16 -9	8	W	11-Dec	58	30.21	10
Mon Feb  1 02:28:47 2010	Dallas, Texas 75201  	mostly cloudy	37 3	35 2	3	SW	28 -2	70	30.21	10
Mon Feb  1 02:28:47 2010	Houston, Texas 77001  	clear sky	39 4	37 3	3	SW	30 -1	70	30.21	8
Mon Feb  1 02:28:48 2010	Detroit, Michigan 48201  	mostly cloudy	27 -3	18 -8	17-Oct	W	11-Dec	54	30.11	10
Mon Feb  1 02:28:48 2010	Seattle, Washington 98101  	mostly cloudy	50 10	50 10	3	N	43 6	76	29.97	10
Mon Feb  1 02:28:48 2010	Milwaukee, Wisconsin 53201  	clear sky	21 -6	12-Nov	8	NW	14-Jul	53	30.24	10
Mon Feb  1 02:28:49 2010	Philadelphia, Pennsylvania 19019  	clear sky	27 -3	20 -7	6	SW	16-Mar	36	30.15	10
Mon Feb  1 03:12:30 2010	San Jose, California 95101  	mostly cloudy	61 16	61 16	6	NW	46 8	59	29.97	10
Mon Feb  1 03:12:31 2010	Charlotte, North Carolina 28201  	clear sky	34 1	29 -2	6	SW	27 -3	75	30.25	10
Mon Feb  1 03:12:31 2010	San Diego, California 92101  	clear sky	59 15	58 14	8	W	50 10	72	29.95	10
Mon Feb  1 03:12:32 2010	Denver, Colorado 80214  	clear sky	36 2	32 0	5	N	19 -7	51	29.82	10
Mon Feb  1 03:12:32 2010	Memphis, Tennessee 37501  	mostly cloudy	34 1	28 -2	7	NE	27 -3	75	30.3	10
Mon Feb  1 03:12:33 2010	El Paso, Texas 79901  	mostly cloudy	55 13	55 13	3	SW	34 1	44	29.9	10
Mon Feb  1 03:12:33 2010	Los Angeles, California 90001  	clear sky	63 17	63 17	0		46 8	55	29.92	9
Mon Feb  1 03:12:34 2010	New York, New York 10001  	clear sky	28 -2	22 -6	5	N	17-Jan	31	30.1	10
Mon Feb  1 03:12:34 2010	Baltimore, Maryland 21201  	normal	28 -2	28 -2			13-Sep	43	30.17	
Mon Feb  1 03:12:35 2010	Las Vegas, Nevada 89101  	mostly cloudy	57 14	56 13	5	N	28 -2	33	29.9	10
Mon Feb  1 03:12:35 2010	Austin, Texas 73301  	mostly cloudy	36 2	30 -1	7	E	30 -1	80	30.19	8
Mon Feb  1 03:12:35 2010	Washington, Washington D. C. 20001  	clear sky	28 -2	20 -7	8	SW	13-Sep	43	30.2	10
Mon Feb  1 03:12:36 2010	Oklahoma City, Oklahoma 73101  	mostly cloudy	27 -3	16 -9	14	S	25 -4	93	30.17	2
Mon Feb  1 03:12:36 2010	San Francisco, California 94101  	mostly cloudy	54 12	54 12	3	NE	50 10	88	29.97	9
Mon Feb  1 03:12:37 2010	Nashville, Tennessee 37201  	clear sky	32 0	29 -2	3	SE	21 -6	64	30.3	10
Mon Feb  1 03:12:37 2010	Phoenix, Arizona 85001  	clear sky	68 20	68 20	6	SW	39 4	35	29.86	10
Mon Feb  1 03:12:37 2010	Fort Worth, Texas 76101  	mostly cloudy	34 1	34 1	0		28 -2	80	30.2	10
Mon Feb  1 03:12:38 2010	Chicago, Illinois 60601  	clear sky	25 -4	16 -9	8	W	11-Dec	58	30.24	10
Mon Feb  1 03:12:38 2010	Portland, Oregon 97201  	clear sky	21 -6	13 -11	6	W	14-Jul	53	30.04	10
Mon Feb  1 03:12:39 2010	Indianapolis, Indiana 46201  	clear sky	25 -4	17 -8	7	W	11-Dec	58	30.25	10
Mon Feb  1 03:12:39 2010	San Antonio, Texas 78201  	mostly cloudy	36 2	30 -1	7	NE	30 -1	80	30.17	7
Mon Feb  1 03:12:40 2010	Columbus, Ohio 43085  	clear sky	25 -4	16 -9	8	W	11-Dec	58	30.21	10
Mon Feb  1 03:12:40 2010	Jacksonville, Florida 32099  	mostly cloudy	45 7	39 4	13-20	NE	36 2	70	30.24	10
Mon Feb  1 03:12:41 2010	Dallas, Texas 75201  	mostly cloudy	37 3	35 2	3	SW	28 -2	70	30.21	10
Mon Feb  1 03:12:41 2010	Houston, Texas 77001  	clear sky	39 4	37 3	3	SW	30 -1	70	30.21	8
Mon Feb  1 03:12:41 2010	Seattle, Washington 98101  	mostly cloudy	50 10	50 10	3	N	43 6	76	29.97	10
Mon Feb  1 03:12:42 2010	Detroit, Michigan 48201  	mostly cloudy	27 -3	18 -8	17-Oct	W	11-Dec	54	30.11	10
Mon Feb  1 03:12:42 2010	Milwaukee, Wisconsin 53201  	clear sky	21 -6	12-Nov	8	NW	14-Jul	53	30.24	10
Mon Feb  1 03:12:43 2010	Philadelphia, Pennsylvania 19019  	clear sky	27 -3	20 -7	6	SW	16-Mar	36	30.15	10
Mon Feb  1 03:57:08 2010	San Jose, California 95101  	mostly cloudy	54 12	51 11	9	NW	46 8	77	29.98	10
Mon Feb  1 03:57:09 2010	San Diego, California 92101  	clear sky	57 14	57 14	3	NW	48 9	72	29.97	10
Mon Feb  1 03:57:09 2010	Charlotte, North Carolina 28201  	clear sky	30 -1	30 -1	0		25 -4	80	30.26	10
Mon Feb  1 03:57:09 2010	Denver, Colorado 80214  	mostly cloudy	30 -1	30 -1	0		19 -7	64	29.85	10
Mon Feb  1 03:57:10 2010	Memphis, Tennessee 37501  	mostly cloudy	32 0	27 -3	5	NE	27 -3	80	30.31	10
Mon Feb  1 03:57:10 2010	El Paso, Texas 79901  	mostly cloudy	52 11	52 11	0		37 3	58	29.92	10
Mon Feb  1 03:57:10 2010	Los Angeles, California 90001  	clear sky	59 15	59 15	0		48 9	67	29.94	10
Mon Feb  1 03:57:11 2010	New York, New York 10001  	clear sky	28 -2	25 -4	3	N	16-Mar	33	30.12	10
Mon Feb  1 03:57:11 2010	Baltimore, Maryland 21201  	normal	27 -3	27 -3			13-Sep	46	30.19	
Mon Feb  1 03:57:12 2010	Washington, Washington D. C. 20001  	clear sky	28 -2	22 -6	5	SW	13-Sep	43	30.21	10
Mon Feb  1 03:57:12 2010	Austin, Texas 73301  	mostly cloudy	36 2	36 2	0		30 -1	80	30.2	8
Mon Feb  1 03:57:12 2010	Las Vegas, Nevada 89101  	mostly cloudy	55 13	55 13	0		28 -2	35	29.92	10
Mon Feb  1 03:57:13 2010	Oklahoma City, Oklahoma 73101  	mostly cloudy	28 -2	17 -8	13	S	27 -3	93	30.16	1
Mon Feb  1 03:57:13 2010	San Francisco, California 94101  	mostly cloudy	54 12	53 12	5	NW	48 9	82	29.98	10
Mon Feb  1 03:57:13 2010	Nashville, Tennessee 37201  	clear sky	28 -2	28 -2	0		23 -5	80	30.32	9
Mon Feb  1 03:57:14 2010	Fort Worth, Texas 76101  	clear sky	32 0	29 -2	3	S	27 -3	80	30.19	9
Mon Feb  1 03:57:14 2010	Phoenix, Arizona 85001  	clear sky	64 18	64 18	7	W	39 4	39	29.89	10
Mon Feb  1 03:57:14 2010	Portland, Oregon 97201  	clear sky	25 -4	15 -9	10	W	13-Sep	49	30.04	10
Mon Feb  1 03:57:15 2010	Chicago, Illinois 60601  	clear sky	23 -5	15 -9	7	NW	12-Oct	58	30.28	10
Mon Feb  1 03:57:15 2010	San Antonio, Texas 78201  	mostly cloudy	36 2	31 -1	6	NE	30 -1	80	30.19	7
Mon Feb  1 03:57:16 2010	Indianapolis, Indiana 46201  	clear sky	21 -6	14 -10	5	W	12-Oct	62	30.27	10
Mon Feb  1 03:57:16 2010	Jacksonville, Florida 32099  	mostly cloudy	46 8	40 4	13	NE	37 3	71	30.24	10
Mon Feb  1 03:57:17 2010	Columbus, Ohio 43085  	clear sky	21 -6	12-Nov	8	W	11-Dec	68	30.23	10
Mon Feb  1 03:57:17 2010	Houston, Texas 77001  	clear sky	37 3	35 2	3	S	30 -1	75	30.22	10
Mon Feb  1 03:57:17 2010	Dallas, Texas 75201  	mostly cloudy	36 2	36 2	0		28 -2	75	30.2	10
Mon Feb  1 03:57:17 2010	Seattle, Washington 98101  	mostly cloudy	48 9	48 9	0		43 6	81	29.97	10
Mon Feb  1 03:57:18 2010	Detroit, Michigan 48201  	mostly cloudy	25 -4	12-Nov	18-26	NW	12-Oct	54	30.18	9
Mon Feb  1 03:57:18 2010	Milwaukee, Wisconsin 53201  	clear sky	19 -7	12-Oct	7	NW	15-May	53	30.26	10
Mon Feb  1 03:57:19 2010	Philadelphia, Pennsylvania 19019  	clear sky	27 -3	19 -7	7	SW	14-Jul	42	30.15	10
Mon Feb  1 04:41:52 2010	San Jose, California 95101  	clear sky	54 12	53 12	5	NW	46 8	77	29.98	10
Mon Feb  1 04:41:53 2010	Denver, Colorado 80214  	clear sky	27 -3	21 -6	5	S	18 -8	68	29.84	10
Mon Feb  1 04:41:53 2010	Charlotte, North Carolina 28201  	clear sky	28 -2	25 -4	3	SW	27 -3	93	30.27	8
Mon Feb  1 04:41:53 2010	San Diego, California 92101  	clear sky	57 14	57 14	0		48 9	72	29.98	10
Mon Feb  1 04:41:54 2010	Memphis, Tennessee 37501  	mostly cloudy	30 -1	24 -4	6	NE	27 -3	86	30.3	10
Mon Feb  1 04:41:54 2010	El Paso, Texas 79901  	clear sky	48 9	48 9	0		37 3	66	29.94	10
Mon Feb  1 04:41:54 2010	Los Angeles, California 90001  	clear sky	57 14	57 14	0		48 9	72	29.94	10
Mon Feb  1 04:41:55 2010	New York, New York 10001  	clear sky	27 -3	24 -4	3	N	16-Mar	36	30.11	10
Mon Feb  1 04:41:55 2010	Baltimore, Maryland 21201  	normal	27 -3	27 -3			12-Oct	50	30.2	
Mon Feb  1 04:41:55 2010	Las Vegas, Nevada 89101  	mostly cloudy	54 12	54 12	0		30 -1	41	29.93	10
Mon Feb  1 04:41:56 2010	Washington, Washington D. C. 20001  	clear sky	27 -3	19 -7	7	SW	11-Dec	54	30.22	10
Mon Feb  1 04:41:56 2010	Austin, Texas 73301  	mostly cloudy	36 2	30 -1	7	E	30 -1	80	30.21	10
Mon Feb  1 04:41:56 2010	San Francisco, California 94101  	mostly cloudy	54 12	54 12	3	NW	48 9	82	29.97	10
Mon Feb  1 04:41:57 2010	Oklahoma City, Oklahoma 73101  	mostly cloudy	28 -2	18 -8	12	SE	27 -3	93	30.15	0.7
Mon Feb  1 04:41:57 2010	Fort Worth, Texas 76101  	clear sky	32 0	32 0	0		27 -3	80	30.18	7
Mon Feb  1 04:41:57 2010	Nashville, Tennessee 37201  	clear sky	27 -3	27 -3	0		21 -6	80	30.33	9
Mon Feb  1 04:41:58 2010	Chicago, Illinois 60601  	clear sky	21 -6	12-Nov	9	NW	12-Oct	62	30.28	10
Mon Feb  1 04:41:58 2010	Phoenix, Arizona 85001  	clear sky	61 16	61 16	5	SW	46 8	59	29.9	10
Mon Feb  1 04:41:58 2010	Portland, Oregon 97201  	clear sky	25 -4	15 -9	10	W	14-Jul	46	30.05	10
Mon Feb  1 04:41:59 2010	Indianapolis, Indiana 46201  	clear sky	19 -7	11-Dec	5	W	12-Oct	67	30.28	10
Mon Feb  1 04:41:59 2010	San Antonio, Texas 78201  	mostly cloudy	36 2	31 -1	6	NE	30 -1	80	30.2	7
Mon Feb  1 04:41:59 2010	Jacksonville, Florida 32099  	mostly cloudy	46 8	40 4	13	N	39 4	76	30.23	10
Mon Feb  1 04:42:00 2010	Columbus, Ohio 43085  	clear sky	19 -7	11-Dec	5	W	11-Dec	73	30.26	10
Mon Feb  1 04:42:00 2010	Houston, Texas 77001  	clear sky	37 3	35 2	3	SW	32 0	81	30.23	8
Mon Feb  1 04:42:00 2010	Dallas, Texas 75201  	clear sky	36 2	36 2	0		28 -2	75	30.2	10
Mon Feb  1 04:42:01 2010	Milwaukee, Wisconsin 53201  	clear sky	18 -8	13-Aug	8	NW	15-May	57	30.27	10
Mon Feb  1 04:42:01 2010	Detroit, Michigan 48201  	clear sky	21 -6	13-Aug	13-26	NW	13-Sep	58	30.21	10
Mon Feb  1 04:42:01 2010	Seattle, Washington 98101  	mostly cloudy	46 8	46 8	0		43 6	87	29.98	10
Mon Feb  1 04:42:02 2010	Philadelphia, Pennsylvania 19019  	clear sky	25 -4	16 -9	8	SW	13-Sep	49	30.17	10
Mon Feb  1 05:24:53 2010	San Jose, California 95101  	clear sky	54 12	53 12	5	NW	46 8	77	29.98	10
Mon Feb  1 05:24:54 2010	Denver, Colorado 80214  	clear sky	27 -3	21 -6	5	S	18 -8	68	29.84	10
Mon Feb  1 05:24:54 2010	Charlotte, North Carolina 28201  	clear sky	28 -2	25 -4	3	SW	27 -3	93	30.27	8
Mon Feb  1 05:24:54 2010	San Diego, California 92101  	clear sky	57 14	57 14	0		48 9	72	29.98	10
Mon Feb  1 05:24:55 2010	Memphis, Tennessee 37501  	mostly cloudy	30 -1	24 -4	6	NE	27 -3	86	30.3	10
Mon Feb  1 05:24:55 2010	Los Angeles, California 90001  	clear sky	57 14	57 14	0		48 9	72	29.94	10
Mon Feb  1 05:24:56 2010	New York, New York 10001  	clear sky	27 -3	24 -4	3	N	16-Mar	36	30.11	10
Mon Feb  1 05:24:56 2010	Baltimore, Maryland 21201  	normal	27 -3	27 -3			12-Oct	50	30.2	
Mon Feb  1 05:24:56 2010	El Paso, Texas 79901  	clear sky	48 9	48 9	0		37 3	66	29.94	10
Mon Feb  1 05:24:57 2010	Washington, Washington D. C. 20001  	clear sky	27 -3	19 -7	7	SW	11-Dec	54	30.22	10
Mon Feb  1 05:24:57 2010	Austin, Texas 73301  	mostly cloudy	36 2	30 -1	7	E	30 -1	80	30.21	10
Mon Feb  1 05:24:57 2010	Las Vegas, Nevada 89101  	mostly cloudy	54 12	54 12	0		30 -1	41	29.93	10
Mon Feb  1 05:24:58 2010	Oklahoma City, Oklahoma 73101  	mostly cloudy	28 -2	18 -8	12	SE	27 -3	93	30.15	0.7
Mon Feb  1 05:24:58 2010	San Francisco, California 94101  	mostly cloudy	54 12	54 12	3	NW	48 9	82	29.97	10
Mon Feb  1 05:24:58 2010	Nashville, Tennessee 37201  	clear sky	27 -3	27 -3	0		21 -6	80	30.33	9
Mon Feb  1 05:24:59 2010	Phoenix, Arizona 85001  	clear sky	61 16	61 16	5	SW	46 8	59	29.9	10
Mon Feb  1 05:24:59 2010	Portland, Oregon 97201  	clear sky	25 -4	15 -9	10	W	14-Jul	46	30.05	10
Mon Feb  1 05:24:59 2010	Fort Worth, Texas 76101  	clear sky	32 0	32 0	0		27 -3	80	30.18	7
Mon Feb  1 05:25:00 2010	Chicago, Illinois 60601  	clear sky	21 -6	12-Nov	9	NW	12-Oct	62	30.28	10
Mon Feb  1 05:25:00 2010	Indianapolis, Indiana 46201  	clear sky	19 -7	11-Dec	5	W	12-Oct	67	30.28	10
Mon Feb  1 05:25:00 2010	San Antonio, Texas 78201  	mostly cloudy	36 2	31 -1	6	NE	30 -1	80	30.2	7
Mon Feb  1 05:25:01 2010	Columbus, Ohio 43085  	clear sky	19 -7	11-Dec	5	W	11-Dec	73	30.26	10
Mon Feb  1 05:25:01 2010	Jacksonville, Florida 32099  	mostly cloudy	46 8	40 4	13	N	39 4	76	30.23	10
Mon Feb  1 05:25:02 2010	Houston, Texas 77001  	clear sky	37 3	35 2	3	SW	32 0	81	30.23	8
Mon Feb  1 05:25:02 2010	Dallas, Texas 75201  	clear sky	36 2	36 2	0		28 -2	75	30.2	10
Mon Feb  1 05:25:02 2010	Seattle, Washington 98101  	mostly cloudy	46 8	46 8	0		43 6	87	29.98	10
Mon Feb  1 05:25:03 2010	Milwaukee, Wisconsin 53201  	clear sky	18 -8	13-Aug	8	NW	15-May	57	30.27	10
Mon Feb  1 05:25:03 2010	Detroit, Michigan 48201  	clear sky	21 -6	13-Aug	13-26	NW	13-Sep	58	30.21	10
Mon Feb  1 05:25:03 2010	Philadelphia, Pennsylvania 19019  	clear sky	25 -4	16 -9	8	SW	13-Sep	49	30.17	10
Mon Feb  1 06:10:02 2010	Charlotte, North Carolina 28201  	clear sky	28 -2	25 -4	3	SW	25 -4	86	30.28	6
Mon Feb  1 06:10:02 2010	San Diego, California 92101  	clear sky	55 13	55 13	0		48 9	77	29.98	10
Mon Feb  1 06:10:02 2010	San Jose, California 95101  	clear sky	54 12	54 12	0		46 8	77	29.97	9
Mon Feb  1 06:10:03 2010	Denver, Colorado 80214  	clear sky	25 -4	17 -8	7	S	18 -8	74	29.84	10
Mon Feb  1 06:10:03 2010	Memphis, Tennessee 37501  	mostly cloudy	30 -1	24 -4	6	NE	25 -4	80	30.31	9
Mon Feb  1 06:10:03 2010	Los Angeles, California 90001  	clear sky	57 14	57 14	0		48 9	72	29.95	10
Mon Feb  1 06:10:04 2010	New York, New York 10001  	clear sky	27 -3	19 -7	17-Aug	SW	16-Mar	36	30.13	10
Mon Feb  1 06:10:04 2010	Baltimore, Maryland 21201  	normal	27 -3	27 -3			13-Sep	46	30.2	
Mon Feb  1 06:10:04 2010	El Paso, Texas 79901  	clear sky	50 10	50 10	0		36 2	58	29.95	10
Mon Feb  1 06:10:05 2010	Austin, Texas 73301  	mostly cloudy	36 2	34 1	3	SE	30 -1	80	30.21	10
Mon Feb  1 06:10:05 2010	Las Vegas, Nevada 89101  	clear sky	50 10	48 9	5	W	36 2	58	29.94	10
Mon Feb  1 06:10:05 2010	Washington, Washington D. C. 20001  	clear sky	25 -4	25 -4	0		12-Oct	54	30.24	10
Mon Feb  1 06:10:06 2010	Oklahoma City, Oklahoma 73101  	mostly cloudy	27 -3	16 -9	13	S	27 -3	100	30.15	1.2
Mon Feb  1 06:10:06 2010	Nashville, Tennessee 37201  	clear sky	27 -3	27 -3	0		23 -5	86	30.33	7
Mon Feb  1 06:10:06 2010	San Francisco, California 94101  	mostly cloudy	54 12	54 12	0		50 10	88	29.97	10
Mon Feb  1 06:10:07 2010	Fort Worth, Texas 76101  	clear sky	30 -1	27 -3	3	S	27 -3	86	30.18	6
Mon Feb  1 06:10:07 2010	Phoenix, Arizona 85001  	clear sky	57 14	57 14	3	SW	46 8	67	29.92	10
Mon Feb  1 06:10:07 2010	Portland, Oregon 97201  	clear sky	25 -4	16 -9	9	W	13-Sep	49	30.06	10
Mon Feb  1 06:10:08 2010	San Antonio, Texas 78201  	mostly cloudy	36 2	31 -1	6	NE	32 0	87	30.19	5
Mon Feb  1 06:10:08 2010	Chicago, Illinois 60601  	clear sky	21 -6	13 -11	6	NW	13-Sep	58	30.29	10
Mon Feb  1 06:10:09 2010	Indianapolis, Indiana 46201  	clear sky	21 -6	17 -8	3	W	12-Oct	62	30.28	10
Mon Feb  1 06:10:09 2010	Jacksonville, Florida 32099  	mostly cloudy	46 8	41 5	10	N	39 4	76	30.24	10
Mon Feb  1 06:10:10 2010	Columbus, Ohio 43085  	clear sky	18 -8	12-Oct	6	W	11-Dec	79	30.27	10
Mon Feb  1 06:10:10 2010	Dallas, Texas 75201  	mostly cloudy	32 0	32 0	0		28 -2	86	30.2	10
Mon Feb  1 06:10:10 2010	Houston, Texas 77001  	clear sky	37 3	37 3	0		32 0	81	30.22	7
Mon Feb  1 06:10:11 2010	Milwaukee, Wisconsin 53201  	clear sky	18 -8	13-Aug	8	NW	15-May	57	30.29	10
Mon Feb  1 06:10:11 2010	Detroit, Michigan 48201  	clear sky	21 -6	12-Nov	9	W	13-Sep	58	30.23	10
Mon Feb  1 06:10:11 2010	Seattle, Washington 98101  	mostly cloudy	48 9	48 9	0		43 6	81	29.97	10
Mon Feb  1 06:10:12 2010	Philadelphia, Pennsylvania 19019  	clear sky	25 -4	16 -9	8	SW	13-Sep	49	30.17	10
Mon Feb  1 06:53:04 2010	Charlotte, North Carolina 28201  	clear sky	28 -2	25 -4	3	SW	25 -4	86	30.28	5
Mon Feb  1 06:53:04 2010	San Diego, California 92101  	clear sky	55 13	55 13	0		48 9	77	29.99	10
Mon Feb  1 06:53:04 2010	San Jose, California 95101  	mostly cloudy	52 11	52 11	0		46 8	82	29.96	9
Mon Feb  1 06:53:05 2010	Denver, Colorado 80214  	clear sky	27 -3	19 -7	8	S	18 -8	68	29.82	10
Mon Feb  1 06:53:05 2010	Memphis, Tennessee 37501  	mostly cloudy	30 -1	24 -4	6	NE	23 -5	74	30.3	10
Mon Feb  1 06:53:06 2010	New York, New York 10001  	clear sky	27 -3	19 -7	17-Aug	W	16-Mar	36	30.12	10
Mon Feb  1 06:53:06 2010	El Paso, Texas 79901  	clear sky	48 9	46 8	5	SW	36 2	62	29.96	10
Mon Feb  1 06:53:06 2010	Los Angeles, California 90001  	clear sky	55 13	55 13	0		48 9	77	29.95	10
Mon Feb  1 06:53:07 2010	Las Vegas, Nevada 89101  	clear sky	48 9	46 8	5	W	36 2	62	29.95	10
Mon Feb  1 06:53:07 2010	Baltimore, Maryland 21201  	normal	27 -3	27 -3			12-Oct	50	30.21	
Mon Feb  1 06:53:07 2010	Washington, Washington D. C. 20001  	clear sky	25 -4	25 -4	0		12-Oct	54	30.24	10
Mon Feb  1 06:53:08 2010	Oklahoma City, Oklahoma 73101  	mostly cloudy	28 -2	19 -7	10	S	27 -3	93	30.14	1
Mon Feb  1 06:53:08 2010	Austin, Texas 73301  	mostly cloudy	36 2	31 -1	6	S	30 -1	80	30.22	10
Mon Feb  1 06:53:08 2010	San Francisco, California 94101  	mostly cloudy	52 11	51 11	5	SW	48 9	87	29.98	10
Mon Feb  1 06:53:09 2010	Fort Worth, Texas 76101  	clear sky	30 -1	30 -1	0		27 -3	86	30.18	6
Mon Feb  1 06:53:09 2010	Nashville, Tennessee 37201  	clear sky	25 -4	25 -4	0		21 -6	86	30.33	5
Mon Feb  1 06:53:09 2010	Phoenix, Arizona 85001  	clear sky	57 14	57 14	0		43 6	59	29.92	10
Mon Feb  1 06:53:10 2010	San Antonio, Texas 78201  	mostly cloudy	36 2	32 0	5	E	32 0	87	30.19	5
Mon Feb  1 06:53:10 2010	Chicago, Illinois 60601  	clear sky	19 -7	12-Nov	6	NW	13-Sep	62	30.3	10
Mon Feb  1 06:53:10 2010	Portland, Oregon 97201  	mostly cloudy	27 -3	15 -9	15	W	13-Sep	46	30.05	10
Mon Feb  1 06:53:11 2010	Indianapolis, Indiana 46201  	clear sky	19 -7	19 -7	0		12-Oct	67	30.29	10
Mon Feb  1 06:53:12 2010	Columbus, Ohio 43085  	clear sky	18 -8	13-Sep	7	W	11-Dec	79	30.28	10
Mon Feb  1 06:53:12 2010	Jacksonville, Florida 32099  	mostly cloudy	46 8	40 4	12	NE	39 4	76	30.23	10
Mon Feb  1 06:53:12 2010	Dallas, Texas 75201  	clear sky	34 1	34 1	0		28 -2	80	30.2	10
Mon Feb  1 06:53:13 2010	Milwaukee, Wisconsin 53201  	clear sky	16 -9	14-Jun	7	NW	16-Mar	57	30.29	10
Mon Feb  1 06:53:13 2010	Houston, Texas 77001  	clear sky	37 3	37 3	0		32 0	81	30.23	8
Mon Feb  1 06:53:13 2010	Seattle, Washington 98101  	mostly cloudy	48 9	48 9	0		43 6	81	29.97	10
Mon Feb  1 06:53:14 2010	Philadelphia, Pennsylvania 19019  	clear sky	25 -4	15 -9	10	W	14-Jul	46	30.17	10
Mon Feb  1 06:53:14 2010	Detroit, Michigan 48201  	clear sky	19 -7	12-Nov	6	NW	13-Sep	62	30.25	10
Mon Feb  1 07:36:50 2010	Charlotte, North Carolina 28201  	clear sky	28 -2	25 -4	3	SW	25 -4	86	30.28	5
Mon Feb  1 07:36:50 2010	San Diego, California 92101  	clear sky	55 13	55 13	0		48 9	77	29.99	10
Mon Feb  1 07:36:50 2010	San Jose, California 95101  	mostly cloudy	52 11	52 11	0		46 8	82	29.96	9
Mon Feb  1 07:36:51 2010	Denver, Colorado 80214  	clear sky	27 -3	19 -7	8	S	18 -8	68	29.82	10
Mon Feb  1 07:36:51 2010	Memphis, Tennessee 37501  	mostly cloudy	30 -1	24 -4	6	NE	23 -5	74	30.3	10
Mon Feb  1 07:36:51 2010	Los Angeles, California 90001  	clear sky	55 13	55 13	0		48 9	77	29.95	10
Mon Feb  1 07:36:52 2010	New York, New York 10001  	clear sky	27 -3	19 -7	17-Aug	W	16-Mar	36	30.12	10
Mon Feb  1 07:36:52 2010	El Paso, Texas 79901  	clear sky	48 9	46 8	5	SW	36 2	62	29.96	10
Mon Feb  1 07:36:52 2010	Baltimore, Maryland 21201  	normal	27 -3	27 -3			12-Oct	50	30.21	
Mon Feb  1 07:36:53 2010	Austin, Texas 73301  	mostly cloudy	36 2	31 -1	6	S	30 -1	80	30.22	10
Mon Feb  1 07:36:53 2010	Las Vegas, Nevada 89101  	clear sky	48 9	46 8	5	W	36 2	62	29.95	10
Mon Feb  1 07:36:53 2010	Washington, Washington D. C. 20001  	clear sky	25 -4	25 -4	0		12-Oct	54	30.24	10
Mon Feb  1 07:36:54 2010	Oklahoma City, Oklahoma 73101  	mostly cloudy	28 -2	19 -7	10	S	27 -3	93	30.14	1
Mon Feb  1 07:36:54 2010	San Francisco, California 94101  	mostly cloudy	52 11	51 11	5	SW	48 9	87	29.98	10
Mon Feb  1 07:36:54 2010	Nashville, Tennessee 37201  	clear sky	25 -4	25 -4	0		21 -6	86	30.33	5
Mon Feb  1 07:36:55 2010	Portland, Oregon 97201  	mostly cloudy	27 -3	15 -9	15	W	13-Sep	46	30.05	10
Mon Feb  1 07:36:55 2010	Fort Worth, Texas 76101  	clear sky	30 -1	30 -1	0		27 -3	86	30.18	6
Mon Feb  1 07:36:55 2010	Phoenix, Arizona 85001  	clear sky	57 14	57 14	0		43 6	59	29.92	10
Mon Feb  1 07:36:56 2010	San Antonio, Texas 78201  	mostly cloudy	36 2	32 0	5	E	32 0	87	30.19	5
Mon Feb  1 07:36:56 2010	Chicago, Illinois 60601  	clear sky	19 -7	12-Nov	6	NW	13-Sep	62	30.3	10
Mon Feb  1 07:36:56 2010	Indianapolis, Indiana 46201  	clear sky	19 -7	19 -7	0		12-Oct	67	30.29	10
Mon Feb  1 07:36:57 2010	Columbus, Ohio 43085  	clear sky	18 -8	13-Sep	7	W	11-Dec	79	30.28	10
Mon Feb  1 07:36:57 2010	Jacksonville, Florida 32099  	mostly cloudy	46 8	40 4	12	NE	39 4	76	30.23	10
Mon Feb  1 07:36:57 2010	Dallas, Texas 75201  	clear sky	34 1	34 1	0		28 -2	80	30.2	10
Mon Feb  1 07:36:58 2010	Milwaukee, Wisconsin 53201  	clear sky	16 -9	14-Jun	7	NW	16-Mar	57	30.29	10
Mon Feb  1 07:36:58 2010	Houston, Texas 77001  	clear sky	37 3	37 3	0		32 0	81	30.23	8
Mon Feb  1 07:36:58 2010	Seattle, Washington 98101  	mostly cloudy	48 9	48 9	0		43 6	81	29.97	10
Mon Feb  1 07:36:59 2010	Philadelphia, Pennsylvania 19019  	clear sky	25 -4	15 -9	10	W	14-Jul	46	30.17	10
Mon Feb  1 07:36:59 2010	Detroit, Michigan 48201  	clear sky	19 -7	12-Nov	6	NW	13-Sep	62	30.25	10
Mon Feb  1 08:20:25 2010	San Jose, California 95101  	mostly cloudy	52 11	52 11	0		45 7	76	29.98	10
Mon Feb  1 08:20:26 2010	Denver, Colorado 80214  	clear sky	25 -4	15 -9	10	SE	18 -8	74	29.82	10
Mon Feb  1 08:20:26 2010	Charlotte, North Carolina 28201  	clear sky	27 -3	21 -6	5	SW	25 -4	93	30.29	4
Mon Feb  1 08:20:26 2010	San Diego, California 92101  	clear sky	55 13	55 13	0		48 9	77	29.99	10
Mon Feb  1 08:20:27 2010	Memphis, Tennessee 37501  	mostly cloudy	28 -2	21 -6	6	E	21 -6	74	30.3	10
Mon Feb  1 08:20:27 2010	Los Angeles, California 90001  	clear sky	55 13	55 13	0		48 9	77	29.95	9
Mon Feb  1 08:20:28 2010	El Paso, Texas 79901  	clear sky	48 9	45 7	7	SW	36 2	62	29.96	10
Mon Feb  1 08:20:28 2010	New York, New York 10001  	clear sky	27 -3	20 -7	6	N	14-Jul	42	30.13	10
Mon Feb  1 08:20:28 2010	Baltimore, Maryland 21201  	normal	27 -3	27 -3			13-Sep	46	30.22	
Mon Feb  1 08:20:29 2010	Austin, Texas 73301  	mostly cloudy	36 2	34 1	3	SE	30 -1	80	30.2	10
Mon Feb  1 08:20:29 2010	Las Vegas, Nevada 89101  	clear sky	46 8	45 7	3	SW	36 2	66	29.96	10
Mon Feb  1 08:20:29 2010	Washington, Washington D. C. 20001  	clear sky	27 -3	27 -3	0		11-Dec	54	30.24	10
Mon Feb  1 08:20:30 2010	Oklahoma City, Oklahoma 73101  	mostly cloudy	28 -2	18 -8	12	S	27 -3	93	30.14	1
Mon Feb  1 08:20:30 2010	Nashville, Tennessee 37201  	clear sky	23 -5	23 -5	0		21 -6	93	30.32	3
Mon Feb  1 08:20:30 2010	San Francisco, California 94101  	mostly cloudy	52 11	52 11	0		46 8	82	29.97	10
Mon Feb  1 08:20:31 2010	Portland, Oregon 97201  	mostly cloudy	27 -3	18 -8	10	W	12-Oct	50	30.04	10
Mon Feb  1 08:20:31 2010	Fort Worth, Texas 76101  	clear sky	30 -1	30 -1	0		27 -3	86	30.17	6
Mon Feb  1 08:20:31 2010	Phoenix, Arizona 85001  	clear sky	57 14	57 14	0		43 6	59	29.92	10
Mon Feb  1 08:20:32 2010	San Antonio, Texas 78201  	mostly cloudy	36 2	34 1	3	E	34 1	93	30.18	4
Mon Feb  1 08:20:32 2010	Chicago, Illinois 60601  	clear sky	19 -7	11-Dec	5	NW	13-Sep	62	30.31	10
Mon Feb  1 08:20:32 2010	Indianapolis, Indiana 46201  	mostly cloudy	18 -8	18 -8	0		12-Oct	73	30.3	10
Mon Feb  1 08:20:33 2010	Jacksonville, Florida 32099  	mostly cloudy	48 9	43 6	12	NE	41 5	76	30.23	10
Mon Feb  1 08:20:34 2010	Columbus, Ohio 43085  	clear sky	19 -7	15 -9	3	W	11-Dec	73	30.28	10
Mon Feb  1 08:20:34 2010	Houston, Texas 77001  	clear sky	37 3	35 2	3	NE	32 0	81	30.23	7
Mon Feb  1 08:20:34 2010	Dallas, Texas 75201  	mostly cloudy	30 -1	30 -1	0		28 -2	93	30.19	6
Mon Feb  1 08:20:34 2010	Seattle, Washington 98101  	mostly cloudy	46 8	46 8	0		43 6	87	29.97	10
Mon Feb  1 08:20:35 2010	Milwaukee, Wisconsin 53201  	clear sky	16 -9	15-May	9	NW	16-Mar	57	30.29	10
Mon Feb  1 08:20:35 2010	Detroit, Michigan 48201  	clear sky	18 -8	13-Sep	7	NW	13-Sep	67	30.26	10
Mon Feb  1 08:20:36 2010	Philadelphia, Pennsylvania 19019  	clear sky	23 -5	14 -10	8	W	13-Sep	53	30.18	10
Mon Feb  1 09:04:04 2010	Charlotte, North Carolina 28201  	clear sky	27 -3	21 -6	5	SW	25 -4	93	30.29	4
Mon Feb  1 09:04:04 2010	San Jose, California 95101  	clear sky	48 9	46 8	5	E	45 7	87	29.98	9
Mon Feb  1 09:04:04 2010	San Diego, California 92101  	clear sky	54 12	54 12	0		48 9	82	29.98	10
Mon Feb  1 09:04:05 2010	Denver, Colorado 80214  	clear sky	23 -5	15 -9	7	S	16 -9	73	29.81	10
Mon Feb  1 09:04:05 2010	Memphis, Tennessee 37501  	mostly cloudy	28 -2	21 -6	7	E	21 -6	74	30.27	10
Mon Feb  1 09:04:05 2010	Los Angeles, California 90001  	clear sky	55 13	55 13	0		48 9	77	29.95	9
Mon Feb  1 09:04:06 2010	El Paso, Texas 79901  	clear sky	46 8	42 6	7	SW	36 2	66	29.95	10
Mon Feb  1 09:04:06 2010	New York, New York 10001  	clear sky	27 -3	19 -7	16-Jul	N	15-May	39	30.14	10
Mon Feb  1 09:04:07 2010	Washington, Washington D. C. 20001  	clear sky	21 -6	11-Dec	7	SW	11-Dec	68	30.26	10
Mon Feb  1 09:04:07 2010	Las Vegas, Nevada 89101  	clear sky	46 8	45 7	3	S	34 1	61	29.96	10
Mon Feb  1 09:04:07 2010	Baltimore, Maryland 21201  	normal	27 -3	27 -3			12-Oct	50	30.23	
Mon Feb  1 09:04:08 2010	Oklahoma City, Oklahoma 73101  	mostly cloudy	28 -2	18 -8	12	S	27 -3	93	30.14	0.7
Mon Feb  1 09:04:08 2010	Austin, Texas 73301  	mostly cloudy	36 2	32 0	5	E	30 -1	80	30.17	10
Mon Feb  1 09:04:08 2010	San Francisco, California 94101  	mostly cloudy	52 11	52 11	0		48 9	87	29.97	10
Mon Feb  1 09:04:09 2010	Fort Worth, Texas 76101  	clear sky	28 -2	28 -2	0		27 -3	93	30.17	5
Mon Feb  1 09:04:09 2010	Nashville, Tennessee 37201  	normal	23 -5	23 -5	0		19 -7	86	30.32	1
Mon Feb  1 09:04:09 2010	Phoenix, Arizona 85001  	clear sky	57 14	57 14	0		43 6	59	29.92	10
Mon Feb  1 09:04:10 2010	Portland, Oregon 97201  	mostly cloudy	28 -2	17 -8	14	W	11-Dec	50	30.04	10
Mon Feb  1 09:04:10 2010	San Antonio, Texas 78201  	mostly cloudy	36 2	31 -1	6	E	34 1	93	30.16	4
Mon Feb  1 09:04:10 2010	Chicago, Illinois 60601  	clear sky	18 -8	18 -8	0		13-Sep	67	30.31	9
Mon Feb  1 09:04:11 2010	Indianapolis, Indiana 46201  	mostly cloudy	19 -7	19 -7	0		12-Oct	67	30.3	10
Mon Feb  1 09:04:12 2010	Columbus, Ohio 43085  	clear sky	18 -8	12-Nov	5	W	12-Oct	73	30.3	10
Mon Feb  1 09:04:12 2010	Dallas, Texas 75201  	mostly cloudy	34 1	32 0	3	W	30 -1	86	30.2	6
Mon Feb  1 09:04:12 2010	Jacksonville, Florida 32099  	mostly cloudy	46 8	41 5	9	N	43 6	87	30.24	10
Mon Feb  1 09:04:13 2010	Milwaukee, Wisconsin 53201  	clear sky	14 -10	15-May	6	NW	16-Mar	61	30.3	10
Mon Feb  1 09:04:13 2010	Houston, Texas 77001  	clear sky	37 3	32 0	6	NE	34 1	87	30.21	6
Mon Feb  1 09:04:13 2010	Seattle, Washington 98101  	mostly cloudy	46 8	46 8	0		43 6	87	29.96	10
Mon Feb  1 09:04:14 2010	Detroit, Michigan 48201  	clear sky	18 -8	12-Oct	6	W	13-Sep	67	30.28	10
Mon Feb  1 09:04:14 2010	Philadelphia, Pennsylvania 19019  	clear sky	23 -5	15 -9	7	W	13-Sep	53	30.2	10
Mon Feb  1 09:46:45 2010	Charlotte, North Carolina 28201  	clear sky	27 -3	27 -3	0		23 -5	86	30.31	4
Mon Feb  1 09:46:45 2010	San Diego, California 92101  	clear sky	54 12	54 12	0		48 9	82	29.98	6
Mon Feb  1 09:46:45 2010	San Jose, California 95101  	mostly cloudy	46 8	46 8	0		43 6	87	29.97	10
Mon Feb  1 09:46:46 2010	Denver, Colorado 80214  	clear sky	23 -5	19 -7	3	S	16 -9	73	29.8	10
Mon Feb  1 09:46:46 2010	Memphis, Tennessee 37501  	mostly cloudy	28 -2	22 -6	5	E	21 -6	74	30.28	10
Mon Feb  1 09:46:46 2010	Los Angeles, California 90001  	clear sky	55 13	55 13	0		48 9	77	29.96	8
Mon Feb  1 09:46:47 2010	El Paso, Texas 79901  	clear sky	46 8	43 6	6	S	37 3	71	29.95	10
Mon Feb  1 09:46:47 2010	New York, New York 10001  	clear sky	25 -4	17 -8	16-Jul	N	14-Jul	46	30.17	10
Mon Feb  1 09:46:47 2010	Baltimore, Maryland 21201  	normal	25 -4	25 -4			12-Oct	54	30.26	
Mon Feb  1 09:46:48 2010	Las Vegas, Nevada 89101  	clear sky	45 7	44 7	3	SW	36 2	70	29.95	10
Mon Feb  1 09:46:48 2010	Austin, Texas 73301  	mostly cloudy	36 2	36 2	0		32 0	87	30.16	9
Mon Feb  1 09:46:48 2010	Washington, Washington D. C. 20001  	clear sky	23 -5	23 -5	0		11-Dec	63	30.28	10
Mon Feb  1 09:46:49 2010	Oklahoma City, Oklahoma 73101  	mostly cloudy	28 -2	19 -7	9	S	28 -2	100	30.13	0.5
Mon Feb  1 09:46:49 2010	San Francisco, California 94101  	mostly cloudy	52 11	52 11	0		46 8	82	29.97	10
Mon Feb  1 09:46:50 2010	Phoenix, Arizona 85001  	mostly cloudy	54 12	53 12	5	E	45 7	71	29.93	10
Mon Feb  1 09:46:50 2010	Fort Worth, Texas 76101  	clear sky	30 -1	30 -1	0		27 -3	86	30.16	6
Mon Feb  1 09:46:50 2010	Nashville, Tennessee 37201  	mostly cloudy	21 -6	21 -6	0		21 -6	100	30.31	0.5
Mon Feb  1 09:46:51 2010	San Antonio, Texas 78201  	mostly cloudy	36 2	31 -1	6	NE	34 1	93	30.14	4
Mon Feb  1 09:46:51 2010	Chicago, Illinois 60601  	mostly cloudy	18 -8	13 -11	3	NW	13-Sep	67	30.31	9
Mon Feb  1 09:46:51 2010	Portland, Oregon 97201  	clear sky	27 -3	16 -9	14	W	13-Sep	46	30.05	10
Mon Feb  1 09:46:52 2010	Jacksonville, Florida 32099  	mostly cloudy	48 9	42 6	15	NE	43 6	81	30.23	10
Mon Feb  1 09:46:52 2010	Indianapolis, Indiana 46201  	mostly cloudy	19 -7	19 -7	0		11-Dec	73	30.3	10
Mon Feb  1 09:46:53 2010	Columbus, Ohio 43085  	clear sky	18 -8	13 -11	3	SW	11-Dec	79	30.31	9
Mon Feb  1 09:46:53 2010	Houston, Texas 77001  	mostly cloudy	37 3	32 0	7	NE	34 1	87	30.17	6
Mon Feb  1 09:46:53 2010	Dallas, Texas 75201  	clear sky	32 0	32 0	0		28 -2	86	30.18	6
Mon Feb  1 09:46:54 2010	Milwaukee, Wisconsin 53201  	clear sky	14 -10	13-Sep	3	W	16-Mar	61	30.3	10
Mon Feb  1 09:46:54 2010	Seattle, Washington 98101  	mostly cloudy	46 8	45 7	3	SE	43 6	87	29.96	10
Mon Feb  1 09:46:54 2010	Detroit, Michigan 48201  	clear sky	18 -8	12-Nov	5	W	13-Sep	67	30.29	10
Mon Feb  1 09:46:55 2010	Philadelphia, Pennsylvania 19019  	clear sky	25 -4	16 -9	8	W	13-Sep	49	30.23	10
Mon Feb  1 10:30:21 2010	Charlotte, North Carolina 28201  	clear sky	27 -3	27 -3	0		23 -5	86	30.31	4
Mon Feb  1 10:30:21 2010	San Diego, California 92101  	clear sky	54 12	54 12	0		48 9	82	29.98	6
Mon Feb  1 10:30:21 2010	San Jose, California 95101  	mostly cloudy	46 8	46 8	0		43 6	87	29.97	10
Mon Feb  1 10:30:22 2010	Denver, Colorado 80214  	clear sky	23 -5	19 -7	3	S	16 -9	73	29.8	10
Mon Feb  1 10:30:22 2010	Memphis, Tennessee 37501  	mostly cloudy	28 -2	22 -6	5	E	21 -6	74	30.28	10
Mon Feb  1 10:30:23 2010	El Paso, Texas 79901  	clear sky	46 8	43 6	6	S	37 3	71	29.95	10
Mon Feb  1 10:30:23 2010	Los Angeles, California 90001  	clear sky	55 13	55 13	0		48 9	77	29.96	8
Mon Feb  1 10:30:24 2010	Las Vegas, Nevada 89101  	clear sky	45 7	44 7	3	SW	36 2	70	29.95	10
Mon Feb  1 10:30:24 2010	New York, New York 10001  	clear sky	25 -4	17 -8	16-Jul	N	14-Jul	46	30.17	10
Mon Feb  1 10:30:24 2010	Baltimore, Maryland 21201  	normal	25 -4	25 -4			12-Oct	54	30.26	
Mon Feb  1 10:30:25 2010	Austin, Texas 73301  	mostly cloudy	36 2	36 2	0		32 0	87	30.16	9
Mon Feb  1 10:30:25 2010	Washington, Washington D. C. 20001  	clear sky	23 -5	23 -5	0		11-Dec	63	30.28	10
Mon Feb  1 10:30:26 2010	Oklahoma City, Oklahoma 73101  	mostly cloudy	28 -2	19 -7	9	S	28 -2	100	30.13	0.5
Mon Feb  1 10:30:26 2010	Nashville, Tennessee 37201  	mostly cloudy	21 -6	21 -6	0		21 -6	100	30.31	0.5
Mon Feb  1 10:30:26 2010	San Francisco, California 94101  	mostly cloudy	52 11	52 11	0		46 8	82	29.97	10
Mon Feb  1 10:30:27 2010	Phoenix, Arizona 85001  	mostly cloudy	54 12	53 12	5	E	45 7	71	29.93	10
Mon Feb  1 10:30:27 2010	Fort Worth, Texas 76101  	clear sky	30 -1	30 -1	0		27 -3	86	30.16	6
Mon Feb  1 10:30:28 2010	San Antonio, Texas 78201  	mostly cloudy	36 2	31 -1	6	NE	34 1	93	30.14	4
Mon Feb  1 10:30:28 2010	Chicago, Illinois 60601  	mostly cloudy	18 -8	13 -11	3	NW	13-Sep	67	30.31	9
Mon Feb  1 10:30:28 2010	Portland, Oregon 97201  	clear sky	27 -3	16 -9	14	W	13-Sep	46	30.05	10
Mon Feb  1 10:30:29 2010	Indianapolis, Indiana 46201  	mostly cloudy	19 -7	19 -7	0		11-Dec	73	30.3	10
Mon Feb  1 10:30:30 2010	Columbus, Ohio 43085  	clear sky	18 -8	13 -11	3	SW	11-Dec	79	30.31	9
Mon Feb  1 10:30:30 2010	Jacksonville, Florida 32099  	mostly cloudy	48 9	42 6	15	NE	43 6	81	30.23	10
Mon Feb  1 10:30:30 2010	Dallas, Texas 75201  	clear sky	32 0	32 0	0		28 -2	86	30.18	6
Mon Feb  1 10:30:31 2010	Houston, Texas 77001  	mostly cloudy	37 3	32 0	7	NE	34 1	87	30.17	6
Mon Feb  1 10:30:31 2010	Seattle, Washington 98101  	mostly cloudy	46 8	45 7	3	SE	43 6	87	29.96	10
Mon Feb  1 10:30:32 2010	Milwaukee, Wisconsin 53201  	clear sky	14 -10	13-Sep	3	W	16-Mar	61	30.3	10
Mon Feb  1 10:30:32 2010	Detroit, Michigan 48201  	clear sky	18 -8	12-Nov	5	W	13-Sep	67	30.29	10
Mon Feb  1 10:30:32 2010	Philadelphia, Pennsylvania 19019  	clear sky	25 -4	16 -9	8	W	13-Sep	49	30.23	10
Mon Feb  1 11:13:18 2010	Charlotte, North Carolina 28201  	clear sky	25 -4	25 -4	0		21 -6	86	30.31	5
Mon Feb  1 11:13:18 2010	San Diego, California 92101  	clear sky	54 12	54 12	0		48 9	82	29.97	6
Mon Feb  1 11:13:18 2010	San Jose, California 95101  	clear sky	48 9	48 9	0		45 7	87	29.98	10
Mon Feb  1 11:13:19 2010	Denver, Colorado 80214  	clear sky	23 -5	19 -7	3	S	14 -10	68	29.81	10
Mon Feb  1 11:13:19 2010	Memphis, Tennessee 37501  	mostly cloudy	27 -3	27 -3	0		21 -6	80	30.28	10
Mon Feb  1 11:13:20 2010	El Paso, Texas 79901  	mostly cloudy	45 7	42 6	6	S	37 3	76	29.96	10
Mon Feb  1 11:13:20 2010	New York, New York 10001  	clear sky	25 -4	16 -9	8	W	14-Jul	46	30.17	10
Mon Feb  1 11:13:20 2010	Los Angeles, California 90001  	clear sky	54 12	54 12	0		46 8	77	29.96	7
Mon Feb  1 11:13:21 2010	Baltimore, Maryland 21201  	normal	25 -4	25 -4			12-Oct	54	30.27	
Mon Feb  1 11:13:21 2010	Las Vegas, Nevada 89101  	clear sky	43 6	43 6	0		34 1	70	29.96	10
Mon Feb  1 11:13:21 2010	Washington, Washington D. C. 20001  	clear sky	21 -6	21 -6	0		11-Dec	68	30.29	10
Mon Feb  1 11:13:22 2010	Austin, Texas 73301  	mostly cloudy	36 2	36 2	0		32 0	87	30.15	9
Mon Feb  1 11:13:22 2010	San Francisco, California 94101  	mostly cloudy	52 11	52 11	0		46 8	82	29.98	10
Mon Feb  1 11:13:23 2010	Oklahoma City, Oklahoma 73101  	mostly cloudy	28 -2	21 -6	7	S	28 -2	100	30.13	0.5
Mon Feb  1 11:13:23 2010	Fort Worth, Texas 76101  	clear sky	30 -1	30 -1	0		27 -3	86	30.16	6
Mon Feb  1 11:13:23 2010	Nashville, Tennessee 37201  	mostly cloudy	19 -7	19 -7	0		19 -7	100	30.31	0.2
Mon Feb  1 11:13:24 2010	Portland, Oregon 97201  	clear sky	27 -3	16 -9	14	W	12-Oct	50	30.06	10
Mon Feb  1 11:13:24 2010	Phoenix, Arizona 85001  	clear sky	54 12	54 12	3	SE	43 6	67	29.93	10
Mon Feb  1 11:13:24 2010	Chicago, Illinois 60601  	mostly cloudy	19 -7	19 -7	0		13-Sep	62	30.31	10
Mon Feb  1 11:13:25 2010	Indianapolis, Indiana 46201  	mostly cloudy	19 -7	15 -9	3	E	12-Oct	67	30.28	10
Mon Feb  1 11:13:25 2010	San Antonio, Texas 78201  	mostly cloudy	36 2	32 0	5	N	34 1	93	30.13	4
Mon Feb  1 11:13:26 2010	Jacksonville, Florida 32099  	mostly cloudy	48 9	44 7	10	NE	43 6	81	30.21	10
Mon Feb  1 11:13:26 2010	Columbus, Ohio 43085  	clear sky	16 -9	16 -9	0		11-Dec	85	30.31	8
Mon Feb  1 11:13:27 2010	Houston, Texas 77001  	mostly cloudy	37 3	31 -1	8	NE	34 1	87	30.16	7
Mon Feb  1 11:13:27 2010	Dallas, Texas 75201  	mostly cloudy	34 1	34 1	0		28 -2	80	30.18	6
Mon Feb  1 11:13:27 2010	Seattle, Washington 98101  	mostly cloudy	46 8	46 8	0		43 6	87	29.95	10
Mon Feb  1 11:13:28 2010	Detroit, Michigan 48201  	clear sky	16 -9	13-Aug	5	W	13-Sep	73	30.3	10
Mon Feb  1 11:13:28 2010	Philadelphia, Pennsylvania 19019  	clear sky	21 -6	13 -11	6	W	13-Sep	58	30.24	10
Mon Feb  1 11:13:28 2010	Milwaukee, Wisconsin 53201  	clear sky	11-Dec	11-Dec	0		16-Mar	66	30.29	10
Mon Feb  1 11:56:55 2010	San Jose, California 95101  	clear sky	46 8	44 7	5	SE	43 6	87	29.98	10
Mon Feb  1 11:56:56 2010	Charlotte, North Carolina 28201  	clear sky	25 -4	25 -4	0		21 -6	86	30.29	3
Mon Feb  1 11:56:56 2010	San Diego, California 92101  	mostly cloudy	54 12	54 12	0		48 9	82	29.98	6
Mon Feb  1 11:56:57 2010	Denver, Colorado 80214  	clear sky	23 -5	14 -10	8	S	12-Oct	58	29.81	10
Mon Feb  1 11:56:57 2010	Los Angeles, California 90001  	clear sky	52 11	52 11	0		46 8	82	29.96	5
Mon Feb  1 11:56:57 2010	Memphis, Tennessee 37501  	mostly cloudy	27 -3	27 -3	0		21 -6	80	30.28	10
Mon Feb  1 11:56:58 2010	New York, New York 10001  	clear sky	27 -3	15 -9	16-20	W	14-Jul	42	30.2	10
Mon Feb  1 11:56:58 2010	Baltimore, Maryland 21201  	normal	27 -3	27 -3			12-Oct	50	30.28	
Mon Feb  1 11:56:58 2010	El Paso, Texas 79901  	mostly cloudy	46 8	46 8	0		37 3	71	29.96	10
Mon Feb  1 11:56:59 2010	Austin, Texas 73301  	mostly cloudy	36 2	36 2	0		32 0	87	30.15	9
Mon Feb  1 11:56:59 2010	Las Vegas, Nevada 89101  	clear sky	43 6	43 6	0		34 1	70	29.96	10
Mon Feb  1 11:56:59 2010	Washington, Washington D. C. 20001  	clear sky	21 -6	21 -6	0		11-Dec	68	30.32	10
Mon Feb  1 11:57:00 2010	Oklahoma City, Oklahoma 73101  	mostly cloudy	30 -1	19 -7	14	S	28 -2	93	30.09	2.5
Mon Feb  1 11:57:00 2010	San Francisco, California 94101  	mostly cloudy	50 10	50 10	3	W	46 8	87	29.98	10
Mon Feb  1 11:57:00 2010	Nashville, Tennessee 37201  	normal	19 -7	19 -7	0		19 -7	100	30.3	0.2
Mon Feb  1 11:57:01 2010	Phoenix, Arizona 85001  	clear sky	52 11	51 11	5	E	43 6	71	29.94	10
Mon Feb  1 11:57:01 2010	Fort Worth, Texas 76101  	mostly cloudy	30 -1	30 -1	0		28 -2	93	30.14	6
Mon Feb  1 11:57:02 2010	Chicago, Illinois 60601  	mostly cloudy	19 -7	15 -9	3	N	12-Oct	67	30.3	10
Mon Feb  1 11:57:02 2010	Portland, Oregon 97201  	clear sky	27 -3	18 -8	10	W	12-Oct	50	30.07	10
Mon Feb  1 11:57:02 2010	San Antonio, Texas 78201  	mostly cloudy	36 2	32 0	5	NE	34 1	93	30.12	6
Mon Feb  1 11:57:03 2010	Jacksonville, Florida 32099  	mostly cloudy	48 9	42 6	14	NE	43 6	81	30.21	10
Mon Feb  1 11:57:03 2010	Indianapolis, Indiana 46201  	mostly cloudy	21 -6	21 -6	0		11-Dec	68	30.27	10
Mon Feb  1 11:57:04 2010	Houston, Texas 77001  	mostly cloudy	39 4	35 2	6	NE	34 1	81	30.15	8
Mon Feb  1 11:57:04 2010	Columbus, Ohio 43085  	clear sky	18 -8	18 -8	0		11-Dec	79	30.32	8
Mon Feb  1 11:57:04 2010	Dallas, Texas 75201  	mostly cloudy	34 1	34 1	0		30 -1	86	30.17	6
Mon Feb  1 11:57:05 2010	Milwaukee, Wisconsin 53201  	clear sky	11-Dec	16-Apr	5	NW	16-Mar	66	30.3	10
Mon Feb  1 11:57:05 2010	Detroit, Michigan 48201  	clear sky	16 -9	13-Aug	5	W	13-Sep	73	30.3	10
Mon Feb  1 11:57:05 2010	Seattle, Washington 98101  	clear sky	45 7	45 7	0		41 5	87	29.94	10
Mon Feb  1 11:57:06 2010	Philadelphia, Pennsylvania 19019  	clear sky	23 -5	17 -8	5	SW	13-Sep	53	30.25	10
Mon Feb  1 12:39:57 2010	San Jose, California 95101  	clear sky	46 8	44 7	5	SE	43 6	87	29.98	10
Mon Feb  1 12:39:57 2010	Charlotte, North Carolina 28201  	clear sky	25 -4	25 -4	0		21 -6	86	30.29	3
Mon Feb  1 12:39:57 2010	San Diego, California 92101  	mostly cloudy	54 12	54 12	0		48 9	82	29.98	6
Mon Feb  1 12:39:58 2010	Denver, Colorado 80214  	clear sky	23 -5	14 -10	8	S	12-Oct	58	29.81	10
Mon Feb  1 12:39:58 2010	Los Angeles, California 90001  	clear sky	52 11	52 11	0		46 8	82	29.96	5
Mon Feb  1 12:39:58 2010	Memphis, Tennessee 37501  	mostly cloudy	27 -3	27 -3	0		21 -6	80	30.28	10
Mon Feb  1 12:39:59 2010	New York, New York 10001  	clear sky	27 -3	15 -9	16-20	W	14-Jul	42	30.2	10
Mon Feb  1 12:39:59 2010	El Paso, Texas 79901  	mostly cloudy	46 8	46 8	0		37 3	71	29.96	10
Mon Feb  1 12:40:00 2010	Austin, Texas 73301  	mostly cloudy	36 2	36 2	0		32 0	87	30.15	9
Mon Feb  1 12:40:00 2010	Baltimore, Maryland 21201  	normal	27 -3	27 -3			12-Oct	50	30.28	
Mon Feb  1 12:40:00 2010	Las Vegas, Nevada 89101  	clear sky	43 6	43 6	0		34 1	70	29.96	10
Mon Feb  1 12:40:00 2010	Washington, Washington D. C. 20001  	clear sky	21 -6	21 -6	0		11-Dec	68	30.32	10
Mon Feb  1 12:40:01 2010	Oklahoma City, Oklahoma 73101  	mostly cloudy	30 -1	19 -7	14	S	28 -2	93	30.09	2.5
Mon Feb  1 12:40:01 2010	San Francisco, California 94101  	mostly cloudy	50 10	50 10	3	W	46 8	87	29.98	10
Mon Feb  1 12:40:01 2010	Nashville, Tennessee 37201  	normal	19 -7	19 -7	0		19 -7	100	30.3	0.2
Mon Feb  1 12:40:02 2010	Portland, Oregon 97201  	clear sky	27 -3	18 -8	10	W	12-Oct	50	30.07	10
Mon Feb  1 12:40:02 2010	Phoenix, Arizona 85001  	clear sky	52 11	51 11	5	E	43 6	71	29.94	10
Mon Feb  1 12:40:02 2010	Fort Worth, Texas 76101  	mostly cloudy	30 -1	30 -1	0		28 -2	93	30.14	6
Mon Feb  1 12:40:03 2010	Chicago, Illinois 60601  	mostly cloudy	19 -7	15 -9	3	N	12-Oct	67	30.3	10
Mon Feb  1 12:40:03 2010	San Antonio, Texas 78201  	mostly cloudy	36 2	32 0	5	NE	34 1	93	30.12	6
Mon Feb  1 12:40:03 2010	Indianapolis, Indiana 46201  	mostly cloudy	21 -6	21 -6	0		11-Dec	68	30.27	10
Mon Feb  1 12:40:04 2010	Jacksonville, Florida 32099  	mostly cloudy	48 9	42 6	14	NE	43 6	81	30.21	10
Mon Feb  1 12:40:04 2010	Columbus, Ohio 43085  	clear sky	18 -8	18 -8	0		11-Dec	79	30.32	8
Mon Feb  1 12:40:05 2010	Houston, Texas 77001  	mostly cloudy	39 4	35 2	6	NE	34 1	81	30.15	8
Mon Feb  1 12:40:05 2010	Dallas, Texas 75201  	mostly cloudy	34 1	34 1	0		30 -1	86	30.17	6
Mon Feb  1 12:40:05 2010	Seattle, Washington 98101  	clear sky	45 7	45 7	0		41 5	87	29.94	10
Mon Feb  1 12:40:06 2010	Milwaukee, Wisconsin 53201  	clear sky	11-Dec	16-Apr	5	NW	16-Mar	66	30.3	10
Mon Feb  1 12:40:06 2010	Detroit, Michigan 48201  	clear sky	16 -9	13-Aug	5	W	13-Sep	73	30.3	10
Mon Feb  1 12:40:06 2010	Philadelphia, Pennsylvania 19019  	clear sky	23 -5	17 -8	5	SW	13-Sep	53	30.25	10
Mon Feb  1 13:23:43 2010	Charlotte, North Carolina 28201  	clear sky	23 -5	23 -5	0		19 -7	86	30.3	4
Mon Feb  1 13:23:43 2010	San Jose, California 95101  	clear sky	46 8	46 8	0		43 6	87	29.98	10
Mon Feb  1 13:23:44 2010	Denver, Colorado 80214  	clear sky	25 -4	16 -9	8	SW	12-Oct	54	29.82	10
Mon Feb  1 13:23:44 2010	Memphis, Tennessee 37501  	mostly cloudy	27 -3	21 -6	5	E	21 -6	80	30.26	9
Mon Feb  1 13:23:44 2010	San Diego, California 92101  	mostly cloudy	54 12	54 12	0		48 9	82	29.96	5
Mon Feb  1 13:23:45 2010	El Paso, Texas 79901  	mostly cloudy	45 7	45 7	0		37 3	76	29.96	10
Mon Feb  1 13:23:45 2010	Los Angeles, California 90001  	clear sky	52 11	52 11	0		46 8	82	29.96	5
Mon Feb  1 13:23:46 2010	New York, New York 10001  	clear sky	27 -3	18 -8	20-Sep	W	13-Sep	46	30.21	10
Mon Feb  1 13:23:46 2010	Baltimore, Maryland 21201  	normal	25 -4	25 -4			12-Oct	54	30.32	
Mon Feb  1 13:23:46 2010	Las Vegas, Nevada 89101  	clear sky	43 6	43 6	0		34 1	70	29.96	10
Mon Feb  1 13:23:47 2010	Washington, Washington D. C. 20001  	clear sky	25 -4	16 -9	8	N	12-Oct	54	30.33	10
Mon Feb  1 13:23:47 2010	Austin, Texas 73301  	mostly cloudy	36 2	34 1	3	N	32 0	87	30.14	8
Mon Feb  1 13:23:47 2010	San Francisco, California 94101  	mostly cloudy	50 10	48 9	6	W	46 8	87	29.98	10
Mon Feb  1 13:23:48 2010	Nashville, Tennessee 37201  	normal	19 -7	15 -9	3	NE	18 -8	93	30.29	0
Mon Feb  1 13:23:48 2010	Oklahoma City, Oklahoma 73101  	mostly cloudy	30 -1	19 -7	15	SE	28 -2	93	30.07	3
Mon Feb  1 13:23:48 2010	Fort Worth, Texas 76101  	clear sky	30 -1	30 -1	0		27 -3	86	30.13	5
Mon Feb  1 13:23:49 2010	Chicago, Illinois 60601  	mostly cloudy	21 -6	17 -8	3	N	12-Oct	62	30.29	10
Mon Feb  1 13:23:49 2010	Portland, Oregon 97201  	clear sky	27 -3	16 -9	13	W	12-Oct	50	30.09	10
Mon Feb  1 13:23:49 2010	Phoenix, Arizona 85001  	clear sky	52 11	52 11	3	E	43 6	71	29.94	10
Mon Feb  1 13:23:50 2010	Indianapolis, Indiana 46201  	mostly cloudy	21 -6	17 -8	3	S	16 -9	79	30.28	10
Mon Feb  1 13:23:50 2010	San Antonio, Texas 78201  	mostly cloudy	36 2	34 1	3	NE	34 1	93	30.12	2
Mon Feb  1 13:23:51 2010	Jacksonville, Florida 32099  	mostly cloudy	50 10	45 7	12	NE	45 7	82	30.22	10
Mon Feb  1 13:23:51 2010	Columbus, Ohio 43085  	clear sky	16 -9	16 -9	0		12-Oct	79	30.32	7
Mon Feb  1 13:23:52 2010	Milwaukee, Wisconsin 53201  	clear sky	14 -10	13-Sep	3	NW	16-Mar	61	30.29	9
Mon Feb  1 13:23:52 2010	Houston, Texas 77001  	clear sky	39 4	35 2	6	NE	34 1	81	30.14	7
Mon Feb  1 13:23:52 2010	Dallas, Texas 75201  	mostly cloudy	34 1	34 1	0		30 -1	86	30.15	6
Mon Feb  1 13:23:52 2010	Seattle, Washington 98101  	clear sky	43 6	43 6	0		39 4	87	29.93	10
Mon Feb  1 13:23:53 2010	Detroit, Michigan 48201  	clear sky	16 -9	12-Nov	3	W	13-Sep	73	30.31	10
Mon Feb  1 13:23:53 2010	Philadelphia, Pennsylvania 19019  	clear sky	23 -5	16 -9	6	W	13-Sep	53	30.28	10
Mon Feb  1 14:07:35 2010	Charlotte, North Carolina 28201  	clear sky	21 -6	21 -6	0		19 -7	93	30.32	7
Mon Feb  1 14:07:35 2010	San Diego, California 92101  	mostly cloudy	52 11	52 11	0		46 8	82	29.95	5
Mon Feb  1 14:07:35 2010	San Jose, California 95101  	clear sky	46 8	46 8	0		43 6	87	29.97	10
Mon Feb  1 14:07:36 2010	Denver, Colorado 80214  	clear sky	27 -3	21 -6	5	SW	14-Jul	42	29.82	10
Mon Feb  1 14:07:36 2010	Memphis, Tennessee 37501  	mostly cloudy	25 -4	25 -4	0		21 -6	86	30.26	9
Mon Feb  1 14:07:37 2010	New York, New York 10001  	clear sky	25 -4	18 -8	6	W	13-Sep	49	30.24	10
Mon Feb  1 14:07:37 2010	El Paso, Texas 79901  	mostly cloudy	43 6	43 6	0		37 3	81	29.96	10
Mon Feb  1 14:07:37 2010	Los Angeles, California 90001  	clear sky	52 11	52 11	0		45 7	76	29.95	6
Mon Feb  1 14:07:38 2010	Washington, Washington D. C. 20001  	clear sky	27 -3	16 -9	13	NW	12-Oct	50	30.35	10
Mon Feb  1 14:07:38 2010	Las Vegas, Nevada 89101  	clear sky	41 5	39 4	3	SW	34 1	75	29.96	10
Mon Feb  1 14:07:38 2010	Baltimore, Maryland 21201  	normal	27 -3	27 -3			12-Oct	50	30.34	
Mon Feb  1 14:07:39 2010	Oklahoma City, Oklahoma 73101  	mostly cloudy	30 -1	19 -7	16	S	28 -2	93	30.05	4
Mon Feb  1 14:07:39 2010	Austin, Texas 73301  	mostly cloudy	36 2	32 0	5	NW	32 0	87	30.13	8
Mon Feb  1 14:07:39 2010	San Francisco, California 94101  	mostly cloudy	50 10	50 10	3	E	46 8	87	29.96	10
Mon Feb  1 14:07:40 2010	Fort Worth, Texas 76101  	mostly cloudy	27 -3	24 -4	3	S	25 -4	93	30.11	4
Mon Feb  1 14:07:40 2010	Phoenix, Arizona 85001  	clear sky	50 10	50 10	3	E	43 6	76	29.94	10
Mon Feb  1 14:07:40 2010	Nashville, Tennessee 37201  	normal	19 -7	19 -7	0		18 -8	93	30.29	0.5
Mon Feb  1 14:07:41 2010	Portland, Oregon 97201  	clear sky	27 -3	15 -9	15-22	W	12-Oct	50	30.12	10
Mon Feb  1 14:07:41 2010	San Antonio, Texas 78201  	mostly cloudy	36 2	34 1	3	NE	36 2	100	30.11	1.5
Mon Feb  1 14:07:41 2010	Chicago, Illinois 60601  	mostly cloudy	21 -6	21 -6	0		12-Oct	62	30.29	10
Mon Feb  1 14:07:42 2010	Jacksonville, Florida 32099  	mostly cloudy	52 11	48 9	12	NE	46 8	82	30.22	10
Mon Feb  1 14:07:42 2010	Indianapolis, Indiana 46201  	mostly cloudy	21 -6	21 -6	0		14 -10	73	30.28	10
Mon Feb  1 14:07:43 2010	Dallas, Texas 75201  	mostly cloudy	32 0	29 -2	3	E	30 -1	93	30.13	6
Mon Feb  1 14:07:43 2010	Houston, Texas 77001  	mostly cloudy	39 4	35 2	6	NE	34 1	81	30.14	8
Mon Feb  1 14:07:43 2010	Columbus, Ohio 43085  	clear sky	11-Dec	11-Dec	0		12-Oct	92	30.3	9
Mon Feb  1 14:07:44 2010	Milwaukee, Wisconsin 53201  	clear sky	16 -9	12-Nov	3	NW	15-May	62	30.29	8
Mon Feb  1 14:07:44 2010	Detroit, Michigan 48201  	clear sky	14 -10	13-Sep	3	W	13-Sep	79	30.31	10
Mon Feb  1 14:07:44 2010	Seattle, Washington 98101  	clear sky	43 6	43 6	0		37 3	81	29.92	3
Mon Feb  1 14:07:45 2010	Philadelphia, Pennsylvania 19019  	clear sky	21 -6	14 -10	5	W	12-Oct	62	30.32	10
Mon Feb  1 14:52:52 2010	Charlotte, North Carolina 28201  	clear sky	23 -5	19 -7	3	NE	19 -7	86	30.34	5
Mon Feb  1 14:52:52 2010	San Jose, California 95101  	clear sky	46 8	46 8	0		43 6	87	29.96	10
Mon Feb  1 14:52:53 2010	Denver, Colorado 80214  	clear sky	23 -5	13 -11	10	S	13-Sep	53	29.81	10
Mon Feb  1 14:52:53 2010	San Diego, California 92101  	mostly cloudy	52 11	52 11	0		46 8	82	29.96	5
Mon Feb  1 14:52:54 2010	El Paso, Texas 79901  	mostly cloudy	43 6	43 6	0		37 3	81	29.97	10
Mon Feb  1 14:52:54 2010	Los Angeles, California 90001  	clear sky	50 10	50 10	0		45 7	82	29.95	7
Mon Feb  1 14:52:54 2010	Memphis, Tennessee 37501  	mostly cloudy	27 -3	27 -3	0		21 -6	80	30.26	7
Mon Feb  1 14:52:55 2010	New York, New York 10001  	clear sky	27 -3	18 -8	9	SW	12-Oct	50	30.28	10
Mon Feb  1 14:52:55 2010	Las Vegas, Nevada 89101  	clear sky	39 4	37 3	3	SW	34 1	81	29.97	10
Mon Feb  1 14:52:55 2010	Baltimore, Maryland 21201  	normal	27 -3	27 -3			13-Sep	46	30.36	
Mon Feb  1 14:52:56 2010	Washington, Washington D. C. 20001  	mostly cloudy	27 -3	19 -7	20-Jul	N	12-Oct	50	30.38	10
Mon Feb  1 14:52:56 2010	Austin, Texas 73301  	mostly cloudy	37 3	37 3	0		34 1	87	30.13	7
Mon Feb  1 14:52:56 2010	San Francisco, California 94101  	mostly cloudy	46 8	46 8	0		45 7	93	29.95	10
Mon Feb  1 14:52:57 2010	Fort Worth, Texas 76101  	mostly cloudy	30 -1	25 -4	5	S	28 -2	93	30.11	2
Mon Feb  1 14:52:57 2010	Oklahoma City, Oklahoma 73101  	mostly cloudy	30 -1	18 -8	17	S	28 -2	93	30.04	5
Mon Feb  1 14:52:57 2010	Nashville, Tennessee 37201  	clear sky	19 -7	19 -7	0		16 -9	86	30.29	3
Mon Feb  1 14:52:58 2010	Portland, Oregon 97201  	clear sky	28 -2	15 -9	18-22	W	12-Oct	46	30.14	10
Mon Feb  1 14:52:58 2010	Phoenix, Arizona 85001  	clear sky	50 10	48 9	6	E	43 6	76	29.94	10
Mon Feb  1 14:52:58 2010	Chicago, Illinois 60601  	mostly cloudy	21 -6	21 -6	0		12-Oct	62	30.3	10
Mon Feb  1 14:52:59 2010	Indianapolis, Indiana 46201  	clear sky	19 -7	11-Dec	5	SE	11-Dec	73	30.3	10
Mon Feb  1 14:52:59 2010	San Antonio, Texas 78201  	mostly cloudy	37 3	37 3	0		36 2	93	30.11	1.2
Mon Feb  1 14:53:00 2010	Jacksonville, Florida 32099  	mostly cloudy	52 11	47 8	14	NE	46 8	82	30.23	10
Mon Feb  1 14:53:00 2010	Columbus, Ohio 43085  	clear sky	14 -10	14 -10	0		12-Oct	85	30.31	6
Mon Feb  1 14:53:01 2010	Dallas, Texas 75201  	mostly cloudy	34 1	29 -2	6	SE	30 -1	86	30.12	5
Mon Feb  1 14:53:01 2010	Houston, Texas 77001  	mostly cloudy	41 5	37 3	6	NE	36 2	81	30.14	8
Mon Feb  1 14:53:01 2010	Seattle, Washington 98101  	clear sky	39 4	39 4	0		37 3	93	29.9	10
Mon Feb  1 14:53:02 2010	Philadelphia, Pennsylvania 19019  	clear sky	25 -4	17 -8	7	W	12-Oct	54	30.35	10
Mon Feb  1 14:53:02 2010	Milwaukee, Wisconsin 53201  	mostly cloudy	16 -9	12-Nov	3	NW	14-Jul	67	30.3	8
Mon Feb  1 14:53:02 2010	Detroit, Michigan 48201  	clear sky	14 -10	13-Sep	3	W	13-Sep	79	30.32	9
Mon Feb  1 15:36:24 2010	Charlotte, North Carolina 28201  	clear sky	23 -5	19 -7	3	NE	19 -7	86	30.34	5
Mon Feb  1 15:36:24 2010	San Jose, California 95101  	clear sky	46 8	46 8	0		43 6	87	29.96	10
Mon Feb  1 15:36:25 2010	Denver, Colorado 80214  	clear sky	23 -5	13 -11	10	S	13-Sep	53	29.81	10
Mon Feb  1 15:36:25 2010	Memphis, Tennessee 37501  	mostly cloudy	27 -3	27 -3	0		21 -6	80	30.26	7
Mon Feb  1 15:36:25 2010	San Diego, California 92101  	mostly cloudy	52 11	52 11	0		46 8	82	29.96	5
Mon Feb  1 15:36:26 2010	New York, New York 10001  	clear sky	27 -3	18 -8	9	SW	12-Oct	50	30.28	10
Mon Feb  1 15:36:26 2010	Baltimore, Maryland 21201  	normal	27 -3	27 -3			13-Sep	46	30.36	
Mon Feb  1 15:36:26 2010	El Paso, Texas 79901  	mostly cloudy	43 6	43 6	0		37 3	81	29.97	10
Mon Feb  1 15:36:26 2010	Los Angeles, California 90001  	clear sky	50 10	50 10	0		45 7	82	29.95	7
Mon Feb  1 15:36:27 2010	Washington, Washington D. C. 20001  	mostly cloudy	27 -3	19 -7	20-Jul	N	12-Oct	50	30.38	10
Mon Feb  1 15:36:27 2010	Las Vegas, Nevada 89101  	clear sky	39 4	37 3	3	SW	34 1	81	29.97	10
Mon Feb  1 15:36:27 2010	Austin, Texas 73301  	mostly cloudy	37 3	37 3	0		34 1	87	30.13	7
Mon Feb  1 15:36:28 2010	Oklahoma City, Oklahoma 73101  	mostly cloudy	30 -1	18 -8	17	S	28 -2	93	30.04	5
Mon Feb  1 15:36:28 2010	Nashville, Tennessee 37201  	clear sky	19 -7	19 -7	0		16 -9	86	30.29	3
Mon Feb  1 15:36:28 2010	San Francisco, California 94101  	mostly cloudy	46 8	46 8	0		45 7	93	29.95	10
Mon Feb  1 15:36:29 2010	Portland, Oregon 97201  	clear sky	28 -2	15 -9	18-22	W	12-Oct	46	30.14	10
Mon Feb  1 15:36:29 2010	Fort Worth, Texas 76101  	mostly cloudy	30 -1	25 -4	5	S	28 -2	93	30.11	2
Mon Feb  1 15:36:29 2010	Phoenix, Arizona 85001  	clear sky	50 10	48 9	6	E	43 6	76	29.94	10
Mon Feb  1 15:36:30 2010	Indianapolis, Indiana 46201  	clear sky	19 -7	11-Dec	5	SE	11-Dec	73	30.3	10
Mon Feb  1 15:36:30 2010	Chicago, Illinois 60601  	mostly cloudy	21 -6	21 -6	0		12-Oct	62	30.3	10
Mon Feb  1 15:36:30 2010	San Antonio, Texas 78201  	mostly cloudy	37 3	37 3	0		36 2	93	30.11	1.2
Mon Feb  1 15:36:31 2010	Jacksonville, Florida 32099  	mostly cloudy	52 11	47 8	14	NE	46 8	82	30.23	10
Mon Feb  1 15:36:31 2010	Columbus, Ohio 43085  	clear sky	14 -10	14 -10	0		12-Oct	85	30.31	6
Mon Feb  1 15:36:32 2010	Dallas, Texas 75201  	mostly cloudy	34 1	29 -2	6	SE	30 -1	86	30.12	5
Mon Feb  1 15:36:32 2010	Houston, Texas 77001  	mostly cloudy	41 5	37 3	6	NE	36 2	81	30.14	8
Mon Feb  1 15:36:32 2010	Milwaukee, Wisconsin 53201  	mostly cloudy	16 -9	12-Nov	3	NW	14-Jul	67	30.3	8
Mon Feb  1 15:36:32 2010	Seattle, Washington 98101  	clear sky	39 4	39 4	0		37 3	93	29.9	10
Mon Feb  1 15:36:33 2010	Philadelphia, Pennsylvania 19019  	clear sky	25 -4	17 -8	7	W	12-Oct	54	30.35	10
Mon Feb  1 15:36:33 2010	Detroit, Michigan 48201  	clear sky	14 -10	13-Sep	3	W	13-Sep	79	30.32	9
Mon Feb  1 16:21:01 2010	Charlotte, North Carolina 28201  	clear sky	28 -2	25 -4	3	NE	27 -3	93	30.36	4
Mon Feb  1 16:21:01 2010	San Jose, California 95101  	mostly cloudy	43 6	40 4	5	SE	41 5	93	29.95	10
Mon Feb  1 16:21:02 2010	Denver, Colorado 80214  	clear sky	25 -4	17 -8	7	S	13-Sep	49	29.82	10
Mon Feb  1 16:21:02 2010	Memphis, Tennessee 37501  	mostly cloudy	28 -2	28 -2	0		25 -4	86	30.26	9
Mon Feb  1 16:21:02 2010	San Diego, California 92101  	mostly cloudy	52 11	52 11	0		46 8	82	29.97	5
Mon Feb  1 16:21:03 2010	New York, New York 10001  	clear sky	27 -3	19 -7	7	N	12-Oct	50	30.29	10
Mon Feb  1 16:21:03 2010	El Paso, Texas 79901  	mostly cloudy	41 5	37 3	6	SE	37 3	87	29.98	10
Mon Feb  1 16:21:03 2010	Los Angeles, California 90001  	clear sky	52 11	52 11	0		45 7	76	29.95	8
Mon Feb  1 16:21:04 2010	Washington, Washington D. C. 20001  	mostly cloudy	28 -2	19 -7	20-Oct	N	11-Dec	50	30.38	10
Mon Feb  1 16:21:04 2010	Las Vegas, Nevada 89101  	clear sky	39 4	35 2	5	SW	34 1	81	29.98	10
Mon Feb  1 16:21:04 2010	Baltimore, Maryland 21201  	normal	30 -1	30 -1			11-Dec	47	30.37	
Mon Feb  1 16:21:05 2010	Oklahoma City, Oklahoma 73101  	mostly cloudy	28 -2	17 -8	14	S	28 -2	100	30.06	2.5
Mon Feb  1 16:21:05 2010	Austin, Texas 73301  	mostly cloudy	37 3	35 2	3	E	34 1	87	30.14	2
Mon Feb  1 16:21:05 2010	San Francisco, California 94101  	mostly cloudy	46 8	44 7	5	S	45 7	93	29.95	10
Mon Feb  1 16:21:06 2010	Fort Worth, Texas 76101  	mostly cloudy	30 -1	25 -4	5	S	28 -2	93	30.1	2
Mon Feb  1 16:21:06 2010	Phoenix, Arizona 85001  	clear sky	48 9	46 8	5	E	41 5	76	29.96	10
Mon Feb  1 16:21:06 2010	Nashville, Tennessee 37201  	mostly cloudy	19 -7	19 -7	0		18 -8	93	30.31	4
Mon Feb  1 16:21:07 2010	Portland, Oregon 97201  	clear sky	30 -1	18 -8	18-29	W	11-Dec	47	30.16	10
Mon Feb  1 16:21:07 2010	San Antonio, Texas 78201  	mostly cloudy	37 3	35 2	3	N	36 2	93	30.12	1.2
Mon Feb  1 16:21:07 2010	Chicago, Illinois 60601  	mostly cloudy	23 -5	23 -5	0		11-Dec	63	30.32	10
Mon Feb  1 16:21:08 2010	Jacksonville, Florida 32099  	mostly cloudy	54 12	50 10	12	NE	46 8	77	30.24	10
Mon Feb  1 16:21:08 2010	Indianapolis, Indiana 46201  	mostly cloudy	21 -6	21 -6	0		16 -9	79	30.31	10
Mon Feb  1 16:21:09 2010	Dallas, Texas 75201  	mostly cloudy	36 2	30 -1	7	SE	30 -1	80	30.12	5
Mon Feb  1 16:21:09 2010	Houston, Texas 77001  	mostly cloudy	43 6	38 3	8	E	36 2	75	30.13	6
Mon Feb  1 16:21:09 2010	Columbus, Ohio 43085  	clear sky	19 -7	19 -7	0		16 -9	86	30.34	6
Mon Feb  1 16:21:10 2010	Milwaukee, Wisconsin 53201  	mostly cloudy	16 -9	12-Nov	3	N	14-Jul	67	30.32	8
Mon Feb  1 16:21:10 2010	Detroit, Michigan 48201  	clear sky	16 -9	16 -9	0		12-Oct	79	30.32	9
Mon Feb  1 16:21:10 2010	Seattle, Washington 98101  	clear sky	39 4	39 4	0		36 2	87	29.91	10
Mon Feb  1 16:21:11 2010	Philadelphia, Pennsylvania 19019  	clear sky	28 -2	19 -7	9	W	11-Dec	50	30.35	10
Mon Feb  1 17:05:54 2010	San Jose, California 95101  	mostly cloudy	45 7	42 6	6	SE	43 6	93	29.95	10
Mon Feb  1 17:05:54 2010	Charlotte, North Carolina 28201  	clear sky	34 1	34 1	0		28 -2	80	30.36	10
Mon Feb  1 17:05:55 2010	Memphis, Tennessee 37501  	mostly cloudy	32 0	29 -2	3	E	27 -3	80	30.27	10
Mon Feb  1 17:05:55 2010	Denver, Colorado 80214  	clear sky	28 -2	21 -6	6	W	13-Sep	43	29.84	10
Mon Feb  1 17:05:55 2010	San Diego, California 92101  	mostly cloudy	54 12	54 12	0		48 9	82	29.97	3
Mon Feb  1 17:05:56 2010	New York, New York 10001  	clear sky	28 -2	17 -8	14-18	W	12-Oct	46	30.3	10
Mon Feb  1 17:05:56 2010	El Paso, Texas 79901  	mostly cloudy	45 7	44 7	3	SE	39 4	81	30	10
Mon Feb  1 17:05:56 2010	Los Angeles, California 90001  	clear sky	52 11	52 11	0		43 6	71	29.95	9
Mon Feb  1 17:05:57 2010	Washington, Washington D. C. 20001  	mostly cloudy	30 -1	23 -5	7	NW	11-Dec	47	30.39	10
Mon Feb  1 17:05:57 2010	Las Vegas, Nevada 89101  	clear sky	39 4	37 3	3	SW	32 0	75	29.98	10
Mon Feb  1 17:05:57 2010	Baltimore, Maryland 21201  	normal	30 -1	30 -1			11-Dec	47	30.35	
Mon Feb  1 17:05:58 2010	Oklahoma City, Oklahoma 73101  	mostly cloudy	28 -2	17 -8	14	S	28 -2	100	30.06	2.5
Mon Feb  1 17:05:58 2010	Austin, Texas 73301  	mostly cloudy	37 3	35 2	3	E	36 2	93	30.14	2
Mon Feb  1 17:05:58 2010	San Francisco, California 94101  	mostly cloudy	48 9	48 9	0		45 7	87	29.96	10
Mon Feb  1 17:05:59 2010	Fort Worth, Texas 76101  	mostly cloudy	32 0	26 -3	6	S	30 -1	93	30.13	2
Mon Feb  1 17:05:59 2010	Phoenix, Arizona 85001  	mostly cloudy	48 9	45 7	6	E	41 5	76	29.96	10
Mon Feb  1 17:05:59 2010	Nashville, Tennessee 37201  	mostly cloudy	25 -4	25 -4	0		23 -5	93	30.32	4
Mon Feb  1 17:06:00 2010	Portland, Oregon 97201  	clear sky	30 -1	18 -8	18-26	W	12-Oct	43	30.17	10
Mon Feb  1 17:06:00 2010	San Antonio, Texas 78201  	mostly cloudy	37 3	33 1	5	NE	37 3	100	30.13	1.2
Mon Feb  1 17:06:00 2010	Chicago, Illinois 60601  	mostly cloudy	25 -4	25 -4	0		11-Dec	58	30.32	8
Mon Feb  1 17:06:01 2010	Indianapolis, Indiana 46201  	mostly cloudy	25 -4	21 -6	3	S	16 -9	68	30.31	10
Mon Feb  1 17:06:01 2010	Jacksonville, Florida 32099  	mostly cloudy	55 13	51 11	13	NE	48 9	77	30.25	10
Mon Feb  1 17:06:02 2010	Columbus, Ohio 43085  	clear sky	21 -6	14 -10	5	SE	16 -9	79	30.34	6
Mon Feb  1 17:06:02 2010	Dallas, Texas 75201  	mostly cloudy	36 2	34 1	3	S	30 -1	80	30.14	5
Mon Feb  1 17:06:02 2010	Houston, Texas 77001  	light rain	45 7	41 5	7	NE	37 3	76	30.15	5
Mon Feb  1 17:06:03 2010	Detroit, Michigan 48201  	clear sky	21 -6	11-Dec	7	W	11-Dec	68	30.33	10
Mon Feb  1 17:06:03 2010	Milwaukee, Wisconsin 53201  	mostly cloudy	19 -7	19 -7	0		13-Sep	62	30.31	6
Mon Feb  1 17:06:03 2010	Seattle, Washington 98101  	clear sky	39 4	39 4	0		37 3	93	29.91	10
Mon Feb  1 17:06:04 2010	Philadelphia, Pennsylvania 19019  	clear sky	30 -1	20 -7	13-21	NW	12-Oct	43	30.34	10
Mon Feb  1 17:49:36 2010	San Jose, California 95101  	mostly cloudy	45 7	45 7	0		43 6	93	29.96	10
Mon Feb  1 17:49:37 2010	Charlotte, North Carolina 28201  	clear sky	39 4	37 3	3	SE	28 -2	65	30.36	10
Mon Feb  1 17:49:37 2010	San Diego, California 92101  	mostly cloudy	54 12	54 12	0		48 9	82	29.99	4
Mon Feb  1 17:49:38 2010	Memphis, Tennessee 37501  	mostly cloudy	37 3	32 0	7	SE	28 -2	70	30.26	10
Mon Feb  1 17:49:38 2010	Denver, Colorado 80214  	clear sky	36 2	32 0	5	W	14-Jul	29	29.84	10
Mon Feb  1 17:49:38 2010	Los Angeles, California 90001  	clear sky	52 11	52 11	0		45 7	76	29.97	7
Mon Feb  1 17:49:40 2010	El Paso, Texas 79901  	mostly cloudy	48 9	48 9	0		39 4	71	30.01	10
Mon Feb  1 17:49:41 2010	New York, New York 10001  	clear sky	28 -2	18 -8	18-Dec	W	13-Sep	43	30.28	10
Mon Feb  1 17:49:41 2010	Baltimore, Maryland 21201  	normal	34 1	34 1			11-Dec	40	30.35	
Mon Feb  1 17:49:41 2010	Las Vegas, Nevada 89101  	clear sky	43 6	43 6	0		32 0	65	30	10
Mon Feb  1 17:49:42 2010	Washington, Washington D. C. 20001  	mostly cloudy	32 0	24 -4	10	N	11-Dec	43	30.38	10
Mon Feb  1 17:49:42 2010	Austin, Texas 73301  	mostly cloudy	37 3	37 3	0		36 2	93	30.15	2
Mon Feb  1 17:49:43 2010	Oklahoma City, Oklahoma 73101  	mostly cloudy	30 -1	22 -6	9	S	28 -2	93	30.05	2.5
Mon Feb  1 17:49:43 2010	San Francisco, California 94101  	mostly cloudy	52 11	52 11	0		46 8	82	29.96	10
Mon Feb  1 17:49:44 2010	Fort Worth, Texas 76101  	mostly cloudy	34 1	28 -2	7	S	30 -1	86	30.12	5
Mon Feb  1 17:49:44 2010	Nashville, Tennessee 37201  	mostly cloudy	28 -2	28 -2	0		25 -4	86	30.3	5
Mon Feb  1 17:49:45 2010	Portland, Oregon 97201  	clear sky	32 0	20 -7	20-32	W	12-Oct	40	30.17	10
Mon Feb  1 17:49:45 2010	Chicago, Illinois 60601  	mostly cloudy	25 -4	21 -6	3	S	11-Dec	58	30.31	9
Mon Feb  1 17:49:45 2010	Phoenix, Arizona 85001  	mostly cloudy	52 11	50 10	6	E	41 5	66	29.98	10
Mon Feb  1 17:49:46 2010	Indianapolis, Indiana 46201  	mostly cloudy	27 -3	20 -7	6	SE	16 -9	63	30.31	10
Mon Feb  1 17:49:46 2010	San Antonio, Texas 78201  	mostly cloudy	39 4	35 2	5	E	37 3	93	30.14	1.2
Mon Feb  1 17:49:47 2010	Columbus, Ohio 43085  	clear sky	25 -4	19 -7	5	S	16 -9	68	30.33	6
Mon Feb  1 17:49:47 2010	Jacksonville, Florida 32099  	mostly cloudy	57 14	54 12	12	NE	48 9	72	30.24	10
Mon Feb  1 17:49:48 2010	Dallas, Texas 75201  	clear sky	41 5	36 2	7	S	34 1	75	30.13	6
Mon Feb  1 17:49:48 2010	Houston, Texas 77001  	light rain	45 7	42 6	5	E	39 4	81	30.18	5
Mon Feb  1 17:49:50 2010	Detroit, Michigan 48201  	clear sky	23 -5	14 -10	8	W	12-Oct	58	30.34	10
Mon Feb  1 17:49:50 2010	Milwaukee, Wisconsin 53201  	mostly cloudy	21 -6	21 -6	0		12-Oct	62	30.31	6
Mon Feb  1 17:49:50 2010	Seattle, Washington 98101  	mostly cloudy	39 4	39 4	0		37 3	93	29.9	10
Mon Feb  1 17:49:51 2010	Philadelphia, Pennsylvania 19019  	clear sky	30 -1	19 -7	16-21	W	12-Oct	43	30.33	10
Mon Feb  1 18:33:03 2010	San Jose, California 95101  	mostly cloudy	45 7	45 7	0		43 6	93	29.96	10
Mon Feb  1 18:33:04 2010	Charlotte, North Carolina 28201  	clear sky	39 4	37 3	3	SE	28 -2	65	30.36	10
Mon Feb  1 18:33:04 2010	Denver, Colorado 80214  	clear sky	36 2	32 0	5	W	14-Jul	29	29.84	10
Mon Feb  1 18:33:04 2010	San Diego, California 92101  	mostly cloudy	54 12	54 12	0		48 9	82	29.99	4
Mon Feb  1 18:33:05 2010	Memphis, Tennessee 37501  	mostly cloudy	37 3	32 0	7	SE	28 -2	70	30.26	10
Mon Feb  1 18:33:05 2010	El Paso, Texas 79901  	mostly cloudy	48 9	48 9	0		39 4	71	30.01	10
Mon Feb  1 18:33:05 2010	Los Angeles, California 90001  	clear sky	52 11	52 11	0		45 7	76	29.97	7
Mon Feb  1 18:33:06 2010	New York, New York 10001  	clear sky	28 -2	18 -8	18-Dec	W	13-Sep	43	30.28	10
Mon Feb  1 18:33:06 2010	Baltimore, Maryland 21201  	normal	34 1	34 1			11-Dec	40	30.35	
Mon Feb  1 18:33:06 2010	Las Vegas, Nevada 89101  	clear sky	43 6	43 6	0		32 0	65	30	10
Mon Feb  1 18:33:07 2010	Washington, Washington D. C. 20001  	mostly cloudy	32 0	24 -4	10	N	11-Dec	43	30.38	10
Mon Feb  1 18:33:07 2010	Austin, Texas 73301  	mostly cloudy	37 3	37 3	0		36 2	93	30.15	2
Mon Feb  1 18:33:08 2010	Oklahoma City, Oklahoma 73101  	mostly cloudy	30 -1	22 -6	9	S	28 -2	93	30.05	2.5
Mon Feb  1 18:33:08 2010	Nashville, Tennessee 37201  	mostly cloudy	28 -2	28 -2	0		25 -4	86	30.3	5
Mon Feb  1 18:33:08 2010	San Francisco, California 94101  	mostly cloudy	52 11	52 11	0		46 8	82	29.96	10
Mon Feb  1 18:33:09 2010	Portland, Oregon 97201  	clear sky	32 0	20 -7	20-32	W	12-Oct	40	30.17	10
Mon Feb  1 18:33:09 2010	Fort Worth, Texas 76101  	mostly cloudy	34 1	28 -2	7	S	30 -1	86	30.12	5
Mon Feb  1 18:33:09 2010	Phoenix, Arizona 85001  	mostly cloudy	52 11	50 10	6	E	41 5	66	29.98	10
Mon Feb  1 18:33:10 2010	Chicago, Illinois 60601  	mostly cloudy	25 -4	21 -6	3	S	11-Dec	58	30.31	9
Mon Feb  1 18:33:10 2010	Indianapolis, Indiana 46201  	mostly cloudy	27 -3	20 -7	6	SE	16 -9	63	30.31	10
Mon Feb  1 18:33:10 2010	San Antonio, Texas 78201  	mostly cloudy	39 4	35 2	5	E	37 3	93	30.14	1.2
Mon Feb  1 18:33:11 2010	Columbus, Ohio 43085  	clear sky	25 -4	19 -7	5	S	16 -9	68	30.33	6
Mon Feb  1 18:33:11 2010	Jacksonville, Florida 32099  	mostly cloudy	57 14	54 12	12	NE	48 9	72	30.24	10
Mon Feb  1 18:33:12 2010	Dallas, Texas 75201  	clear sky	41 5	36 2	7	S	34 1	75	30.13	6
Mon Feb  1 18:33:12 2010	Houston, Texas 77001  	light rain	45 7	42 6	5	E	39 4	81	30.18	5
Mon Feb  1 18:33:12 2010	Seattle, Washington 98101  	mostly cloudy	39 4	39 4	0		37 3	93	29.9	10
Mon Feb  1 18:33:13 2010	Detroit, Michigan 48201  	clear sky	23 -5	14 -10	8	W	12-Oct	58	30.34	10
Mon Feb  1 18:33:13 2010	Philadelphia, Pennsylvania 19019  	clear sky	30 -1	19 -7	16-21	W	12-Oct	43	30.33	10
Mon Feb  1 18:33:13 2010	Milwaukee, Wisconsin 53201  	mostly cloudy	21 -6	21 -6	0		12-Oct	62	30.31	6
Mon Feb  1 19:16:56 2010	Charlotte, North Carolina 28201  	clear sky	41 5	41 5	0		28 -2	61	30.35	10
Mon Feb  1 19:16:56 2010	San Jose, California 95101  	mostly cloudy	48 9	48 9	0		45 7	87	29.96	10
Mon Feb  1 19:16:57 2010	Denver, Colorado 80214  	clear sky	39 4	33 1	9	S	15-May	23	29.85	10
Mon Feb  1 19:16:57 2010	San Diego, California 92101  	mostly cloudy	57 14	57 14	3	N	50 10	77	29.99	6
Mon Feb  1 19:16:57 2010	Memphis, Tennessee 37501  	mostly cloudy	39 4	39 4	0		28 -2	65	30.24	10
Mon Feb  1 19:16:58 2010	New York, New York 10001  	clear sky	32 0	24 -4	17-Sep	W	12-Oct	40	30.25	10
Mon Feb  1 19:16:58 2010	El Paso, Texas 79901  	mostly cloudy	52 11	51 11	5	SE	39 4	62	30.02	10
Mon Feb  1 19:16:58 2010	Los Angeles, California 90001  	clear sky	57 14	57 14	0		45 7	63	29.96	7
Mon Feb  1 19:16:59 2010	Washington, Washington D. C. 20001  	mostly cloudy	34 1	29 -2	5	NW	11-Dec	40	30.38	10
Mon Feb  1 19:16:59 2010	Baltimore, Maryland 21201  	normal	34 1	34 1			11-Dec	40	30.33	
Mon Feb  1 19:16:59 2010	Las Vegas, Nevada 89101  	clear sky	46 8	46 8	0		30 -1	53	30.01	10
Mon Feb  1 19:17:00 2010	Austin, Texas 73301  	mostly cloudy	39 4	37 3	3	NE	36 2	87	30.14	1.2
Mon Feb  1 19:17:00 2010	San Francisco, California 94101  	mostly cloudy	52 11	49 9	8	E	48 9	87	29.95	10
Mon Feb  1 19:17:01 2010	Nashville, Tennessee 37201  	mostly cloudy	34 1	32 0	3	S	25 -4	69	30.3	10
Mon Feb  1 19:17:01 2010	Oklahoma City, Oklahoma 73101  	mostly cloudy	30 -1	23 -5	7	S	28 -2	93	30.06	2.5
Mon Feb  1 19:17:01 2010	Fort Worth, Texas 76101  	mostly cloudy	36 2	30 -1	7	S	32 0	87	30.11	3
Mon Feb  1 19:17:02 2010	Portland, Oregon 97201  	clear sky	34 1	22 -6	22-33	W	11-Dec	40	30.15	10
Mon Feb  1 19:17:02 2010	Phoenix, Arizona 85001  	mostly cloudy	55 13	53 12	8	E	41 5	58	29.99	10
Mon Feb  1 19:17:02 2010	Chicago, Illinois 60601  	mostly cloudy	27 -3	27 -3	0		11-Dec	54	30.3	8
Mon Feb  1 19:17:03 2010	Indianapolis, Indiana 46201  	mostly cloudy	28 -2	22 -6	5	S	16 -9	59	30.29	10
Mon Feb  1 19:17:03 2010	San Antonio, Texas 78201  	mostly cloudy	41 5	38 3	5	NE	39 4	93	30.12	1.5
Mon Feb  1 19:17:04 2010	Columbus, Ohio 43085  	clear sky	27 -3	21 -6	5	S	16 -9	63	30.33	7
Mon Feb  1 19:17:04 2010	Dallas, Texas 75201  	mostly cloudy	45 7	40 4	10	S	34 1	66	30.12	9
Mon Feb  1 19:17:04 2010	Jacksonville, Florida 32099  	mostly cloudy	57 14	54 12	12	NE	48 9	72	30.22	10
Mon Feb  1 19:17:05 2010	Houston, Texas 77001  	light rain	45 7	41 5	7	E	43 6	93	30.15	4
Mon Feb  1 19:17:05 2010	Milwaukee, Wisconsin 53201  	mostly cloudy	23 -5	23 -5	0		13-Sep	53	30.3	7
Mon Feb  1 19:17:05 2010	Seattle, Washington 98101  	clear sky	43 6	43 6	0		39 4	87	29.89	10
Mon Feb  1 19:17:06 2010	Detroit, Michigan 48201  	mostly cloudy	25 -4	16 -9	9	W	12-Oct	54	30.33	10
Mon Feb  1 19:17:06 2010	Philadelphia, Pennsylvania 19019  	clear sky	34 1	27 -3	21-Sep	W	12-Oct	37	30.31	10
Mon Feb  1 20:01:45 2010	San Jose, California 95101  	mostly cloudy	52 11	51 11	5	SE	45 7	76	29.95	10
Mon Feb  1 20:01:45 2010	Charlotte, North Carolina 28201  	clear sky	45 7	45 7	0		27 -3	49	30.32	10
Mon Feb  1 20:01:46 2010	Denver, Colorado 80214  	clear sky	41 5	36 2	20-Aug	W	16-Mar	20	29.84	10
Mon Feb  1 20:01:46 2010	Memphis, Tennessee 37501  	mostly cloudy	45 7	42 6	6	SE	30 -1	57	30.2	10
Mon Feb  1 20:01:46 2010	San Diego, California 92101  	mostly cloudy	57 14	56 13	5	N	48 9	72	30	7
Mon Feb  1 20:01:47 2010	New York, New York 10001  	clear sky	34 1	25 -4	17-Dec	W	13-Sep	34	30.24	10
Mon Feb  1 20:01:47 2010	El Paso, Texas 79901  	clear sky	55 13	55 13	0		37 3	51	30.01	10
Mon Feb  1 20:01:47 2010	Los Angeles, California 90001  	clear sky	61 16	61 16	0		45 7	55	29.97	6
Mon Feb  1 20:01:48 2010	Washington, Washington D. C. 20001  	mostly cloudy	36 2	27 -3	14	W	11-Dec	37	30.36	10
Mon Feb  1 20:01:48 2010	Baltimore, Maryland 21201  	normal	36 2	36 2			14 -10	41	30.33	
Mon Feb  1 20:01:48 2010	Las Vegas, Nevada 89101  	clear sky	48 9	48 9	0		30 -1	50	30.01	10
Mon Feb  1 20:01:49 2010	Oklahoma City, Oklahoma 73101  	mostly cloudy	30 -1	22 -6	8	S	30 -1	100	30.05	1.5
Mon Feb  1 20:01:49 2010	San Francisco, California 94101  	mostly cloudy	52 11	51 11	5	E	46 8	82	29.96	10
Mon Feb  1 20:01:49 2010	Austin, Texas 73301  	light rain	39 4	39 4	0		37 3	93	30.13	1.2
Mon Feb  1 20:01:50 2010	Nashville, Tennessee 37201  	mostly cloudy	37 3	35 2	3	S	25 -4	60	30.28	10
Mon Feb  1 20:01:50 2010	Fort Worth, Texas 76101  	mostly cloudy	37 3	30 -1	9	SW	34 1	87	30.1	6
Mon Feb  1 20:01:50 2010	Phoenix, Arizona 85001  	mostly cloudy	57 14	56 13	7	E	39 4	51	30	10
Mon Feb  1 20:01:51 2010	Portland, Oregon 97201  	clear sky	34 1	23 -5	20-31	NW	12-Oct	37	30.13	10
Mon Feb  1 20:01:51 2010	Chicago, Illinois 60601  	mostly cloudy	27 -3	27 -3	0		11-Dec	54	30.27	8
Mon Feb  1 20:01:51 2010	San Antonio, Texas 78201  	mostly cloudy	43 6	43 6	0		41 5	93	30.11	1.7
Mon Feb  1 20:01:52 2010	Jacksonville, Florida 32099  	mostly cloudy	59 15	56 13	14	NE	50 10	72	30.2	10
Mon Feb  1 20:01:52 2010	Indianapolis, Indiana 46201  	mostly cloudy	30 -1	30 -1	0		16 -9	55	30.26	10
Mon Feb  1 20:01:53 2010	Columbus, Ohio 43085  	clear sky	28 -2	21 -6	6	N	18 -8	63	30.31	8
Mon Feb  1 20:01:53 2010	Dallas, Texas 75201  	mostly cloudy	46 8	41 5	9	S	36 2	66	30.1	8
Mon Feb  1 20:01:53 2010	Houston, Texas 77001  	light rain	46 8	44 7	5	E	43 6	87	30.13	4
Mon Feb  1 20:01:54 2010	Detroit, Michigan 48201  	mostly cloudy	27 -3	19 -7	7	W	12-Oct	50	30.3	10
Mon Feb  1 20:01:54 2010	Milwaukee, Wisconsin 53201  	mostly cloudy	25 -4	25 -4	0		13-Sep	49	30.27	9
Mon Feb  1 20:01:54 2010	Seattle, Washington 98101  	clear sky	45 7	45 7	0		41 5	87	29.89	10
Mon Feb  1 20:01:55 2010	Philadelphia, Pennsylvania 19019  	clear sky	34 1	27 -3	18-Aug	W	12-Oct	37	30.27	10
Mon Feb  1 20:48:40 2010	Charlotte, North Carolina 28201  	clear sky	46 8	45 7	3	N	25 -4	42	30.29	10
Mon Feb  1 20:48:40 2010	San Jose, California 95101  	mostly cloudy	57 14	57 14	0		45 7	63	29.95	10
Mon Feb  1 20:48:41 2010	San Diego, California 92101  	mostly cloudy	61 16	61 16	3	NE	48 9	63	29.97	10
Mon Feb  1 20:48:41 2010	Denver, Colorado 80214  	clear sky	43 6	37 3	20-Oct	N	15-May	20	29.83	10
Mon Feb  1 20:48:42 2010	Los Angeles, California 90001  	clear sky	63 17	63 17	0		46 8	55	29.96	5
Mon Feb  1 20:48:42 2010	Memphis, Tennessee 37501  	mostly cloudy	46 8	46 8	0		30 -1	53	30.17	10
Mon Feb  1 20:48:43 2010	El Paso, Texas 79901  	clear sky	61 16	59 15	13-18	W	28 -2	29	29.98	10
Mon Feb  1 20:48:43 2010	New York, New York 10001  	clear sky	34 1	28 -2	7	W	13-Sep	34	30.21	10
Mon Feb  1 20:48:44 2010	Washington, Washington D. C. 20001  	mostly cloudy	37 3	31 -1	8	W	11-Dec	35	30.32	10
Mon Feb  1 20:48:44 2010	Las Vegas, Nevada 89101  	clear sky	54 12	54 12	3	N	28 -2	38	30	10
Mon Feb  1 20:48:44 2010	Baltimore, Maryland 21201  	normal	36 2	36 2			14 -10	41	30.31	
Mon Feb  1 20:48:45 2010	Oklahoma City, Oklahoma 73101  	mostly cloudy	30 -1	19 -7	14	SW	28 -2	93	30.03	1.5
Mon Feb  1 20:48:45 2010	Austin, Texas 73301  	mostly cloudy	43 6	43 6	0		39 4	87	30.07	3
Mon Feb  1 20:48:45 2010	San Francisco, California 94101  	mostly cloudy	54 12	54 12	0		48 9	82	29.96	10
Mon Feb  1 20:48:46 2010	Nashville, Tennessee 37201  	mostly cloudy	41 5	41 5	0		25 -4	52	30.23	10
Mon Feb  1 20:48:47 2010	Fort Worth, Texas 76101  	mostly cloudy	39 4	33 1	8	SW	34 1	81	30.06	9
Mon Feb  1 20:48:48 2010	Portland, Oregon 97201  	clear sky	34 1	23 -5	17-29	W	11-Dec	40	30.12	10
Mon Feb  1 20:48:48 2010	Phoenix, Arizona 85001  	mostly cloudy	61 16	61 16	5	E	43 6	51	29.98	10
Mon Feb  1 20:48:48 2010	Chicago, Illinois 60601  	mostly cloudy	28 -2	28 -2	0		14 -10	54	30.24	7
Mon Feb  1 20:48:49 2010	Indianapolis, Indiana 46201  	mostly cloudy	34 1	29 -2	5	S	16 -9	47	30.22	10
Mon Feb  1 20:48:49 2010	San Antonio, Texas 78201  	mostly cloudy	43 6	43 6	0		41 5	93	30.07	1.7
Mon Feb  1 20:48:50 2010	Jacksonville, Florida 32099  	mostly cloudy	59 15	56 13	16-24	NE	50 10	72	30.17	10
Mon Feb  1 20:48:50 2010	Columbus, Ohio 43085  	clear sky	32 0	32 0	0		16 -9	51	30.27	10
Mon Feb  1 20:48:51 2010	Dallas, Texas 75201  	mostly cloudy	46 8	43 6	6	SW	36 2	66	30.06	10
Mon Feb  1 20:48:51 2010	Houston, Texas 77001  	light rain	46 8	43 6	6	E	45 7	93	30.09	3
Mon Feb  1 20:48:52 2010	Seattle, Washington 98101  	mostly cloudy	46 8	46 8	0		41 5	81	29.9	10
Mon Feb  1 20:48:53 2010	Detroit, Michigan 48201  	clear sky	27 -3	19 -7	8	W	11-Dec	54	30.27	10
Mon Feb  1 20:48:53 2010	Milwaukee, Wisconsin 53201  	mostly cloudy	25 -4	25 -4	0		13-Sep	49	30.24	10
Mon Feb  1 20:48:54 2010	Philadelphia, Pennsylvania 19019  	clear sky	36 2	29 -2	10	W	12-Oct	35	30.27	10
Mon Feb  1 21:33:07 2010	Charlotte, North Carolina 28201  	clear sky	46 8	45 7	3	N	25 -4	42	30.29	10
Mon Feb  1 21:33:07 2010	San Jose, California 95101  	mostly cloudy	57 14	57 14	0		45 7	63	29.95	10
Mon Feb  1 21:33:08 2010	San Diego, California 92101  	mostly cloudy	61 16	61 16	3	NE	48 9	63	29.97	10
Mon Feb  1 21:33:08 2010	Denver, Colorado 80214  	clear sky	43 6	37 3	20-Oct	N	15-May	20	29.83	10
Mon Feb  1 21:33:08 2010	Memphis, Tennessee 37501  	mostly cloudy	46 8	46 8	0		30 -1	53	30.17	10
Mon Feb  1 21:33:09 2010	El Paso, Texas 79901  	clear sky	61 16	59 15	13-18	W	28 -2	29	29.98	10
Mon Feb  1 21:33:09 2010	New York, New York 10001  	clear sky	34 1	28 -2	7	W	13-Sep	34	30.21	10
Mon Feb  1 21:33:09 2010	Los Angeles, California 90001  	clear sky	63 17	63 17	0		46 8	55	29.96	5
Mon Feb  1 21:33:10 2010	Washington, Washington D. C. 20001  	mostly cloudy	37 3	31 -1	8	W	11-Dec	35	30.32	10
Mon Feb  1 21:33:10 2010	Las Vegas, Nevada 89101  	clear sky	54 12	54 12	3	N	28 -2	38	30	10
Mon Feb  1 21:33:10 2010	Baltimore, Maryland 21201  	normal	36 2	36 2			14 -10	41	30.31	
Mon Feb  1 21:33:11 2010	Oklahoma City, Oklahoma 73101  	mostly cloudy	30 -1	19 -7	14	SW	28 -2	93	30.03	1.5
Mon Feb  1 21:33:11 2010	Austin, Texas 73301  	mostly cloudy	43 6	43 6	0		39 4	87	30.07	3
Mon Feb  1 21:33:11 2010	San Francisco, California 94101  	mostly cloudy	54 12	54 12	0		48 9	82	29.96	10
Mon Feb  1 21:33:12 2010	Fort Worth, Texas 76101  	mostly cloudy	39 4	33 1	8	SW	34 1	81	30.06	9
Mon Feb  1 21:33:12 2010	Phoenix, Arizona 85001  	mostly cloudy	61 16	61 16	5	E	43 6	51	29.98	10
Mon Feb  1 21:33:12 2010	Nashville, Tennessee 37201  	mostly cloudy	41 5	41 5	0		25 -4	52	30.23	10
Mon Feb  1 21:33:13 2010	Portland, Oregon 97201  	clear sky	34 1	23 -5	17-29	W	11-Dec	40	30.12	10
Mon Feb  1 21:33:13 2010	Chicago, Illinois 60601  	mostly cloudy	28 -2	28 -2	0		14 -10	54	30.24	7
Mon Feb  1 21:33:13 2010	San Antonio, Texas 78201  	mostly cloudy	43 6	43 6	0		41 5	93	30.07	1.7
Mon Feb  1 21:33:14 2010	Indianapolis, Indiana 46201  	mostly cloudy	34 1	29 -2	5	S	16 -9	47	30.22	10
Mon Feb  1 21:33:14 2010	Jacksonville, Florida 32099  	mostly cloudy	59 15	56 13	16-24	NE	50 10	72	30.17	10
Mon Feb  1 21:33:15 2010	Dallas, Texas 75201  	mostly cloudy	46 8	43 6	6	SW	36 2	66	30.06	10
Mon Feb  1 21:33:15 2010	Houston, Texas 77001  	light rain	46 8	43 6	6	E	45 7	93	30.09	3
Mon Feb  1 21:33:15 2010	Columbus, Ohio 43085  	clear sky	32 0	32 0	0		16 -9	51	30.27	10
Mon Feb  1 21:33:16 2010	Detroit, Michigan 48201  	clear sky	27 -3	19 -7	8	W	11-Dec	54	30.27	10
Mon Feb  1 21:33:16 2010	Milwaukee, Wisconsin 53201  	mostly cloudy	25 -4	25 -4	0		13-Sep	49	30.24	10
Mon Feb  1 21:33:16 2010	Seattle, Washington 98101  	mostly cloudy	46 8	46 8	0		41 5	81	29.9	10
Mon Feb  1 21:33:17 2010	Philadelphia, Pennsylvania 19019  	clear sky	36 2	29 -2	10	W	12-Oct	35	30.27	10
Mon Feb  1 22:16:31 2010	San Jose, California 95101  	mostly cloudy	61 16	61 16	3	NE	45 7	55	29.93	10
Mon Feb  1 22:16:32 2010	Charlotte, North Carolina 28201  	clear sky	46 8	44 7	5	E	21 -6	36	30.26	10
Mon Feb  1 22:16:32 2010	Denver, Colorado 80214  	clear sky	45 7	42 6	17-Jun	W	16-Mar	18	29.82	10
Mon Feb  1 22:16:32 2010	San Diego, California 92101  	mostly cloudy	61 16	61 16	5	N	48 9	63	29.95	8
Mon Feb  1 22:16:33 2010	Memphis, Tennessee 37501  	mostly cloudy	46 8	44 7	5	SE	28 -2	49	30.15	10
Mon Feb  1 22:16:33 2010	El Paso, Texas 79901  	clear sky	61 16	59 15	13-18	W	32 0	34	29.95	10
Mon Feb  1 22:16:33 2010	Los Angeles, California 90001  	clear sky	64 18	64 18	0		45 7	49	29.93	6
Mon Feb  1 22:16:34 2010	Las Vegas, Nevada 89101  	clear sky	55 13	54 12	5	E	27 -3	33	29.97	10
Mon Feb  1 22:16:34 2010	New York, New York 10001  	clear sky	34 1	26 -3	16-Oct	W	13-Sep	34	30.22	10
Mon Feb  1 22:16:34 2010	Baltimore, Maryland 21201  	normal	36 2	36 2			11-Dec	37	30.29	
Mon Feb  1 22:16:35 2010	Washington, Washington D. C. 20001  	mostly cloudy	37 3	31 -1	8	W	11-Dec	35	30.31	10
Mon Feb  1 22:16:35 2010	Austin, Texas 73301  	mostly cloudy	45 7	44 7	3	NE	39 4	81	30.05	2.5
Mon Feb  1 22:16:35 2010	San Francisco, California 94101  	mostly cloudy	54 12	52 11	6	NE	48 9	82	29.94	10
Mon Feb  1 22:16:36 2010	Nashville, Tennessee 37201  	mostly cloudy	43 6	39 4	6	E	27 -3	52	30.2	10
Mon Feb  1 22:16:36 2010	Oklahoma City, Oklahoma 73101  	mostly cloudy	30 -1	20 -7	13	S	28 -2	93	30	2
Mon Feb  1 22:16:36 2010	Fort Worth, Texas 76101  	mostly cloudy	41 5	38 3	5	SW	34 1	75	30.04	10
Mon Feb  1 22:16:37 2010	Portland, Oregon 97201  	clear sky	34 1	23 -5	17-25	W	11-Dec	40	30.13	10
Mon Feb  1 22:16:37 2010	Chicago, Illinois 60601  	mostly cloudy	30 -1	30 -1	0		16 -9	55	30.22	8
Mon Feb  1 22:16:37 2010	Phoenix, Arizona 85001  	mostly cloudy	63 17	63 17	0		39 4	42	29.94	10
Mon Feb  1 22:16:38 2010	Indianapolis, Indiana 46201  	mostly cloudy	36 2	36 2	0		16 -9	44	30.21	10
Mon Feb  1 22:16:38 2010	San Antonio, Texas 78201  	mostly cloudy	45 7	45 7	0		43 6	93	30.05	1.2
Mon Feb  1 22:16:39 2010	Dallas, Texas 75201  	mostly cloudy	46 8	42 6	7	SW	36 2	66	30.05	10
Mon Feb  1 22:16:39 2010	Jacksonville, Florida 32099  	mostly cloudy	59 15	56 13	15-24	NE	52 11	77	30.14	10
Mon Feb  1 22:16:39 2010	Columbus, Ohio 43085  	clear sky	32 0	32 0	0		16 -9	51	30.25	10
Mon Feb  1 22:16:40 2010	Milwaukee, Wisconsin 53201  	mostly cloudy	28 -2	22 -6	5	E	12-Oct	46	30.22	8
Mon Feb  1 22:16:40 2010	Houston, Texas 77001  	mostly cloudy	48 9	45 7	7	E	46 8	93	30.07	4
Mon Feb  1 22:16:40 2010	Seattle, Washington 98101  	mostly cloudy	48 9	48 9	0		41 5	76	29.88	10
Mon Feb  1 22:16:41 2010	Philadelphia, Pennsylvania 19019  	clear sky	36 2	29 -2	10	W	12-Oct	35	30.27	10
Mon Feb  1 22:16:41 2010	Detroit, Michigan 48201  	mostly cloudy	27 -3	19 -7	8	W	11-Dec	54	30.26	10
Mon Feb  1 23:01:17 2010	San Jose, California 95101  	mostly cloudy	63 17	63 17	5	E	43 6	48	29.9	10
Mon Feb  1 23:01:18 2010	Denver, Colorado 80214  	clear sky	45 7	41 5	8	N	15-May	19	29.82	10
Mon Feb  1 23:01:18 2010	San Diego, California 92101  	mostly cloudy	63 17	63 17	6	W	50 10	63	29.92	9
Mon Feb  1 23:01:18 2010	Charlotte, North Carolina 28201  	clear sky	48 9	48 9	0		21 -6	34	30.24	10
Mon Feb  1 23:01:19 2010	Memphis, Tennessee 37501  	mostly cloudy	46 8	45 7	3	SE	30 -1	53	30.14	10
Mon Feb  1 23:01:19 2010	El Paso, Texas 79901  	clear sky	61 16	61 16	0-18		34 1	36	29.93	10
Mon Feb  1 23:01:19 2010	Los Angeles, California 90001  	clear sky	66 19	66 19	0		45 7	46	29.9	6
Mon Feb  1 23:01:20 2010	New York, New York 10001  	clear sky	36 2	29 -2	16-Sep	W	13-Sep	32	30.23	10
Mon Feb  1 23:01:20 2010	Baltimore, Maryland 21201  	normal	36 2	36 2			11-Dec	37	30.29	
Mon Feb  1 23:01:20 2010	Las Vegas, Nevada 89101  	mostly cloudy	55 13	55 13	0		27 -3	33	29.94	10
Mon Feb  1 23:01:21 2010	Washington, Washington D. C. 20001  	mostly cloudy	39 4	34 1	7	W	11-Dec	33	30.31	10
Mon Feb  1 23:01:21 2010	Austin, Texas 73301  	mostly cloudy	45 7	45 7	0		41 5	87	30.04	2
Mon Feb  1 23:01:21 2010	San Francisco, California 94101  	mostly cloudy	54 12	54 12	0		48 9	82	29.92	10
Mon Feb  1 23:01:22 2010	Nashville, Tennessee 37201  	mostly cloudy	39 4	35 2	5	E	28 -2	65	30.19	10
Mon Feb  1 23:01:22 2010	Oklahoma City, Oklahoma 73101  	mostly cloudy	30 -1	22 -6	8	SW	28 -2	93	30	2
Mon Feb  1 23:01:22 2010	Fort Worth, Texas 76101  	mostly cloudy	43 6	39 4	6	SW	36 2	75	30.02	10
Mon Feb  1 23:01:23 2010	Portland, Oregon 97201  	clear sky	32 0	22 -6	15-24	W	11-Dec	43	30.13	10
Mon Feb  1 23:01:23 2010	Phoenix, Arizona 85001  	mostly cloudy	64 18	64 18	0		39 4	39	29.91	10
Mon Feb  1 23:01:24 2010	Chicago, Illinois 60601  	mostly cloudy	30 -1	30 -1	0		16 -9	55	30.21	7
Mon Feb  1 23:01:24 2010	Indianapolis, Indiana 46201  	mostly cloudy	37 3	37 3	0		16 -9	41	30.19	10
Mon Feb  1 23:01:24 2010	San Antonio, Texas 78201  	mostly cloudy	45 7	45 7	0		43 6	93	30.04	2.5
Mon Feb  1 23:01:25 2010	Jacksonville, Florida 32099  	mostly cloudy	57 14	55 13	10	NE	52 11	82	30.14	10
Mon Feb  1 23:01:25 2010	Columbus, Ohio 43085  	clear sky	32 0	32 0	0		16 -9	51	30.24	10
Mon Feb  1 23:01:26 2010	Dallas, Texas 75201  	mostly cloudy	46 8	42 6	8	W	36 2	66	30.03	10
Mon Feb  1 23:01:26 2010	Houston, Texas 77001  	mostly cloudy	50 10	47 8	20-Jul	E	46 8	87	30.06	5
Mon Feb  1 23:01:26 2010	Seattle, Washington 98101  	clear sky	48 9	48 9	0		39 4	71	29.86	10
Mon Feb  1 23:01:27 2010	Philadelphia, Pennsylvania 19019  	clear sky	36 2	27 -3	14-21	W	12-Oct	35	30.27	10
Mon Feb  1 23:01:27 2010	Detroit, Michigan 48201  	mostly cloudy	27 -3	19 -7	8	SW	11-Dec	54	30.25	10
Mon Feb  1 23:01:27 2010	Milwaukee, Wisconsin 53201  	mostly cloudy	27 -3	21 -6	5	E	11-Dec	54	30.21	8
Mon Feb  1 23:46:00 2010	San Jose, California 95101  	mostly cloudy	63 17	63 17	6	S	43 6	48	29.87	10
Mon Feb  1 23:46:00 2010	Charlotte, North Carolina 28201  	clear sky	48 9	48 9	0		21 -6	34	30.25	10
Mon Feb  1 23:46:00 2010	San Diego, California 92101  	mostly cloudy	61 16	61 16	0		50 10	68	29.9	9
Mon Feb  1 23:46:01 2010	Memphis, Tennessee 37501  	mostly cloudy	46 8	45 7	3	SE	30 -1	53	30.13	10
Mon Feb  1 23:46:01 2010	Denver, Colorado 80214  	clear sky	45 7	40 4	17-Sep	N	14-Jul	21	29.83	10
Mon Feb  1 23:46:01 2010	Los Angeles, California 90001  	clear sky	68 20	68 20	0		45 7	43	29.88	6
Mon Feb  1 23:46:02 2010	New York, New York 10001  	clear sky	34 1	29 -2	6	N	12-Oct	37	30.23	10
Mon Feb  1 23:46:02 2010	El Paso, Texas 79901  	mostly cloudy	63 17	62 17	9	W	30 -1	29	29.91	10
Mon Feb  1 23:46:02 2010	Baltimore, Maryland 21201  	normal	36 2	36 2			11-Dec	37	30.29	
Mon Feb  1 23:46:03 2010	Washington, Washington D. C. 20001  	mostly cloudy	39 4	35 2	6	W	11-Dec	33	30.31	10
Mon Feb  1 23:46:03 2010	Austin, Texas 73301  	mostly cloudy	45 7	45 7	0		41 5	87	30.04	2
Mon Feb  1 23:46:03 2010	Las Vegas, Nevada 89101  	mostly cloudy	55 13	55 13	0		27 -3	33	29.92	10
Mon Feb  1 23:46:04 2010	Nashville, Tennessee 37201  	mostly cloudy	39 4	35 2	5	SE	28 -2	65	30.19	10
Mon Feb  1 23:46:04 2010	Oklahoma City, Oklahoma 73101  	mostly cloudy	32 0	25 -4	7	SW	30 -1	93	30.01	2
Mon Feb  1 23:46:04 2010	San Francisco, California 94101  	mostly cloudy	55 13	55 13	0		45 7	67	29.9	10
Mon Feb  1 23:46:05 2010	Portland, Oregon 97201  	clear sky	30 -1	19 -7	16	W	16 -9	55	30.15	10
Mon Feb  1 23:46:05 2010	Fort Worth, Texas 76101  	mostly cloudy	43 6	39 4	7	S	36 2	75	30.01	9
Mon Feb  1 23:46:05 2010	Phoenix, Arizona 85001  	mostly cloudy	64 18	64 18	0		36 2	34	29.9	10
Mon Feb  1 23:46:06 2010	Indianapolis, Indiana 46201  	mostly cloudy	36 2	34 1	3	SE	14 -10	41	30.18	10
Mon Feb  1 23:46:06 2010	Chicago, Illinois 60601  	mostly cloudy	30 -1	27 -3	3	SE	16 -9	55	30.21	6
Mon Feb  1 23:46:06 2010	San Antonio, Texas 78201  	mostly cloudy	45 7	44 7	3	NE	45 7	100	30.04	1.5
Mon Feb  1 23:46:07 2010	Jacksonville, Florida 32099  	mostly cloudy	57 14	55 13	10	NE	52 11	82	30.14	10
Mon Feb  1 23:46:07 2010	Columbus, Ohio 43085  	clear sky	32 0	32 0	0		16 -9	51	30.24	10
Mon Feb  1 23:46:08 2010	Dallas, Texas 75201  	mostly cloudy	46 8	44 7	5	W	37 3	71	30.02	10
Mon Feb  1 23:46:08 2010	Houston, Texas 77001  	mostly cloudy	50 10	48 9	6	E	46 8	87	30.06	5
Mon Feb  1 23:46:08 2010	Seattle, Washington 98101  	mostly cloudy	48 9	48 9	0		39 4	71	29.84	10
Mon Feb  1 23:46:09 2010	Philadelphia, Pennsylvania 19019  	clear sky	34 1	26 -3	21-Oct	W	12-Oct	37	30.26	10
Mon Feb  1 23:46:09 2010	Detroit, Michigan 48201  	mostly cloudy	27 -3	20 -7	6	W	11-Dec	54	30.26	10
Mon Feb  1 23:46:09 2010	Milwaukee, Wisconsin 53201  	mostly cloudy	27 -3	19 -7	7	E	11-Dec	54	30.21	9
Sat Jan 30 00:32:46 2010	Charlotte, North Carolina 28201  	mostly cloudy	43 6	37 3	10	N	16 -9	33	30.24	10
Sat Jan 30 00:32:46 2010	San Jose, California 95101  	clear sky	63 17	61 16	15-22	S	45 7	52	29.95	10
Sat Jan 30 00:32:46 2010	San Diego, California 92101  	mostly cloudy	61 16	61 16	6	SW	52 11	72	30.03	9
Sat Jan 30 00:32:47 2010	Memphis, Tennessee 37501  	mostly cloudy	32 0	21 -6	17-24	NE	28 -2	86	30	1.7
Sat Jan 30 00:32:47 2010	Denver, Colorado 80214  	clear sky	43 6	39 4	7	N	16-Mar	19	29.98	10
Sat Jan 30 00:32:48 2010	New York, New York 10001  	clear sky	21 -6	12-Nov	23-Aug	W	-2 -19	35	30.25	10
Sat Jan 30 00:32:48 2010	El Paso, Texas 79901  	clear sky	46 8	46 8	0		30 -1	53	30.08	10
Sat Jan 30 00:32:48 2010	Los Angeles, California 90001  	clear sky	66 19	66 19	0		41 5	40	30.01	10
Sat Jan 30 00:32:49 2010	Washington, Washington D. C. 20001  	mostly cloudy	27 -3	18 -8	20-Sep	NW	17-Jan	33	30.36	10
Sat Jan 30 00:32:49 2010	Baltimore, Maryland 21201  	normal	27 -3	27 -3			0 -18	30	30.34	
Sat Jan 30 00:32:49 2010	Las Vegas, Nevada 89101  	mostly cloudy	55 13	55 13	0		28 -2	35	30.01	10
Sat Jan 30 00:32:50 2010	Oklahoma City, Oklahoma 73101  	mostly cloudy	21 -6	15-May	21	N	19 -7	93	30.08	1.2
Sat Jan 30 00:32:50 2010	Austin, Texas 73301  	mostly cloudy	43 6	34 1	21-29	NW	30 -1	61	30.04	10
Sat Jan 30 00:32:50 2010	San Francisco, California 94101  	mostly cloudy	59 15	56 13	18-22	SW	46 8	63	29.96	10
Sat Jan 30 00:32:51 2010	Nashville, Tennessee 37201  	light snow	27 -3	15 -9	15	NE	23 -5	86	30.14	0.7
Sat Jan 30 00:32:51 2010	Fort Worth, Texas 76101  	mostly cloudy	32 0	22 -6	15-23	NW	27 -3	80	30.03	10
Sat Jan 30 00:32:51 2010	Phoenix, Arizona 85001  	clear sky	64 18	64 18	0		43 6	45	30	10
Sat Jan 30 00:32:52 2010	Portland, Oregon 97201  	clear sky	19 -7	17-Jan	25-35	W	-2 -19	38	30.05	10
Sat Jan 30 00:32:52 2010	San Antonio, Texas 78201  	clear sky	46 8	39 4	17-25	NW	32 0	57	30.03	10
Sat Jan 30 00:32:52 2010	Chicago, Illinois 60601  	mostly cloudy	19 -7	12-Oct	7	NE	13-Sep	62	30.39	10
Sat Jan 30 00:32:53 2010	Jacksonville, Florida 32099  	mostly cloudy	63 17	62 17	10	E	46 8	55	30.06	10
Sat Jan 30 00:32:53 2010	Indianapolis, Indiana 46201  	mostly cloudy	19 -7	15-May	14	NE	14-Jul	57	30.31	10
Sat Jan 30 00:32:54 2010	Dallas, Texas 75201  	mostly cloudy	34 1	23 -5	17-25	NW	28 -2	80	30.03	10
Sat Jan 30 00:32:54 2010	Columbus, Ohio 43085  	clear sky	14 -10	16-Mar	8	N	16-Mar	61	30.37	10
Sat Jan 30 00:32:54 2010	Houston, Texas 77001  	mostly cloudy	46 8	39 4	16-24	NW	39 4	76	29.94	10
Sat Jan 30 00:32:55 2010	Detroit, Michigan 48201  	clear sky	19 -7	12-Oct	7	N	0 -18	41	30.4	10
Sat Jan 30 00:32:55 2010	Milwaukee, Wisconsin 53201  	clear sky	16 -9	13-Aug	5	E	17-Jan	52	30.41	10
Sat Jan 30 00:32:55 2010	Seattle, Washington 98101  	clear sky	55 13	55 13	0		37 3	51	29.95	10
Sat Jan 30 00:32:56 2010	Philadelphia, Pennsylvania 19019  	clear sky	21 -6	13-Sep	18-Dec	NW	17-Jan	41	30.31	10
Sat Jan 30 01:16:50 2010	Charlotte, North Carolina 28201  	mostly cloudy	36 2	27 -3	14-21	N	28 -2	75	30.26	10
Sat Jan 30 01:16:50 2010	San Jose, California 95101  	mostly cloudy	61 16	58 14	17-22	S	45 7	55	29.96	10
Sat Jan 30 01:16:51 2010	Memphis, Tennessee 37501  	mostly cloudy	30 -1	20 -7	13-25	NE	28 -2	93	30.01	2.5
Sat Jan 30 01:16:51 2010	Denver, Colorado 80214  	clear sky	43 6	39 4	6	N	16-Mar	19	29.99	10
Sat Jan 30 01:16:51 2010	San Diego, California 92101  	mostly cloudy	63 17	63 17	6	W	52 11	68	30.03	9
Sat Jan 30 01:16:52 2010	El Paso, Texas 79901  	clear sky	46 8	44 7	5	N	30 -1	53	30.08	10
Sat Jan 30 01:16:52 2010	Los Angeles, California 90001  	clear sky	66 19	66 19	5	W	45 7	46	30	10
Sat Jan 30 01:16:53 2010	New York, New York 10001  	clear sky	21 -6	12-Nov	Sep-32	NW	0 -18	38	30.26	10
Sat Jan 30 01:16:53 2010	Baltimore, Maryland 21201  	normal	25 -4	25 -4			-2 -19	30	30.35	
Sat Jan 30 01:16:53 2010	Las Vegas, Nevada 89101  	mostly cloudy	57 14	57 14	0		28 -2	33	30.01	10
Sat Jan 30 01:16:54 2010	Washington, Washington D. C. 20001  	mostly cloudy	27 -3	18 -8	10	NW	17-Jan	33	30.37	10
Sat Jan 30 01:16:54 2010	Austin, Texas 73301  	mostly cloudy	39 4	29 -2	21-30	NW	28 -2	65	30.06	10
Sat Jan 30 01:16:54 2010	San Francisco, California 94101  	mostly cloudy	59 15	56 13	15-25	S	45 7	59	29.95	10
Sat Jan 30 01:16:55 2010	Oklahoma City, Oklahoma 73101  	mostly cloudy	21 -6	14-Jun	18	N	18 -8	86	30.09	2
Sat Jan 30 01:16:55 2010	Nashville, Tennessee 37201  	light snow	27 -3	16 -9	12	NE	23 -5	86	30.1	1
Sat Jan 30 01:16:55 2010	Fort Worth, Texas 76101  	mostly cloudy	32 0	20 -7	21-23	NW	27 -3	80	30.04	10
Sat Jan 30 01:16:55 2010	Phoenix, Arizona 85001  	clear sky	66 19	66 19	3	E	43 6	43	29.99	10
Sat Jan 30 01:16:56 2010	San Antonio, Texas 78201  	clear sky	46 8	40 4	15-25	NW	30 -1	53	30.04	10
Sat Jan 30 01:16:56 2010	Portland, Oregon 97201  	clear sky	18 -8	-1 -18	28-35	W	-4 -20	37	30.06	10
Sat Jan 30 01:16:56 2010	Chicago, Illinois 60601  	mostly cloudy	18 -8	13-Aug	8	E	13-Sep	67	30.38	10
Sat Jan 30 01:16:57 2010	Indianapolis, Indiana 46201  	mostly cloudy	18 -8	14-Jun	10	E	13-Sep	67	30.3	10
Sat Jan 30 01:16:58 2010	Dallas, Texas 75201  	mostly cloudy	34 1	24 -4	16-25	NW	28 -2	80	30.04	10
Sat Jan 30 01:16:58 2010	Columbus, Ohio 43085  	clear sky	14 -10	16-Apr	7	N	16-Mar	61	30.37	10
Sat Jan 30 01:16:58 2010	Jacksonville, Florida 32099  	mostly cloudy	61 16	60 16	9	E	45 7	55	30.05	10
Sat Jan 30 01:16:59 2010	Milwaukee, Wisconsin 53201  	clear sky	16 -9	12-Nov	3	NE	16-Mar	57	30.41	10
Sat Jan 30 01:16:59 2010	Houston, Texas 77001  	mostly cloudy	48 9	42 6	14-24	NW	39 4	71	29.95	10
Sat Jan 30 01:16:59 2010	Seattle, Washington 98101  	mostly cloudy	55 13	55 13	0		37 3	51	29.95	10
Sat Jan 30 01:17:00 2010	Detroit, Michigan 48201  	clear sky	18 -8	12-Nov	5	N	0 -18	44	30.41	10
Sat Jan 30 01:17:00 2010	Philadelphia, Pennsylvania 19019  	clear sky	21 -6	12-Oct	18-Oct	NW	17-Jan	41	30.31	10
Sat Jan 30 02:00:44 2010	Charlotte, North Carolina 28201  	mostly cloudy	36 2	29 -2	21-Oct	NE	28 -2	75	30.23	10
Sat Jan 30 02:00:44 2010	San Jose, California 95101  	mostly cloudy	59 15	57 14	13-24	S	43 6	55	29.95	10
Sat Jan 30 02:00:44 2010	San Diego, California 92101  	mostly cloudy	61 16	61 16	6	W	52 11	72	30.03	10
Sat Jan 30 02:00:45 2010	Memphis, Tennessee 37501  	mostly cloudy	30 -1	19 -7	15-25	NE	27 -3	86	29.98	3
Sat Jan 30 02:00:45 2010	Los Angeles, California 90001  	clear sky	66 19	66 19	3	N	46 8	49	30	10
Sat Jan 30 02:00:45 2010	Denver, Colorado 80214  	clear sky	39 4	35 2	6	N	14-Jul	25	29.99	10
Sat Jan 30 02:00:46 2010	New York, New York 10001  	clear sky	21 -6	12-Oct	20-Oct	W	17-Jan	41	30.27	10
Sat Jan 30 02:00:46 2010	El Paso, Texas 79901  	clear sky	46 8	45 7	3	N	30 -1	53	30.09	10
Sat Jan 30 02:00:47 2010	Washington, Washington D. C. 20001  	mostly cloudy	27 -3	16 -9	12	NW	17-Jan	33	30.38	10
Sat Jan 30 02:00:47 2010	Baltimore, Maryland 21201  	normal	25 -4	25 -4			0 -18	33	30.35	
Sat Jan 30 02:00:47 2010	Las Vegas, Nevada 89101  	mostly cloudy	55 13	55 13	0		30 -1	38	30	10
Sat Jan 30 02:00:48 2010	Oklahoma City, Oklahoma 73101  	mostly cloudy	21 -6	14-Jul	17	N	18 -8	86	30.09	2
Sat Jan 30 02:00:48 2010	Austin, Texas 73301  	clear sky	39 4	29 -2	21-29	NW	25 -4	56	30.07	10
Sat Jan 30 02:00:48 2010	San Francisco, California 94101  	light rain	57 14	55 13	23-Oct	S	46 8	67	29.95	10
Sat Jan 30 02:00:49 2010	Nashville, Tennessee 37201  	light snow	27 -3	15 -9	15	NE	23 -5	86	30.08	1
Sat Jan 30 02:00:49 2010	Fort Worth, Texas 76101  	mostly cloudy	30 -1	19 -7	16-26	NW	25 -4	80	30.07	10
Sat Jan 30 02:00:49 2010	Phoenix, Arizona 85001  	clear sky	64 18	64 18	3	SW	43 6	45	29.99	10
Sat Jan 30 02:00:50 2010	San Antonio, Texas 78201  	clear sky	45 7	38 3	17-24	NW	28 -2	53	30.07	10
Sat Jan 30 02:00:50 2010	Portland, Oregon 97201  	clear sky	18 -8	-1 -18	30-39	W	-4 -20	37	30.07	10
Sat Jan 30 02:00:50 2010	Chicago, Illinois 60601  	light snow	18 -8	12-Nov	5	N	13-Sep	67	30.39	9
Sat Jan 30 02:00:51 2010	Jacksonville, Florida 32099  	mostly cloudy	59 15	59 15	5	NE	48 9	67	30.05	10
Sat Jan 30 02:00:51 2010	Indianapolis, Indiana 46201  	mostly cloudy	18 -8	15-May	13	E	14-Jul	62	30.31	10
Sat Jan 30 02:00:52 2010	Dallas, Texas 75201  	mostly cloudy	34 1	23 -5	20-25	NW	27 -3	75	30.07	10
Sat Jan 30 02:00:52 2010	Columbus, Ohio 43085  	clear sky	11-Dec	17-Jan	7	N	16-Mar	66	30.36	10
Sat Jan 30 02:00:52 2010	Houston, Texas 77001  	mostly cloudy	46 8	38 3	21-24	NW	39 4	76	29.96	10
Sat Jan 30 02:00:53 2010	Detroit, Michigan 48201  	clear sky	18 -8	12-Nov	5	NE	0 -18	44	30.41	10
Sat Jan 30 02:00:53 2010	Milwaukee, Wisconsin 53201  	clear sky	16 -9	16 -9	0		15-May	62	30.41	10
Sat Jan 30 02:00:53 2010	Seattle, Washington 98101  	mostly cloudy	54 12	54 12	0		37 3	54	29.96	10
Sat Jan 30 02:00:54 2010	Philadelphia, Pennsylvania 19019  	clear sky	21 -6	12-Nov	9	NW	17-Jan	41	30.32	10
Sat Jan 30 02:44:58 2010	San Jose, California 95101  	mostly cloudy	57 14	56 13	7	S	43 6	59	29.95	10
Sat Jan 30 02:44:59 2010	Charlotte, North Carolina 28201  	mostly cloudy	34 1	25 -4	12	NE	28 -2	80	30.21	10
Sat Jan 30 02:44:59 2010	San Diego, California 92101  	mostly cloudy	61 16	61 16	3	W	52 11	72	30.04	10
Sat Jan 30 02:44:59 2010	Denver, Colorado 80214  	clear sky	36 2	36 2	0		14-Jul	29	29.99	10
Sat Jan 30 02:45:00 2010	Memphis, Tennessee 37501  	mostly cloudy	30 -1	19 -7	15-24	NE	27 -3	86	29.93	2.5
Sat Jan 30 02:45:00 2010	El Paso, Texas 79901  	clear sky	45 7	41 5	7	W	32 0	61	30.09	10
Sat Jan 30 02:45:00 2010	Los Angeles, California 90001  	clear sky	63 17	63 17	0		48 9	59	30.01	10
Sat Jan 30 02:45:01 2010	New York, New York 10001  	clear sky	19 -7	13-Aug	20-Oct	W	0 -18	41	30.28	10
Sat Jan 30 02:45:01 2010	Baltimore, Maryland 21201  	normal	25 -4	25 -4			0 -18	33	30.36	
Sat Jan 30 02:45:02 2010	Washington, Washington D. C. 20001  	mostly cloudy	25 -4	13 -11	14	N	17-Jan	36	30.38	10
Sat Jan 30 02:45:02 2010	Austin, Texas 73301  	clear sky	37 3	30 -1	31-Oct	NW	27 -3	65	30.09	10
Sat Jan 30 02:45:02 2010	Las Vegas, Nevada 89101  	mostly cloudy	54 12	54 12	0		30 -1	41	30	10
Sat Jan 30 02:45:03 2010	Oklahoma City, Oklahoma 73101  	mostly cloudy	19 -7	16-Mar	21	N	18 -8	93	30.11	9
Sat Jan 30 02:45:03 2010	San Francisco, California 94101  	light rain	54 12	51 11	9	S	50 10	88	29.96	8
Sat Jan 30 02:45:04 2010	Fort Worth, Texas 76101  	mostly cloudy	28 -2	14 -10	21-26	NW	25 -4	86	30.09	10
Sat Jan 30 02:45:04 2010	Nashville, Tennessee 37201  	mostly cloudy	27 -3	18 -8	10	NE	25 -4	93	30.07	1
Sat Jan 30 02:45:04 2010	Phoenix, Arizona 85001  	clear sky	63 17	63 17	3	SW	45 7	52	29.99	10
Sat Jan 30 02:45:05 2010	Chicago, Illinois 60601  	light snow	19 -7	12-Oct	7	N	12-Oct	67	30.37	9
Sat Jan 30 02:45:05 2010	San Antonio, Texas 78201  	clear sky	41 5	33 1	15-25	N	28 -2	61	30.08	10
Sat Jan 30 02:45:05 2010	Portland, Oregon 97201  	clear sky	18 -8	-1 -18	29-39	W	-4 -20	37	30.09	10
Sat Jan 30 02:45:06 2010	Jacksonville, Florida 32099  	mostly cloudy	57 14	55 13	8	NE	52 11	82	30.05	10
Sat Jan 30 02:45:06 2010	Indianapolis, Indiana 46201  	mostly cloudy	18 -8	14-Jun	10	NE	14-Jul	62	30.28	10
Sat Jan 30 02:45:07 2010	Dallas, Texas 75201  	mostly cloudy	32 0	19 -7	23-28	NW	25 -4	74	30.08	10
Sat Jan 30 02:45:07 2010	Columbus, Ohio 43085  	clear sky	11-Dec	17-Jan	7	N	16-Mar	66	30.36	10
Sat Jan 30 02:45:08 2010	Houston, Texas 77001  	mostly cloudy	45 7	38 3	17-28	NW	36 2	70	29.98	10
Sat Jan 30 02:45:08 2010	Milwaukee, Wisconsin 53201  	mostly cloudy	16 -9	13-Aug	5	NW	14-Jul	67	30.4	10
Sat Jan 30 02:45:08 2010	Seattle, Washington 98101  	mostly cloudy	54 12	54 12	0		37 3	54	29.96	10
Sat Jan 30 02:45:09 2010	Detroit, Michigan 48201  	clear sky	16 -9	13-Aug	5	N	17-Jan	52	30.42	10
Sat Jan 30 02:45:09 2010	Philadelphia, Pennsylvania 19019  	clear sky	21 -6	12-Oct	10	NW	17-Jan	41	30.33	10
Sat Jan 30 03:28:53 2010	Charlotte, North Carolina 28201  	mostly cloudy	34 1	25 -4	12	NE	28 -2	80	30.21	10
Sat Jan 30 03:28:53 2010	San Jose, California 95101  	mostly cloudy	57 14	56 13	7	S	43 6	59	29.95	10
Sat Jan 30 03:28:53 2010	San Diego, California 92101  	mostly cloudy	61 16	61 16	3	W	52 11	72	30.04	10
Sat Jan 30 03:28:54 2010	Memphis, Tennessee 37501  	mostly cloudy	30 -1	19 -7	15-24	NE	27 -3	86	29.93	2.5
Sat Jan 30 03:28:54 2010	Denver, Colorado 80214  	clear sky	36 2	36 2	0		14-Jul	29	29.99	10
Sat Jan 30 03:28:54 2010	Los Angeles, California 90001  	clear sky	63 17	63 17	0		48 9	59	30.01	10
Sat Jan 30 03:28:55 2010	New York, New York 10001  	clear sky	19 -7	13-Aug	20-Oct	W	0 -18	41	30.28	10
Sat Jan 30 03:28:55 2010	El Paso, Texas 79901  	clear sky	45 7	41 5	7	W	32 0	61	30.09	10
Sat Jan 30 03:28:55 2010	Baltimore, Maryland 21201  	normal	25 -4	25 -4			0 -18	33	30.36	
Sat Jan 30 03:28:56 2010	Washington, Washington D. C. 20001  	mostly cloudy	25 -4	13 -11	14	N	17-Jan	36	30.38	10
Sat Jan 30 03:28:56 2010	Austin, Texas 73301  	clear sky	37 3	30 -1	31-Oct	NW	27 -3	65	30.09	10
Sat Jan 30 03:28:56 2010	Las Vegas, Nevada 89101  	mostly cloudy	54 12	54 12	0		30 -1	41	30	10
Sat Jan 30 03:28:57 2010	Oklahoma City, Oklahoma 73101  	mostly cloudy	19 -7	16-Mar	21	N	18 -8	93	30.11	9
Sat Jan 30 03:28:57 2010	San Francisco, California 94101  	light rain	54 12	51 11	9	S	50 10	88	29.96	8
Sat Jan 30 03:28:58 2010	Fort Worth, Texas 76101  	mostly cloudy	28 -2	14 -10	21-26	NW	25 -4	86	30.09	10
Sat Jan 30 03:28:58 2010	Nashville, Tennessee 37201  	mostly cloudy	27 -3	18 -8	10	NE	25 -4	93	30.07	1
Sat Jan 30 03:28:58 2010	Phoenix, Arizona 85001  	clear sky	63 17	63 17	3	SW	45 7	52	29.99	10
Sat Jan 30 03:28:59 2010	Chicago, Illinois 60601  	light snow	19 -7	12-Oct	7	N	12-Oct	67	30.37	9
Sat Jan 30 03:28:59 2010	San Antonio, Texas 78201  	clear sky	41 5	33 1	15-25	N	28 -2	61	30.08	10
Sat Jan 30 03:28:59 2010	Portland, Oregon 97201  	clear sky	18 -8	-1 -18	29-39	W	-4 -20	37	30.09	10
Sat Jan 30 03:29:00 2010	Jacksonville, Florida 32099  	mostly cloudy	57 14	55 13	8	NE	52 11	82	30.05	10
Sat Jan 30 03:29:00 2010	Indianapolis, Indiana 46201  	mostly cloudy	18 -8	14-Jun	10	NE	14-Jul	62	30.28	10
Sat Jan 30 03:29:01 2010	Dallas, Texas 75201  	mostly cloudy	32 0	19 -7	23-28	NW	25 -4	74	30.08	10
Sat Jan 30 03:29:01 2010	Columbus, Ohio 43085  	clear sky	11-Dec	17-Jan	7	N	16-Mar	66	30.36	10
Sat Jan 30 03:29:01 2010	Houston, Texas 77001  	mostly cloudy	45 7	38 3	17-28	NW	36 2	70	29.98	10
Sat Jan 30 03:29:02 2010	Detroit, Michigan 48201  	clear sky	16 -9	13-Aug	5	N	17-Jan	52	30.42	10
Sat Jan 30 03:29:02 2010	Milwaukee, Wisconsin 53201  	mostly cloudy	16 -9	13-Aug	5	NW	14-Jul	67	30.4	10
Sat Jan 30 03:29:02 2010	Seattle, Washington 98101  	mostly cloudy	54 12	54 12	0		37 3	54	29.96	10
Sat Jan 30 03:29:03 2010	Philadelphia, Pennsylvania 19019  	clear sky	21 -6	12-Oct	10	NW	17-Jan	41	30.33	10
Sat Jan 30 04:12:41 2010	San Jose, California 95101  	moderate rain	52 11	52 11	0		48 9	87	29.99	3
Sat Jan 30 04:12:42 2010	Charlotte, North Carolina 28201  	mostly cloudy	34 1	27 -3	9	NE	28 -2	80	30.21	10
Sat Jan 30 04:12:42 2010	San Diego, California 92101  	mostly cloudy	59 15	59 15	3	W	52 11	77	30.04	10
Sat Jan 30 04:12:42 2010	Denver, Colorado 80214  	clear sky	32 0	29 -2	3	S	13-Sep	37	29.99	10
Sat Jan 30 04:12:43 2010	Memphis, Tennessee 37501  	mostly cloudy	30 -1	19 -7	14-23	NE	27 -3	86	29.93	2.5
Sat Jan 30 04:12:43 2010	El Paso, Texas 79901  	clear sky	45 7	42 6	5	W	32 0	61	30.1	10
Sat Jan 30 04:12:43 2010	Los Angeles, California 90001  	clear sky	61 16	61 16	0		50 10	68	30.01	10
Sat Jan 30 04:12:44 2010	New York, New York 10001  	clear sky	19 -7	11-Dec	18-May	N	17-Jan	45	30.3	10
Sat Jan 30 04:12:44 2010	Baltimore, Maryland 21201  	normal	25 -4	25 -4			0 -18	33	30.37	
Sat Jan 30 04:12:44 2010	Las Vegas, Nevada 89101  	mostly cloudy	54 12	54 12	0		32 0	44	30.01	10
Sat Jan 30 04:12:45 2010	Washington, Washington D. C. 20001  	mostly cloudy	25 -4	13 -11	15	N	17-Jan	36	30.38	10
Sat Jan 30 04:12:45 2010	Austin, Texas 73301  	clear sky	36 2	27 -3	15-20	NW	25 -4	64	30.1	10
Sat Jan 30 04:12:45 2010	San Francisco, California 94101  	mostly cloudy	52 11	52 11	0		50 10	94	29.96	6
Sat Jan 30 04:12:46 2010	Oklahoma City, Oklahoma 73101  	mostly cloudy	19 -7	16-Apr	16	N	16 -9	86	30.13	10
Sat Jan 30 04:12:46 2010	Nashville, Tennessee 37201  	light snow	27 -3	16 -9	14	NE	23 -5	86	30.03	1
Sat Jan 30 04:12:46 2010	Fort Worth, Texas 76101  	mostly cloudy	28 -2	16 -9	17-25	NW	25 -4	86	30.08	10
Sat Jan 30 04:12:47 2010	Portland, Oregon 97201  	clear sky	16 -9	-3 -19	25-38	W	-2 -19	44	30.1	10
Sat Jan 30 04:12:47 2010	Phoenix, Arizona 85001  	clear sky	61 16	61 16	0		46 8	59	30	10
Sat Jan 30 04:12:48 2010	Chicago, Illinois 60601  	light snow	19 -7	11-Dec	5	N	11-Dec	73	30.35	2.5
Sat Jan 30 04:12:48 2010	San Antonio, Texas 78201  	clear sky	39 4	32 0	12	N	28 -2	65	30.1	10
Sat Jan 30 04:12:48 2010	Indianapolis, Indiana 46201  	mostly cloudy	18 -8	16-Apr	14	NE	13-Sep	67	30.27	10
Sat Jan 30 04:12:49 2010	Columbus, Ohio 43085  	clear sky	11-Dec	17-Jan	7	NE	16-Mar	66	30.33	10
Sat Jan 30 04:12:49 2010	Jacksonville, Florida 32099  	mostly cloudy	55 13	53 12	7	NE	52 11	88	30.04	10
Sat Jan 30 04:12:50 2010	Dallas, Texas 75201  	mostly cloudy	32 0	21 -6	17-30	NW	25 -4	74	30.09	10
Sat Jan 30 04:12:50 2010	Houston, Texas 77001  	mostly cloudy	43 6	36 2	14-25	NW	34 1	70	30.01	10
Sat Jan 30 04:12:50 2010	Seattle, Washington 98101  	mostly cloudy	52 11	52 11	0		39 4	62	29.96	10
Sat Jan 30 04:12:51 2010	Detroit, Michigan 48201  	clear sky	14 -10	14-Jun	5	NE	17-Jan	56	30.4	10
Sat Jan 30 04:12:51 2010	Philadelphia, Pennsylvania 19019  	clear sky	19 -7	12-Oct	7	W	17-Jan	45	30.33	10
Sat Jan 30 04:12:51 2010	Milwaukee, Wisconsin 53201  	mostly cloudy	16 -9	12-Nov	3	NW	14-Jul	67	30.37	10
Sat Jan 30 04:56:23 2010	Charlotte, North Carolina 28201  	mostly cloudy	32 0	25 -4	7	NE	28 -2	86	30.19	9
Sat Jan 30 04:56:23 2010	San Jose, California 95101  	mostly cloudy	52 11	50 10	6	SE	52 11	100	29.97	10
Sat Jan 30 04:56:24 2010	Memphis, Tennessee 37501  	mostly cloudy	30 -1	19 -7	16	NE	27 -3	86	29.93	3
Sat Jan 30 04:56:24 2010	San Diego, California 92101  	mostly cloudy	59 15	59 15	3	W	52 11	77	30.04	6
Sat Jan 30 04:56:24 2010	Denver, Colorado 80214  	clear sky	30 -1	30 -1	0		12-Oct	43	30	10
Sat Jan 30 04:56:25 2010	El Paso, Texas 79901  	clear sky	41 5	36 2	8	NE	30 -1	65	30.11	10
Sat Jan 30 04:56:25 2010	Los Angeles, California 90001  	clear sky	57 14	57 14	0		52 11	82	30.02	8
Sat Jan 30 04:56:26 2010	New York, New York 10001  	clear sky	18 -8	14-Jul	20-Sep	NW	0 -18	44	30.31	10
Sat Jan 30 04:56:26 2010	Baltimore, Maryland 21201  	normal	23 -5	23 -5			0 -18	35	30.37	
Sat Jan 30 04:56:26 2010	Las Vegas, Nevada 89101  	mostly cloudy	52 11	52 11	0		34 1	50	30.01	10
Sat Jan 30 04:56:27 2010	Washington, Washington D. C. 20001  	mostly cloudy	25 -4	11-Dec	17	NW	0 -18	33	30.38	10
Sat Jan 30 04:56:27 2010	Austin, Texas 73301  	clear sky	36 2	27 -3	13-24	NW	25 -4	64	30.11	10
Sat Jan 30 04:56:27 2010	San Francisco, California 94101  	light rain	54 12	52 11	7	SE	50 10	88	29.96	10
Sat Jan 30 04:56:28 2010	Oklahoma City, Oklahoma 73101  	mostly cloudy	19 -7	14-Jun	13	N	16 -9	86	30.13	10
Sat Jan 30 04:56:28 2010	Fort Worth, Texas 76101  	mostly cloudy	28 -2	16 -9	15-28	NW	23 -5	80	30.11	10
Sat Jan 30 04:56:28 2010	Nashville, Tennessee 37201  	light snow	27 -3	18 -8	10	NE	25 -4	93	30.03	1
Sat Jan 30 04:56:29 2010	Chicago, Illinois 60601  	light snow	19 -7	14-Jun	12	SE	14 -10	79	30.33	6
Sat Jan 30 04:56:29 2010	Portland, Oregon 97201  	clear sky	16 -9	-3 -19	26-33	W	-2 -19	44	30.1	10
Sat Jan 30 04:56:29 2010	Phoenix, Arizona 85001  	clear sky	61 16	61 16	0		46 8	59	30	10
Sat Jan 30 04:56:30 2010	San Antonio, Texas 78201  	clear sky	37 3	30 -1	9	N	27 -3	65	30.1	10
Sat Jan 30 04:56:30 2010	Indianapolis, Indiana 46201  	light snow	18 -8	16-Apr	15-22	E	13-Sep	67	30.25	9
Sat Jan 30 04:56:31 2010	Dallas, Texas 75201  	mostly cloudy	30 -1	19 -7	15-25	NW	25 -4	80	30.1	10
Sat Jan 30 04:56:31 2010	Columbus, Ohio 43085  	clear sky	14 -10	16-Mar	8	NE	16-Mar	61	30.32	10
Sat Jan 30 04:56:31 2010	Jacksonville, Florida 32099  	mostly cloudy	55 13	54 12	5	N	52 11	88	30.03	10
Sat Jan 30 04:56:32 2010	Houston, Texas 77001  	mostly cloudy	39 4	30 -1	18-24	NW	32 0	75	30.04	10
Sat Jan 30 04:56:32 2010	Milwaukee, Wisconsin 53201  	mostly cloudy	16 -9	14-Jul	6	NW	15-May	62	30.37	10
Sat Jan 30 04:56:32 2010	Seattle, Washington 98101  	mostly cloudy	54 12	54 12	0		39 4	58	29.96	10
Sat Jan 30 04:56:33 2010	Detroit, Michigan 48201  	clear sky	14 -10	14-Jun	5	NE	16-Mar	61	30.4	10
Sat Jan 30 04:56:33 2010	Philadelphia, Pennsylvania 19019  	clear sky	19 -7	12-Oct	7	W	16-Mar	49	30.33	10
Sat Jan 30 05:40:03 2010	Charlotte, North Carolina 28201  	mostly cloudy	32 0	25 -4	7	NE	28 -2	86	30.19	9
Sat Jan 30 05:40:03 2010	San Diego, California 92101  	mostly cloudy	59 15	59 15	3	W	52 11	77	30.04	6
Sat Jan 30 05:40:03 2010	San Jose, California 95101  	mostly cloudy	52 11	50 10	6	SE	52 11	100	29.97	10
Sat Jan 30 05:40:04 2010	Memphis, Tennessee 37501  	mostly cloudy	30 -1	19 -7	16	NE	27 -3	86	29.93	3
Sat Jan 30 05:40:04 2010	Denver, Colorado 80214  	clear sky	30 -1	30 -1	0		12-Oct	43	30	10
Sat Jan 30 05:40:04 2010	Los Angeles, California 90001  	clear sky	57 14	57 14	0		52 11	82	30.02	8
Sat Jan 30 05:40:05 2010	New York, New York 10001  	clear sky	18 -8	14-Jul	20-Sep	NW	0 -18	44	30.31	10
Sat Jan 30 05:40:05 2010	El Paso, Texas 79901  	clear sky	41 5	36 2	8	NE	30 -1	65	30.11	10
Sat Jan 30 05:40:05 2010	Baltimore, Maryland 21201  	normal	23 -5	23 -5			0 -18	35	30.37	
Sat Jan 30 05:40:06 2010	Washington, Washington D. C. 20001  	mostly cloudy	25 -4	11-Dec	17	NW	0 -18	33	30.38	10
Sat Jan 30 05:40:06 2010	Austin, Texas 73301  	clear sky	36 2	27 -3	13-24	NW	25 -4	64	30.11	10
Sat Jan 30 05:40:06 2010	Las Vegas, Nevada 89101  	mostly cloudy	52 11	52 11	0		34 1	50	30.01	10
Sat Jan 30 05:40:07 2010	Oklahoma City, Oklahoma 73101  	mostly cloudy	19 -7	14-Jun	13	N	16 -9	86	30.13	10
Sat Jan 30 05:40:07 2010	Fort Worth, Texas 76101  	mostly cloudy	28 -2	16 -9	15-28	NW	23 -5	80	30.11	10
Sat Jan 30 05:40:07 2010	Nashville, Tennessee 37201  	light snow	27 -3	18 -8	10	NE	25 -4	93	30.03	1
Sat Jan 30 05:40:07 2010	San Francisco, California 94101  	light rain	54 12	52 11	7	SE	50 10	88	29.96	10
Sat Jan 30 05:40:08 2010	Chicago, Illinois 60601  	light snow	19 -7	14-Jun	12	SE	14 -10	79	30.33	6
Sat Jan 30 05:40:08 2010	Portland, Oregon 97201  	clear sky	16 -9	-3 -19	26-33	W	-2 -19	44	30.1	10
Sat Jan 30 05:40:08 2010	Phoenix, Arizona 85001  	clear sky	61 16	61 16	0		46 8	59	30	10
Sat Jan 30 05:40:09 2010	San Antonio, Texas 78201  	clear sky	37 3	30 -1	9	N	27 -3	65	30.1	10
Sat Jan 30 05:40:09 2010	Indianapolis, Indiana 46201  	light snow	18 -8	16-Apr	15-22	E	13-Sep	67	30.25	9
Sat Jan 30 05:40:10 2010	Dallas, Texas 75201  	mostly cloudy	30 -1	19 -7	15-25	NW	25 -4	80	30.1	10
Sat Jan 30 05:40:10 2010	Columbus, Ohio 43085  	clear sky	14 -10	16-Mar	8	NE	16-Mar	61	30.32	10
Sat Jan 30 05:40:10 2010	Jacksonville, Florida 32099  	mostly cloudy	55 13	54 12	5	N	52 11	88	30.03	10
Sat Jan 30 05:40:11 2010	Houston, Texas 77001  	mostly cloudy	39 4	30 -1	18-24	NW	32 0	75	30.04	10
Sat Jan 30 05:40:11 2010	Milwaukee, Wisconsin 53201  	mostly cloudy	16 -9	14-Jul	6	NW	15-May	62	30.37	10
Sat Jan 30 05:40:11 2010	Seattle, Washington 98101  	mostly cloudy	54 12	54 12	0		39 4	58	29.96	10
Sat Jan 30 05:40:12 2010	Detroit, Michigan 48201  	clear sky	14 -10	14-Jun	5	NE	16-Mar	61	30.4	10
Sat Jan 30 05:40:12 2010	Philadelphia, Pennsylvania 19019  	clear sky	19 -7	12-Oct	7	W	16-Mar	49	30.33	10
Sat Jan 30 06:24:12 2010	Charlotte, North Carolina 28201  	mostly cloudy	32 0	24 -4	10	NE	27 -3	80	30.14	8
Sat Jan 30 06:24:12 2010	San Jose, California 95101  	mostly cloudy	52 11	50 10	7	SE	52 11	100	29.96	10
Sat Jan 30 06:24:13 2010	Memphis, Tennessee 37501  	mostly cloudy	30 -1	20 -7	12	NE	27 -3	86	29.93	5
Sat Jan 30 06:24:13 2010	Denver, Colorado 80214  	clear sky	25 -4	25 -4	0		11-Dec	58	30.01	10
Sat Jan 30 06:24:13 2010	San Diego, California 92101  	mostly cloudy	57 14	57 14	0		52 11	82	30.04	10
Sat Jan 30 06:24:14 2010	El Paso, Texas 79901  	clear sky	37 3	35 2	3	NE	30 -1	75	30.12	10
Sat Jan 30 06:24:14 2010	Los Angeles, California 90001  	clear sky	57 14	57 14	0		52 11	82	30.02	6
Sat Jan 30 06:24:15 2010	New York, New York 10001  	clear sky	18 -8	14-Jun	24-Oct	W	0 -18	44	30.29	10
Sat Jan 30 06:24:15 2010	Baltimore, Maryland 21201  	normal	23 -5	23 -5			17-Jan	38	30.37	
Sat Jan 30 06:24:16 2010	Washington, Washington D. C. 20001  	mostly cloudy	23 -5	12-Nov	12	NW	17-Jan	38	30.39	10
Sat Jan 30 06:24:16 2010	Las Vegas, Nevada 89101  	mostly cloudy	50 10	50 10	3	W	36 2	58	30.01	10
Sat Jan 30 06:24:17 2010	Oklahoma City, Oklahoma 73101  	mostly cloudy	19 -7	15-May	14	N	16 -9	86	30.13	10
Sat Jan 30 06:24:17 2010	Austin, Texas 73301  	clear sky	34 1	23 -5	17-23	N	25 -4	69	30.12	10
Sat Jan 30 06:24:17 2010	San Francisco, California 94101  	light rain	52 11	52 11	3	SW	50 10	94	29.97	4
Sat Jan 30 06:24:18 2010	Fort Worth, Texas 76101  	mostly cloudy	28 -2	17 -8	13	NW	23 -5	80	30.12	10
Sat Jan 30 06:24:18 2010	Nashville, Tennessee 37201  	light snow	27 -3	18 -8	10	NE	25 -4	93	29.97	1
Sat Jan 30 06:24:19 2010	Portland, Oregon 97201  	clear sky	16 -9	-3 -19	25-39	W	-2 -19	44	30.1	10
Sat Jan 30 06:24:19 2010	Phoenix, Arizona 85001  	clear sky	59 15	59 15	0		46 8	63	30	10
Sat Jan 30 06:24:20 2010	Chicago, Illinois 60601  	light snow	19 -7	13-Aug	10	SE	11-Dec	73	30.33	10
Sat Jan 30 06:24:20 2010	San Antonio, Texas 78201  	clear sky	37 3	32 0	17-Jul	N	27 -3	65	30.12	10
Sat Jan 30 06:24:20 2010	Indianapolis, Indiana 46201  	light snow	16 -9	16-Mar	22-Dec	NE	14-Jul	67	30.22	9
Sat Jan 30 06:24:21 2010	Jacksonville, Florida 32099  	mostly cloudy	57 14	56 13	5	N	52 11	82	30.03	10
Sat Jan 30 06:24:22 2010	Dallas, Texas 75201  	mostly cloudy	30 -1	19 -7	16-21	NW	25 -4	80	30.11	10
Sat Jan 30 06:24:22 2010	Columbus, Ohio 43085  	clear sky	14 -10	17-Feb	9	E	16-Mar	61	30.31	10
Sat Jan 30 06:24:22 2010	Houston, Texas 77001  	mostly cloudy	39 4	30 -1	17-29	NW	30 -1	70	30.06	10
Sat Jan 30 06:24:23 2010	Milwaukee, Wisconsin 53201  	mostly cloudy	16 -9	14-Jun	7	W	16-Mar	57	30.35	10
Sat Jan 30 06:24:23 2010	Seattle, Washington 98101  	mostly cloudy	52 11	52 11	3	N	43 6	71	29.96	10
Sat Jan 30 06:24:24 2010	Detroit, Michigan 48201  	clear sky	14 -10	13-Sep	3	NE	16-Mar	61	30.39	10
Sat Jan 30 06:24:24 2010	Philadelphia, Pennsylvania 19019  	clear sky	19 -7	13-Sep	8	NW	16-Mar	49	30.34	10
Sat Jan 30 07:09:59 2010	Charlotte, North Carolina 28201  	mostly cloudy	30 -1	23 -5	7	E	27 -3	86	30.12	10
Sat Jan 30 07:09:59 2010	San Jose, California 95101  	mostly cloudy	52 11	50 10	7	SE	52 11	100	29.98	10
Sat Jan 30 07:10:00 2010	Denver, Colorado 80214  	clear sky	27 -3	21 -6	5	S	11-Dec	54	30.02	10
Sat Jan 30 07:10:00 2010	Memphis, Tennessee 37501  	mostly cloudy	28 -2	18 -8	12	N	27 -3	93	29.93	6
Sat Jan 30 07:10:00 2010	San Diego, California 92101  	clear sky	57 14	57 14	0		50 10	77	30.04	10
Sat Jan 30 07:10:01 2010	New York, New York 10001  	clear sky	16 -9	13-Aug	23-May	N	-2 -19	44	30.3	10
Sat Jan 30 07:10:01 2010	El Paso, Texas 79901  	clear sky	37 3	32 0	6	N	30 -1	75	30.11	10
Sat Jan 30 07:10:01 2010	Los Angeles, California 90001  	clear sky	55 13	55 13	0		52 11	88	30.02	4
Sat Jan 30 07:10:02 2010	Las Vegas, Nevada 89101  	mostly cloudy	48 9	46 8	5	W	37 3	66	30.01	10
Sat Jan 30 07:10:02 2010	Baltimore, Maryland 21201  	normal	23 -5	23 -5			17-Jan	38	30.37	
Sat Jan 30 07:10:03 2010	Washington, Washington D. C. 20001  	mostly cloudy	23 -5	12-Nov	12	NW	17-Jan	38	30.38	10
Sat Jan 30 07:10:03 2010	Austin, Texas 73301  	clear sky	34 1	25 -4	14-23	N	27 -3	75	30.12	10
Sat Jan 30 07:10:03 2010	San Francisco, California 94101  	mostly cloudy	52 11	51 11	5	S	50 10	94	29.98	10
Sat Jan 30 07:10:04 2010	Oklahoma City, Oklahoma 73101  	mostly cloudy	19 -7	16-Apr	18	N	16 -9	86	30.14	10
Sat Jan 30 07:10:04 2010	Fort Worth, Texas 76101  	mostly cloudy	28 -2	17 -8	14	NW	21 -6	74	30.13	10
Sat Jan 30 07:10:04 2010	Nashville, Tennessee 37201  	mostly cloudy	27 -3	16 -9	12	NE	25 -4	93	29.97	1
Sat Jan 30 07:10:05 2010	Chicago, Illinois 60601  	light snow	19 -7	13-Sep	8	SE	12-Oct	67	30.33	9
Sat Jan 30 07:10:05 2010	Portland, Oregon 97201  	clear sky	16 -9	-3 -19	25-36	W	-2 -19	44	30.11	10
Sat Jan 30 07:10:05 2010	Phoenix, Arizona 85001  	clear sky	57 14	57 14	0		48 9	72	30.01	10
Sat Jan 30 07:10:06 2010	San Antonio, Texas 78201  	clear sky	36 2	31 -1	17-Jun	N	27 -3	69	30.14	10
Sat Jan 30 07:10:06 2010	Indianapolis, Indiana 46201  	light snow	16 -9	17-Feb	13	NE	14-Jul	67	30.22	9
Sat Jan 30 07:10:07 2010	Dallas, Texas 75201  	mostly cloudy	30 -1	19 -7	14	NW	25 -4	80	30.12	10
Sat Jan 30 07:10:07 2010	Columbus, Ohio 43085  	clear sky	14 -10	0 -18	12	E	16-Mar	61	30.3	10
Sat Jan 30 07:10:07 2010	Jacksonville, Florida 32099  	mostly cloudy	57 14	56 13	6	N	54 12	88	30.01	10
Sat Jan 30 07:10:08 2010	Milwaukee, Wisconsin 53201  	mostly cloudy	16 -9	15-May	8	W	16-Mar	57	30.34	10
Sat Jan 30 07:10:08 2010	Houston, Texas 77001  	mostly cloudy	39 4	30 -1	18-23	NW	30 -1	70	30.06	10
Sat Jan 30 07:10:08 2010	Seattle, Washington 98101  	mostly cloudy	50 10	50 10	0		43 6	76	29.97	10
Sat Jan 30 07:10:09 2010	Philadelphia, Pennsylvania 19019  	clear sky	19 -7	13-Aug	10	NW	0 -18	41	30.32	10
Sat Jan 30 07:10:09 2010	Detroit, Michigan 48201  	clear sky	11-Dec	16-Apr	5	NE	16-Mar	66	30.38	10
Sat Jan 30 07:52:49 2010	San Jose, California 95101  	mostly cloudy	52 11	50 10	7	SE	52 11	100	30	10
Sat Jan 30 07:52:50 2010	Denver, Colorado 80214  	clear sky	27 -3	19 -7	7	S	12-Oct	50	30.02	10
Sat Jan 30 07:52:50 2010	Charlotte, North Carolina 28201  	mostly cloudy	30 -1	20 -7	17-Dec	NE	27 -3	86	30.06	7
Sat Jan 30 07:52:50 2010	San Diego, California 92101  	clear sky	55 13	55 13	0		48 9	77	30.05	8
Sat Jan 30 07:52:51 2010	Memphis, Tennessee 37501  	mostly cloudy	28 -2	17 -8	13	N	25 -4	86	29.95	6
Sat Jan 30 07:52:51 2010	El Paso, Texas 79901  	clear sky	37 3	32 0	6	N	30 -1	75	30.12	10
Sat Jan 30 07:52:51 2010	Los Angeles, California 90001  	clear sky	55 13	55 13	0		52 11	88	30.03	4
Sat Jan 30 07:52:52 2010	New York, New York 10001  	clear sky	16 -9	15-May	23-Aug	W	-2 -19	44	30.3	10
Sat Jan 30 07:52:52 2010	Baltimore, Maryland 21201  	normal	21 -6	21 -6			0 -18	38	30.36	
Sat Jan 30 07:52:53 2010	Washington, Washington D. C. 20001  	mostly cloudy	21 -6	13-Aug	14	NW	17-Jan	41	30.37	10
Sat Jan 30 07:52:53 2010	Austin, Texas 73301  	clear sky	34 1	26 -3	22-Oct	N	25 -4	69	30.13	10
Sat Jan 30 07:52:53 2010	Las Vegas, Nevada 89101  	mostly cloudy	48 9	48 9	0		36 2	62	30.01	10
Sat Jan 30 07:52:54 2010	Oklahoma City, Oklahoma 73101  	mostly cloudy	19 -7	16-Apr	16	N	16 -9	86	30.13	10
Sat Jan 30 07:52:54 2010	Fort Worth, Texas 76101  	mostly cloudy	28 -2	16 -9	15-21	NW	21 -6	74	30.12	10
Sat Jan 30 07:52:54 2010	Nashville, Tennessee 37201  	light snow	27 -3	18 -8	9	NE	23 -5	86	29.95	2.5
Sat Jan 30 07:52:54 2010	San Francisco, California 94101  	mostly cloudy	54 12	53 12	5	S	50 10	88	29.99	10
Sat Jan 30 07:52:55 2010	Portland, Oregon 97201  	clear sky	14 -10	-4 -20	20-30	W	-4 -20	44	30.1	10
Sat Jan 30 07:52:55 2010	Phoenix, Arizona 85001  	clear sky	55 13	55 13	3	E	46 8	72	30.01	10
Sat Jan 30 07:52:56 2010	Chicago, Illinois 60601  	light snow	19 -7	12-Oct	7	SE	12-Oct	67	30.32	9
Sat Jan 30 07:52:56 2010	San Antonio, Texas 78201  	clear sky	34 1	28 -2	7	N	27 -3	75	30.14	10
Sat Jan 30 07:52:56 2010	Indianapolis, Indiana 46201  	light snow	16 -9	17-Feb	14	NE	14-Jul	67	30.21	10
Sat Jan 30 07:52:57 2010	Columbus, Ohio 43085  	clear sky	14 -10	0 -18	12	E	16-Mar	61	30.27	10
Sat Jan 30 07:52:57 2010	Jacksonville, Florida 32099  	mostly cloudy	57 14	55 13	9	N	54 12	88	30	10
Sat Jan 30 07:52:58 2010	Dallas, Texas 75201  	mostly cloudy	30 -1	18 -8	18-24	NW	23 -5	74	30.13	10
Sat Jan 30 07:52:58 2010	Houston, Texas 77001  	mostly cloudy	39 4	30 -1	16-24	NW	30 -1	70	30.06	10
Sat Jan 30 07:52:58 2010	Seattle, Washington 98101  	mostly cloudy	48 9	48 9	0		45 7	87	29.98	10
Sat Jan 30 07:52:59 2010	Philadelphia, Pennsylvania 19019  	clear sky	19 -7	13-Aug	9	NW	0 -18	41	30.34	10
Sat Jan 30 07:52:59 2010	Milwaukee, Wisconsin 53201  	mostly cloudy	16 -9	16-Apr	10	NW	16-Mar	57	30.34	10
Sat Jan 30 07:52:59 2010	Detroit, Michigan 48201  	clear sky	11-Dec	11-Dec	0		16-Mar	66	30.37	10
Sat Jan 30 08:36:03 2010	San Jose, California 95101  	mostly cloudy	52 11	50 10	7	SE	52 11	100	30	10
Sat Jan 30 08:36:04 2010	Denver, Colorado 80214  	clear sky	27 -3	19 -7	7	S	12-Oct	50	30.02	10
Sat Jan 30 08:36:04 2010	Charlotte, North Carolina 28201  	mostly cloudy	30 -1	20 -7	17-Dec	NE	27 -3	86	30.06	7
Sat Jan 30 08:36:04 2010	San Diego, California 92101  	clear sky	55 13	55 13	0		48 9	77	30.05	8
Sat Jan 30 08:36:05 2010	Memphis, Tennessee 37501  	mostly cloudy	28 -2	17 -8	13	N	25 -4	86	29.95	6
Sat Jan 30 08:36:05 2010	El Paso, Texas 79901  	clear sky	37 3	32 0	6	N	30 -1	75	30.12	10
Sat Jan 30 08:36:05 2010	Los Angeles, California 90001  	clear sky	55 13	55 13	0		52 11	88	30.03	4
Sat Jan 30 08:36:06 2010	New York, New York 10001  	clear sky	16 -9	15-May	23-Aug	W	-2 -19	44	30.3	10
Sat Jan 30 08:36:06 2010	Baltimore, Maryland 21201  	normal	21 -6	21 -6			0 -18	38	30.36	
Sat Jan 30 08:36:06 2010	Las Vegas, Nevada 89101  	mostly cloudy	48 9	48 9	0		36 2	62	30.01	10
Sat Jan 30 08:36:07 2010	Washington, Washington D. C. 20001  	mostly cloudy	21 -6	13-Aug	14	NW	17-Jan	41	30.37	10
Sat Jan 30 08:36:07 2010	Austin, Texas 73301  	clear sky	34 1	26 -3	22-Oct	N	25 -4	69	30.13	10
Sat Jan 30 08:36:07 2010	San Francisco, California 94101  	mostly cloudy	54 12	53 12	5	S	50 10	88	29.99	10
Sat Jan 30 08:36:08 2010	Oklahoma City, Oklahoma 73101  	mostly cloudy	19 -7	16-Apr	16	N	16 -9	86	30.13	10
Sat Jan 30 08:36:08 2010	Fort Worth, Texas 76101  	mostly cloudy	28 -2	16 -9	15-21	NW	21 -6	74	30.12	10
Sat Jan 30 08:36:08 2010	Nashville, Tennessee 37201  	light snow	27 -3	18 -8	9	NE	23 -5	86	29.95	2.5
Sat Jan 30 08:36:08 2010	Phoenix, Arizona 85001  	clear sky	55 13	55 13	3	E	46 8	72	30.01	10
Sat Jan 30 08:36:09 2010	Chicago, Illinois 60601  	light snow	19 -7	12-Oct	7	SE	12-Oct	67	30.32	9
Sat Jan 30 08:36:09 2010	San Antonio, Texas 78201  	clear sky	34 1	28 -2	7	N	27 -3	75	30.14	10
Sat Jan 30 08:36:09 2010	Portland, Oregon 97201  	clear sky	14 -10	-4 -20	20-30	W	-4 -20	44	30.1	10
Sat Jan 30 08:36:10 2010	Jacksonville, Florida 32099  	mostly cloudy	57 14	55 13	9	N	54 12	88	30	10
Sat Jan 30 08:36:10 2010	Indianapolis, Indiana 46201  	light snow	16 -9	17-Feb	14	NE	14-Jul	67	30.21	10
Sat Jan 30 08:36:11 2010	Dallas, Texas 75201  	mostly cloudy	30 -1	18 -8	18-24	NW	23 -5	74	30.13	10
Sat Jan 30 08:36:11 2010	Columbus, Ohio 43085  	clear sky	14 -10	0 -18	12	E	16-Mar	61	30.27	10
Sat Jan 30 08:36:11 2010	Houston, Texas 77001  	mostly cloudy	39 4	30 -1	16-24	NW	30 -1	70	30.06	10
Sat Jan 30 08:36:12 2010	Milwaukee, Wisconsin 53201  	mostly cloudy	16 -9	16-Apr	10	NW	16-Mar	57	30.34	10
Sat Jan 30 08:36:12 2010	Detroit, Michigan 48201  	clear sky	11-Dec	11-Dec	0		16-Mar	66	30.37	10
Sat Jan 30 08:36:12 2010	Seattle, Washington 98101  	mostly cloudy	48 9	48 9	0		45 7	87	29.98	10
Sat Jan 30 08:36:13 2010	Philadelphia, Pennsylvania 19019  	clear sky	19 -7	13-Aug	9	NW	0 -18	41	30.34	10
Sat Jan 30 11:18:07 2010	San Jose, California 95101  	mostly cloudy	50 10	50 10	0		48 9	94	30.02	10
Sat Jan 30 11:18:08 2010	Denver, Colorado 80214  	clear sky	21 -6	14 -10	5	S	12-Oct	62	30.02	10
Sat Jan 30 11:18:08 2010	Charlotte, North Carolina 28201  	mostly cloudy	30 -1	22 -6	21-Sep	NE	28 -2	93	30.02	2
Sat Jan 30 11:18:08 2010	San Diego, California 92101  	clear sky	54 12	54 12	0		46 8	77	30.02	5
Sat Jan 30 11:18:09 2010	Memphis, Tennessee 37501  	mostly cloudy	27 -3	16 -9	13	N	21 -6	80	29.96	7
Sat Jan 30 11:18:09 2010	Los Angeles, California 90001  	mostly cloudy	54 12	54 12	0		48 9	82	30.02	7
Sat Jan 30 11:18:10 2010	New York, New York 10001  	clear sky	16 -9	16-Mar	18-Dec	W	0 -18	48	30.3	10
Sat Jan 30 11:18:10 2010	Baltimore, Maryland 21201  	normal	21 -6	21 -6			16-Mar	45	30.31	
Sat Jan 30 11:18:10 2010	El Paso, Texas 79901  	clear sky	34 1	34 1	0		28 -2	80	30.12	10
Sat Jan 30 11:18:11 2010	Austin, Texas 73301  	clear sky	30 -1	22 -6	9	N	25 -4	80	30.12	10
Sat Jan 30 11:18:11 2010	Washington, Washington D. C. 20001  	mostly cloudy	21 -6	13-Aug	14	N	16-Mar	45	30.32	10
Sat Jan 30 11:18:11 2010	Las Vegas, Nevada 89101  	mostly cloudy	46 8	43 6	6	S	36 2	66	29.99	10
Sat Jan 30 11:18:12 2010	Oklahoma City, Oklahoma 73101  	mostly cloudy	19 -7	15-May	15	N	16 -9	86	30.15	10
Sat Jan 30 11:18:12 2010	San Francisco, California 94101  	clear sky	52 11	52 11	3	S	48 9	87	30.01	10
Sat Jan 30 11:18:13 2010	Fort Worth, Texas 76101  	mostly cloudy	25 -4	11-Dec	16-25	NW	19 -7	80	30.14	10
Sat Jan 30 11:18:13 2010	Nashville, Tennessee 37201  	light snow	27 -3	18 -8	9	NE	23 -5	86	29.9	2.5
Sat Jan 30 11:18:13 2010	Phoenix, Arizona 85001  	mostly cloudy	54 12	53 12	5	E	45 7	71	30	10
Sat Jan 30 11:18:14 2010	San Antonio, Texas 78201  	clear sky	32 0	29 -2	3	NW	25 -4	74	30.14	10
Sat Jan 30 11:18:14 2010	Portland, Oregon 97201  	clear sky	11-Dec	-6 -21	20-26	W	-4 -20	47	30.11	10
Sat Jan 30 11:18:14 2010	Chicago, Illinois 60601  	mostly cloudy	18 -8	13-Sep	7	E	13-Sep	67	30.28	10
Sat Jan 30 11:18:15 2010	Indianapolis, Indiana 46201  	mostly cloudy	16 -9	17-Jan	15	NE	14-Jul	67	30.15	10
Sat Jan 30 11:18:15 2010	Jacksonville, Florida 32099  	mostly cloudy	57 14	57 14	0		55 13	94	29.91	10
Sat Jan 30 11:18:16 2010	Dallas, Texas 75201  	mostly cloudy	28 -2	16 -9	17-23	NW	21 -6	74	30.14	10
Sat Jan 30 11:18:16 2010	Columbus, Ohio 43085  	clear sky	14 -10	-1 -18	14	E	16-Mar	61	30.19	10
Sat Jan 30 11:18:17 2010	Houston, Texas 77001  	clear sky	36 2	28 -2	12	N	27 -3	69	30.06	10
Sat Jan 30 11:18:17 2010	Milwaukee, Wisconsin 53201  	light snow	18 -8	13 -11	3	N	13-Sep	67	30.3	8
Sat Jan 30 11:18:17 2010	Seattle, Washington 98101  	light rain	46 8	46 8	0		43 6	87	29.98	7
Sat Jan 30 11:18:18 2010	Philadelphia, Pennsylvania 19019  	clear sky	18 -8	15-May	12	N	0 -18	44	30.32	10
Sat Jan 30 11:18:18 2010	Detroit, Michigan 48201  	clear sky	12-Oct	16-Apr	3	N	16-Mar	72	30.31	10
Sat Jan 30 12:05:34 2010	Charlotte, North Carolina 28201  	mostly cloudy	30 -1	20 -7	13-22	E	27 -3	86	29.97	4
Sat Jan 30 12:05:34 2010	San Jose, California 95101  	clear sky	48 9	48 9	0		48 9	100	30.01	9
Sat Jan 30 12:05:35 2010	Denver, Colorado 80214  	clear sky	23 -5	17 -8	5	SE	12-Oct	58	30.01	10
Sat Jan 30 12:05:35 2010	Memphis, Tennessee 37501  	mostly cloudy	25 -4	13 -11	13-22	N	21 -6	86	29.95	5
Sat Jan 30 12:05:35 2010	San Diego, California 92101  	clear sky	52 11	52 11	0		46 8	82	30.02	4
Sat Jan 30 12:05:36 2010	New York, New York 10001  	clear sky	16 -9	16-Mar	20-Dec	NW	-2 -19	44	30.3	10
Sat Jan 30 12:05:36 2010	El Paso, Texas 79901  	clear sky	30 -1	27 -3	3	NE	28 -2	93	30.12	10
Sat Jan 30 12:05:36 2010	Los Angeles, California 90001  	clear sky	54 12	54 12	0		48 9	82	30	6
Sat Jan 30 12:05:37 2010	Las Vegas, Nevada 89101  	mostly cloudy	45 7	42 6	5	SW	36 2	70	29.98	10
Sat Jan 30 12:05:37 2010	Baltimore, Maryland 21201  	normal	21 -6	21 -6			17-Jan	41	30.29	
Sat Jan 30 12:05:38 2010	Washington, Washington D. C. 20001  	mostly cloudy	21 -6	12-Nov	8	N	17-Jan	41	30.3	10
Sat Jan 30 12:05:38 2010	Austin, Texas 73301  	mostly cloudy	32 0	24 -4	10	N	25 -4	74	30.14	10
Sat Jan 30 12:05:38 2010	San Francisco, California 94101  	clear sky	48 9	46 8	5	S	46 8	93	30	10
Sat Jan 30 12:05:39 2010	Oklahoma City, Oklahoma 73101  	mostly cloudy	19 -7	13-Aug	10	N	16 -9	86	30.15	10
Sat Jan 30 12:05:39 2010	Fort Worth, Texas 76101  	mostly cloudy	25 -4	13 -11	14-24	NW	19 -7	80	30.14	10
Sat Jan 30 12:05:39 2010	Nashville, Tennessee 37201  	light snow	25 -4	14 -10	12	N	23 -5	93	29.9	2.5
Sat Jan 30 12:05:40 2010	Portland, Oregon 97201  	clear sky	11-Dec	-6 -21	20-31	W	-2 -19	52	30.12	10
Sat Jan 30 12:05:40 2010	Chicago, Illinois 60601  	mostly cloudy	19 -7	13-Sep	8	E	13-Sep	62	30.27	10
Sat Jan 30 12:05:40 2010	Phoenix, Arizona 85001  	clear sky	52 11	52 11	0		45 7	76	30	10
Sat Jan 30 12:05:41 2010	San Antonio, Texas 78201  	clear sky	32 0	27 -3	5	W	25 -4	74	30.16	10
Sat Jan 30 12:05:41 2010	Indianapolis, Indiana 46201  	mostly cloudy	16 -9	16-Mar	12	NE	14-Jul	67	30.13	10
Sat Jan 30 12:05:42 2010	Dallas, Texas 75201  	mostly cloudy	27 -3	15 -9	16-30	NW	21 -6	80	30.14	10
Sat Jan 30 12:05:42 2010	Columbus, Ohio 43085  	mostly cloudy	16 -9	17-Feb	14	E	16-Mar	57	30.17	10
Sat Jan 30 12:05:42 2010	Jacksonville, Florida 32099  	mostly cloudy	57 14	57 14	0		55 13	94	29.89	8
Sat Jan 30 12:05:43 2010	Milwaukee, Wisconsin 53201  	light snow	18 -8	13-Sep	7	N	12-Oct	73	30.28	4
Sat Jan 30 12:05:43 2010	Houston, Texas 77001  	mostly cloudy	36 2	28 -2	21-Dec	NW	27 -3	69	30.08	10
Sat Jan 30 12:05:43 2010	Seattle, Washington 98101  	light rain	46 8	45 7	3	SE	43 6	87	29.98	10
Sat Jan 30 12:05:44 2010	Philadelphia, Pennsylvania 19019  	clear sky	18 -8	14-Jun	10	N	0 -18	44	30.32	10
Sat Jan 30 12:05:44 2010	Detroit, Michigan 48201  	clear sky	12-Oct	0 -18	6	N	16-Mar	72	30.29	10
Sat Jan 30 12:49:19 2010	San Jose, California 95101  	clear sky	46 8	44 7	5	S	45 7	93	30.01	10
Sat Jan 30 12:49:21 2010	Charlotte, North Carolina 28201  	mostly cloudy	28 -2	19 -7	17-Sep	NE	27 -3	93	29.96	1.7
Sat Jan 30 12:49:21 2010	San Diego, California 92101  	clear sky	52 11	52 11	0		46 8	82	30.01	4
Sat Jan 30 12:49:22 2010	Denver, Colorado 80214  	clear sky	19 -7	15 -9	3	S	12-Oct	67	30.02	10
Sat Jan 30 12:49:22 2010	Memphis, Tennessee 37501  	mostly cloudy	25 -4	16 -9	22-Sep	N	21 -6	86	29.97	7
Sat Jan 30 12:49:22 2010	Los Angeles, California 90001  	clear sky	54 12	54 12	0		48 9	82	30	6
Sat Jan 30 12:49:23 2010	New York, New York 10001  	clear sky	16 -9	15-May	18-Sep	W	-2 -19	44	30.3	10
Sat Jan 30 12:49:23 2010	El Paso, Texas 79901  	clear sky	30 -1	30 -1	0		28 -2	93	30.1	10
Sat Jan 30 12:49:24 2010	Washington, Washington D. C. 20001  	mostly cloudy	21 -6	13-Sep	12	N	17-Jan	41	30.29	10
Sat Jan 30 12:49:24 2010	Las Vegas, Nevada 89101  	clear sky	45 7	44 7	3	W	36 2	70	29.97	10
Sat Jan 30 12:49:24 2010	Baltimore, Maryland 21201  	normal	21 -6	21 -6			16-Mar	45	30.29	
Sat Jan 30 12:49:26 2010	Austin, Texas 73301  	mostly cloudy	32 0	23 -5	12	N	25 -4	74	30.15	10
Sat Jan 30 12:49:26 2010	San Francisco, California 94101  	clear sky	46 8	45 7	3	S	46 8	100	30.01	10
Sat Jan 30 12:49:27 2010	Oklahoma City, Oklahoma 73101  	mostly cloudy	19 -7	13-Aug	10	N	16 -9	86	30.17	10
Sat Jan 30 12:49:27 2010	Nashville, Tennessee 37201  	light snow	23 -5	12-Nov	13	N	19 -7	86	29.91	2.5
Sat Jan 30 12:49:28 2010	Fort Worth, Texas 76101  	mostly cloudy	25 -4	12-Nov	18	NW	18 -8	74	30.15	10
Sat Jan 30 12:49:28 2010	Portland, Oregon 97201  	clear sky	11-Dec	-4 -20	14-30	NW	-2 -19	52	30.14	10
Sat Jan 30 12:49:28 2010	Phoenix, Arizona 85001  	clear sky	52 11	50 10	6	SE	45 7	76	29.99	10
Sat Jan 30 12:49:29 2010	San Antonio, Texas 78201  	clear sky	30 -1	24 -4	6	NW	25 -4	80	30.16	10
Sat Jan 30 12:49:29 2010	Chicago, Illinois 60601  	mostly cloudy	19 -7	13-Aug	9	E	13-Sep	62	30.27	10
Sat Jan 30 12:49:30 2010	Indianapolis, Indiana 46201  	mostly cloudy	16 -9	17-Jan	16	NE	15-May	62	30.12	10
Sat Jan 30 12:49:31 2010	Jacksonville, Florida 32099  	mostly cloudy	61 16	60 16	9	S	57 14	88	29.84	10
Sat Jan 30 12:49:32 2010	Dallas, Texas 75201  	mostly cloudy	27 -3	16 -9	13-30	NW	21 -6	80	30.15	10
Sat Jan 30 12:49:32 2010	Columbus, Ohio 43085  	mostly cloudy	16 -9	17-Jan	15	E	16-Mar	57	30.17	10
Sat Jan 30 12:49:33 2010	Houston, Texas 77001  	mostly cloudy	36 2	27 -3	13-21	NW	27 -3	69	30.09	10
Sat Jan 30 12:49:33 2010	Seattle, Washington 98101  	light rain	46 8	45 7	3	S	43 6	87	29.98	10
Sat Jan 30 12:49:34 2010	Philadelphia, Pennsylvania 19019  	clear sky	18 -8	15-May	13	N	0 -18	44	30.29	10
Sat Jan 30 12:49:34 2010	Milwaukee, Wisconsin 53201  	light snow	18 -8	13-Aug	8	NW	12-Oct	73	30.26	4
Sat Jan 30 12:49:34 2010	Detroit, Michigan 48201  	clear sky	12-Oct	17-Jan	5	N	16-Mar	72	30.3	10
Sat Jan 30 13:32:25 2010	Charlotte, North Carolina 28201  	mostly cloudy	28 -2	19 -7	17-Sep	NE	27 -3	93	29.96	1.7
Sat Jan 30 13:32:25 2010	San Jose, California 95101  	clear sky	46 8	44 7	5	S	45 7	93	30.01	10
Sat Jan 30 13:32:26 2010	Denver, Colorado 80214  	clear sky	19 -7	15 -9	3	S	12-Oct	67	30.02	10
Sat Jan 30 13:32:26 2010	Memphis, Tennessee 37501  	mostly cloudy	25 -4	16 -9	22-Sep	N	21 -6	86	29.97	7
Sat Jan 30 13:32:26 2010	San Diego, California 92101  	clear sky	52 11	52 11	0		46 8	82	30.01	4
Sat Jan 30 13:32:27 2010	New York, New York 10001  	clear sky	16 -9	15-May	18-Sep	W	-2 -19	44	30.3	10
Sat Jan 30 13:32:27 2010	El Paso, Texas 79901  	clear sky	30 -1	30 -1	0		28 -2	93	30.1	10
Sat Jan 30 13:32:27 2010	Los Angeles, California 90001  	clear sky	54 12	54 12	0		48 9	82	30	6
Sat Jan 30 13:32:28 2010	Washington, Washington D. C. 20001  	mostly cloudy	21 -6	13-Sep	12	N	17-Jan	41	30.29	10
Sat Jan 30 13:32:28 2010	Las Vegas, Nevada 89101  	clear sky	45 7	44 7	3	W	36 2	70	29.97	10
Sat Jan 30 13:32:28 2010	Baltimore, Maryland 21201  	normal	21 -6	21 -6			16-Mar	45	30.29	
Sat Jan 30 13:32:29 2010	Oklahoma City, Oklahoma 73101  	mostly cloudy	19 -7	13-Aug	10	N	16 -9	86	30.17	10
Sat Jan 30 13:32:29 2010	Austin, Texas 73301  	mostly cloudy	32 0	23 -5	12	N	25 -4	74	30.15	10
Sat Jan 30 13:32:29 2010	San Francisco, California 94101  	clear sky	46 8	45 7	3	S	46 8	100	30.01	10
Sat Jan 30 13:32:30 2010	Fort Worth, Texas 76101  	mostly cloudy	25 -4	12-Nov	18	NW	18 -8	74	30.15	10
Sat Jan 30 13:32:30 2010	Nashville, Tennessee 37201  	light snow	23 -5	12-Nov	13	N	19 -7	86	29.91	2.5
Sat Jan 30 13:32:30 2010	Phoenix, Arizona 85001  	clear sky	52 11	50 10	6	SE	45 7	76	29.99	10
Sat Jan 30 13:32:31 2010	Portland, Oregon 97201  	clear sky	11-Dec	-4 -20	14-30	NW	-2 -19	52	30.14	10
Sat Jan 30 13:32:31 2010	San Antonio, Texas 78201  	clear sky	30 -1	24 -4	6	NW	25 -4	80	30.16	10
Sat Jan 30 13:32:31 2010	Chicago, Illinois 60601  	mostly cloudy	19 -7	13-Aug	9	E	13-Sep	62	30.27	10
Sat Jan 30 13:32:32 2010	Indianapolis, Indiana 46201  	mostly cloudy	16 -9	17-Jan	16	NE	15-May	62	30.12	10
Sat Jan 30 13:32:32 2010	Jacksonville, Florida 32099  	mostly cloudy	61 16	60 16	9	S	57 14	88	29.84	10
Sat Jan 30 13:32:33 2010	Dallas, Texas 75201  	mostly cloudy	27 -3	16 -9	13-30	NW	21 -6	80	30.15	10
Sat Jan 30 13:32:33 2010	Houston, Texas 77001  	mostly cloudy	36 2	27 -3	13-21	NW	27 -3	69	30.09	10
Sat Jan 30 13:32:33 2010	Columbus, Ohio 43085  	mostly cloudy	16 -9	17-Jan	15	E	16-Mar	57	30.17	10
Sat Jan 30 13:32:34 2010	Milwaukee, Wisconsin 53201  	light snow	18 -8	13-Aug	8	NW	12-Oct	73	30.26	4
Sat Jan 30 13:32:34 2010	Detroit, Michigan 48201  	clear sky	12-Oct	17-Jan	5	N	16-Mar	72	30.3	10
Sat Jan 30 13:32:34 2010	Seattle, Washington 98101  	light rain	46 8	45 7	3	S	43 6	87	29.98	10
Sat Jan 30 13:32:35 2010	Philadelphia, Pennsylvania 19019  	clear sky	18 -8	15-May	13	N	0 -18	44	30.29	10
Sat Jan 30 14:16:34 2010	San Jose, California 95101  	clear sky	46 8	45 7	3	E	45 7	93	30.01	10
Sat Jan 30 14:16:35 2010	Charlotte, North Carolina 28201  	light snow	28 -2	20 -7	16-Aug	NE	27 -3	93	29.97	1
Sat Jan 30 14:16:35 2010	San Diego, California 92101  	clear sky	50 10	50 10	0		46 8	87	30	3
Sat Jan 30 14:16:36 2010	Denver, Colorado 80214  	clear sky	21 -6	14 -10	5	SE	12-Oct	62	30.01	10
Sat Jan 30 14:16:36 2010	Memphis, Tennessee 37501  	mostly cloudy	25 -4	15 -9	10	N	21 -6	86	29.98	9
Sat Jan 30 14:16:36 2010	Los Angeles, California 90001  	clear sky	52 11	52 11	0		46 8	82	29.99	5
Sat Jan 30 14:16:37 2010	El Paso, Texas 79901  	clear sky	30 -1	27 -3	3	N	27 -3	86	30.1	10
Sat Jan 30 14:16:37 2010	New York, New York 10001  	clear sky	11-Dec	0 -18	16-Sep	W	-6 -21	43	30.28	10
Sat Jan 30 14:16:37 2010	Baltimore, Maryland 21201  	normal	21 -6	21 -6			16-Mar	45	30.28	
Sat Jan 30 14:16:38 2010	Washington, Washington D. C. 20001  	mostly cloudy	21 -6	12-Oct	10	N	17-Jan	41	30.28	10
Sat Jan 30 14:16:38 2010	Las Vegas, Nevada 89101  	clear sky	43 6	42 6	3	SW	36 2	75	29.96	10
Sat Jan 30 14:16:39 2010	Oklahoma City, Oklahoma 73101  	mostly cloudy	19 -7	13-Aug	9	N	16 -9	86	30.17	9
Sat Jan 30 14:16:39 2010	Austin, Texas 73301  	mostly cloudy	34 1	26 -3	10	N	25 -4	69	30.16	10
Sat Jan 30 14:16:39 2010	San Francisco, California 94101  	clear sky	46 8	46 8	0		46 8	100	30.01	10
Sat Jan 30 14:16:40 2010	Fort Worth, Texas 76101  	mostly cloudy	25 -4	13 -11	13	NW	18 -8	74	30.16	10
Sat Jan 30 14:16:40 2010	Nashville, Tennessee 37201  	light snow	23 -5	12-Nov	13	N	19 -7	86	29.92	2.5
Sat Jan 30 14:16:40 2010	Phoenix, Arizona 85001  	clear sky	52 11	50 10	7	E	43 6	71	29.97	10
Sat Jan 30 14:16:41 2010	Portland, Oregon 97201  	clear sky	12-Oct	-9 -23	20-30	NW	-2 -19	56	30.13	10
Sat Jan 30 14:16:41 2010	San Antonio, Texas 78201  	clear sky	30 -1	23 -5	7	NW	25 -4	80	30.17	10
Sat Jan 30 14:16:41 2010	Chicago, Illinois 60601  	mostly cloudy	19 -7	14-Jun	12	E	13-Sep	62	30.27	10
Sat Jan 30 14:16:42 2010	Indianapolis, Indiana 46201  	mostly cloudy	16 -9	16-Mar	12	NE	15-May	62	30.11	10
Sat Jan 30 14:16:42 2010	Jacksonville, Florida 32099  	mostly cloudy	61 16	60 16	10	S	57 14	88	29.83	10
Sat Jan 30 14:16:43 2010	Dallas, Texas 75201  	mostly cloudy	27 -3	15 -9	16	N	19 -7	74	30.17	10
Sat Jan 30 14:16:43 2010	Houston, Texas 77001  	mostly cloudy	34 1	25 -4	12	NW	27 -3	75	30.11	10
Sat Jan 30 14:16:43 2010	Columbus, Ohio 43085  	mostly cloudy	16 -9	17-Feb	13-18	E	15-May	62	30.13	10
Sat Jan 30 14:16:44 2010	Milwaukee, Wisconsin 53201  	light snow	19 -7	13-Sep	8	NW	11-Dec	73	30.26	7
Sat Jan 30 14:16:44 2010	Detroit, Michigan 48201  	clear sky	12-Oct	16-Apr	3	N	16-Mar	72	30.3	10
Sat Jan 30 14:16:44 2010	Seattle, Washington 98101  	light rain	45 7	42 6	5	SE	43 6	93	29.97	9
Sat Jan 30 14:16:45 2010	Philadelphia, Pennsylvania 19019  	clear sky	16 -9	16-Apr	10	N	0 -18	48	30.3	10
Sat Jan 30 15:00:45 2010	San Jose, California 95101  	clear sky	41 5	39 4	3	SE	41 5	100	30.03	10
Sat Jan 30 15:00:46 2010	Charlotte, North Carolina 28201  	light snow	28 -2	17 -8	13	NE	27 -3	93	29.97	0.7
Sat Jan 30 15:00:46 2010	Denver, Colorado 80214  	clear sky	21 -6	14 -10	5	S	13-Sep	58	30.02	10
Sat Jan 30 15:00:46 2010	San Diego, California 92101  	mostly cloudy	48 9	48 9	0		46 8	93	29.99	4
Sat Jan 30 15:00:47 2010	Memphis, Tennessee 37501  	mostly cloudy	25 -4	15 -9	10	N	21 -6	86	30.02	8
Sat Jan 30 15:00:47 2010	Los Angeles, California 90001  	clear sky	52 11	52 11	0		45 7	76	29.98	7
Sat Jan 30 15:00:48 2010	El Paso, Texas 79901  	clear sky	30 -1	24 -4	6	N	27 -3	86	30.11	10
Sat Jan 30 15:00:48 2010	New York, New York 10001  	clear sky	11-Dec	-1 -18	18-Oct	W	-6 -21	43	30.29	10
Sat Jan 30 15:00:48 2010	Baltimore, Maryland 21201  	normal	21 -6	21 -6			17-Jan	41	30.25	
Sat Jan 30 15:00:49 2010	Austin, Texas 73301  	mostly cloudy	32 0	22 -6	15-20	NW	25 -4	74	30.18	10
Sat Jan 30 15:00:49 2010	Washington, Washington D. C. 20001  	mostly cloudy	21 -6	13-Sep	12	NE	16-Mar	45	30.25	10
Sat Jan 30 15:00:49 2010	Las Vegas, Nevada 89101  	clear sky	43 6	40 4	5	W	36 2	75	29.96	10
Sat Jan 30 15:00:50 2010	Oklahoma City, Oklahoma 73101  	mostly cloudy	19 -7	13-Aug	10	N	16 -9	86	30.19	8
Sat Jan 30 15:00:50 2010	Nashville, Tennessee 37201  	light snow	21 -6	13-Sep	12	N	19 -7	93	29.95	9
Sat Jan 30 15:00:50 2010	San Francisco, California 94101  	clear sky	46 8	46 8	0		45 7	93	30.02	10
Sat Jan 30 15:00:51 2010	Portland, Oregon 97201  	clear sky	12-Oct	-7 -22	16-26	NW	0 -18	61	30.14	10
Sat Jan 30 15:00:51 2010	Fort Worth, Texas 76101  	mostly cloudy	25 -4	13 -11	15	NW	18 -8	74	30.19	10
Sat Jan 30 15:00:51 2010	Phoenix, Arizona 85001  	clear sky	52 11	50 10	7	E	43 6	71	29.97	10
Sat Jan 30 15:00:52 2010	San Antonio, Texas 78201  	clear sky	30 -1	27 -3	3	NW	25 -4	80	30.18	10
Sat Jan 30 15:00:52 2010	Chicago, Illinois 60601  	light snow	18 -8	14-Jul	9	E	14-Jul	62	30.26	10
Sat Jan 30 15:00:52 2010	Indianapolis, Indiana 46201  	mostly cloudy	16 -9	16-Mar	12	NE	14-Jul	67	30.1	10
Sat Jan 30 15:00:53 2010	Jacksonville, Florida 32099  	mostly cloudy	63 17	62 17	9	S	57 14	83	29.82	10
Sat Jan 30 15:00:53 2010	Columbus, Ohio 43085  	mostly cloudy	16 -9	16-Mar	18-Dec	NE	14-Jul	67	30.14	10
Sat Jan 30 15:00:54 2010	Dallas, Texas 75201  	mostly cloudy	27 -3	18 -8	10	N	19 -7	74	30.19	10
Sat Jan 30 15:00:54 2010	Houston, Texas 77001  	mostly cloudy	36 2	30 -1	7	W	27 -3	69	30.13	10
Sat Jan 30 15:00:54 2010	Seattle, Washington 98101  	light rain	46 8	46 8	0		43 6	87	29.97	9
Sat Jan 30 15:00:55 2010	Philadelphia, Pennsylvania 19019  	clear sky	18 -8	13-Aug	8	N	0 -18	44	30.3	10
Sat Jan 30 15:00:55 2010	Milwaukee, Wisconsin 53201  	light snow	19 -7	11-Dec	5	NW	11-Dec	73	30.26	6
Sat Jan 30 15:00:55 2010	Detroit, Michigan 48201  	mostly cloudy	11-Dec	17-Jan	7	N	16-Mar	66	30.3	10
Sat Jan 30 15:46:43 2010	San Jose, California 95101  	normal	45 7	42 6	5	SE	45 7	100	30.04	0.2
Sat Jan 30 15:46:44 2010	Denver, Colorado 80214  	clear sky	19 -7	15 -9	3	S	12-Oct	67	30.02	10
Sat Jan 30 15:46:44 2010	Charlotte, North Carolina 28201  	mostly cloudy	28 -2	15 -9	20-24	NE	27 -3	93	29.95	4
Sat Jan 30 15:46:44 2010	San Diego, California 92101  	mostly cloudy	52 11	52 11	3	N	46 8	82	30.01	4
Sat Jan 30 15:46:45 2010	Memphis, Tennessee 37501  	mostly cloudy	25 -4	16 -9	9	N	21 -6	86	30.03	9
Sat Jan 30 15:46:45 2010	Los Angeles, California 90001  	clear sky	48 9	48 9	0		45 7	87	29.99	5
Sat Jan 30 15:46:46 2010	El Paso, Texas 79901  	clear sky	30 -1	23 -5	7	N	27 -3	86	30.11	10
Sat Jan 30 15:46:46 2010	New York, New York 10001  	clear sky	14 -10	0 -18	18-Dec	N	-6 -21	40	30.29	10
Sat Jan 30 15:46:46 2010	Baltimore, Maryland 21201  	normal	21 -6	21 -6			17-Jan	41	30.24	
Sat Jan 30 15:46:47 2010	Austin, Texas 73301  	clear sky	30 -1	18 -8	17-22	N	25 -4	80	30.2	10
Sat Jan 30 15:46:47 2010	Las Vegas, Nevada 89101  	clear sky	43 6	40 4	5	W	34 1	70	29.96	10
Sat Jan 30 15:46:47 2010	Washington, Washington D. C. 20001  	light snow	21 -6	12-Oct	18-Oct	NE	14-Jul	53	30.24	2.5
Sat Jan 30 15:46:48 2010	Oklahoma City, Oklahoma 73101  	mostly cloudy	19 -7	13-Aug	10	N	18 -8	93	30.23	2.5
Sat Jan 30 15:46:48 2010	San Francisco, California 94101  	clear sky	46 8	45 7	3	S	45 7	93	30.02	10
Sat Jan 30 15:46:49 2010	Nashville, Tennessee 37201  	light snow	21 -6	12-Nov	9	N	18 -8	86	29.95	4
Sat Jan 30 15:46:49 2010	Fort Worth, Texas 76101  	mostly cloudy	25 -4	11-Dec	16-20	NW	19 -7	80	30.21	10
Sat Jan 30 15:46:50 2010	Portland, Oregon 97201  	clear sky	11-Dec	-5 -21	16-26	NW	0 -18	56	30.16	10
Sat Jan 30 15:46:50 2010	Phoenix, Arizona 85001  	mostly cloudy	50 10	48 9	6	E	43 6	76	29.97	10
Sat Jan 30 15:46:50 2010	Chicago, Illinois 60601  	mostly cloudy	18 -8	15-May	13	E	14-Jul	62	30.26	10
Sat Jan 30 15:46:51 2010	San Antonio, Texas 78201  	clear sky	30 -1	27 -3	3	NW	25 -4	80	30.2	10
Sat Jan 30 15:46:51 2010	Indianapolis, Indiana 46201  	mostly cloudy	16 -9	17-Feb	14	NE	14-Jul	67	30.11	10
Sat Jan 30 15:46:52 2010	Dallas, Texas 75201  	mostly cloudy	27 -3	16 -9	12	N	21 -6	80	30.22	10
Sat Jan 30 15:46:52 2010	Jacksonville, Florida 32099  	heavy rain	64 18	64 18	9	SW	59 15	83	29.88	4
Sat Jan 30 15:46:52 2010	Columbus, Ohio 43085  	clear sky	16 -9	17-Feb	14-20	NE	14-Jul	67	30.14	10
Sat Jan 30 15:46:54 2010	Milwaukee, Wisconsin 53201  	light snow	19 -7	11-Dec	5	NW	11-Dec	73	30.26	7
Sat Jan 30 15:46:54 2010	Houston, Texas 77001  	mostly cloudy	36 2	27 -3	14-23	NW	27 -3	69	30.14	10
Sat Jan 30 15:46:54 2010	Seattle, Washington 98101  	light rain	45 7	45 7	0		43 6	93	29.97	10
Sat Jan 30 15:46:55 2010	Philadelphia, Pennsylvania 19019  	clear sky	18 -8	14-Jun	10	N	0 -18	44	30.28	10
Sat Jan 30 15:46:55 2010	Detroit, Michigan 48201  	mostly cloudy	14 -10	14-Jun	5	N	15-May	67	30.3	10
Sat Jan 30 16:31:34 2010	San Jose, California 95101  	normal	45 7	42 6	5	SE	45 7	100	30.04	0.2
Sat Jan 30 16:31:35 2010	Denver, Colorado 80214  	clear sky	19 -7	15 -9	3	S	12-Oct	67	30.02	10
Sat Jan 30 16:31:35 2010	Charlotte, North Carolina 28201  	mostly cloudy	28 -2	15 -9	20-24	NE	27 -3	93	29.95	4
Sat Jan 30 16:31:35 2010	San Diego, California 92101  	mostly cloudy	52 11	52 11	3	N	46 8	82	30.01	4
Sat Jan 30 16:31:36 2010	Memphis, Tennessee 37501  	mostly cloudy	25 -4	16 -9	9	N	21 -6	86	30.03	9
Sat Jan 30 16:31:36 2010	Los Angeles, California 90001  	clear sky	48 9	48 9	0		45 7	87	29.99	5
Sat Jan 30 16:31:37 2010	El Paso, Texas 79901  	clear sky	30 -1	23 -5	7	N	27 -3	86	30.11	10
Sat Jan 30 16:31:37 2010	New York, New York 10001  	clear sky	14 -10	0 -18	18-Dec	N	-6 -21	40	30.29	10
Sat Jan 30 16:31:37 2010	Baltimore, Maryland 21201  	normal	21 -6	21 -6			17-Jan	41	30.24	
Sat Jan 30 16:31:38 2010	Austin, Texas 73301  	clear sky	30 -1	18 -8	17-22	N	25 -4	80	30.2	10
Sat Jan 30 16:31:38 2010	Las Vegas, Nevada 89101  	clear sky	43 6	40 4	5	W	34 1	70	29.96	10
Sat Jan 30 16:31:38 2010	Washington, Washington D. C. 20001  	light snow	21 -6	12-Oct	18-Oct	NE	14-Jul	53	30.24	2.5
Sat Jan 30 16:31:39 2010	Nashville, Tennessee 37201  	light snow	21 -6	12-Nov	9	N	18 -8	86	29.95	4
Sat Jan 30 16:31:39 2010	Oklahoma City, Oklahoma 73101  	mostly cloudy	19 -7	13-Aug	10	N	18 -8	93	30.23	2.5
Sat Jan 30 16:31:39 2010	San Francisco, California 94101  	clear sky	46 8	45 7	3	S	45 7	93	30.02	10
Sat Jan 30 16:31:40 2010	Portland, Oregon 97201  	clear sky	11-Dec	-5 -21	16-26	NW	0 -18	56	30.16	10
Sat Jan 30 16:31:40 2010	Fort Worth, Texas 76101  	mostly cloudy	25 -4	11-Dec	16-20	NW	19 -7	80	30.21	10
Sat Jan 30 16:31:40 2010	Phoenix, Arizona 85001  	mostly cloudy	50 10	48 9	6	E	43 6	76	29.97	10
Sat Jan 30 16:31:41 2010	San Antonio, Texas 78201  	clear sky	30 -1	27 -3	3	NW	25 -4	80	30.2	10
Sat Jan 30 16:31:41 2010	Chicago, Illinois 60601  	mostly cloudy	18 -8	15-May	13	E	14-Jul	62	30.26	10
Sat Jan 30 16:31:41 2010	Indianapolis, Indiana 46201  	mostly cloudy	16 -9	17-Feb	14	NE	14-Jul	67	30.11	10
Sat Jan 30 16:31:42 2010	Jacksonville, Florida 32099  	heavy rain	64 18	64 18	9	SW	59 15	83	29.88	4
Sat Jan 30 16:31:42 2010	Columbus, Ohio 43085  	clear sky	16 -9	17-Feb	14-20	NE	14-Jul	67	30.14	10
Sat Jan 30 16:31:43 2010	Dallas, Texas 75201  	mostly cloudy	27 -3	16 -9	12	N	21 -6	80	30.22	10
Sat Jan 30 16:31:43 2010	Houston, Texas 77001  	mostly cloudy	36 2	27 -3	14-23	NW	27 -3	69	30.14	10
Sat Jan 30 16:31:43 2010	Seattle, Washington 98101  	light rain	45 7	45 7	0		43 6	93	29.97	10
Sat Jan 30 16:31:44 2010	Philadelphia, Pennsylvania 19019  	clear sky	18 -8	14-Jun	10	N	0 -18	44	30.28	10
Sat Jan 30 16:31:44 2010	Milwaukee, Wisconsin 53201  	light snow	19 -7	11-Dec	5	NW	11-Dec	73	30.26	7
Sat Jan 30 16:31:44 2010	Detroit, Michigan 48201  	mostly cloudy	14 -10	14-Jun	5	N	15-May	67	30.3	10
Sat Jan 30 17:15:54 2010	Charlotte, North Carolina 28201  	mostly cloudy	27 -3	13 -11	20-25	NE	23 -5	86	29.95	2.5
Sat Jan 30 17:15:54 2010	San Jose, California 95101  	normal	45 7	45 7	0		45 7	100	30.04	0.2
Sat Jan 30 17:15:55 2010	Denver, Colorado 80214  	clear sky	23 -5	15 -9	7	S	11-Dec	63	30.03	10
Sat Jan 30 17:15:55 2010	Memphis, Tennessee 37501  	mostly cloudy	25 -4	16 -9	18-Sep	N	21 -6	86	30.05	10
Sat Jan 30 17:15:55 2010	San Diego, California 92101  	mostly cloudy	52 11	52 11	3	N	46 8	82	30.01	4
Sat Jan 30 17:15:56 2010	El Paso, Texas 79901  	clear sky	34 1	29 -2	6	NE	28 -2	80	30.14	10
Sat Jan 30 17:15:56 2010	Los Angeles, California 90001  	clear sky	48 9	48 9	0		45 7	87	30	5
Sat Jan 30 17:15:57 2010	Las Vegas, Nevada 89101  	clear sky	41 5	39 4	3	W	34 1	75	29.98	10
Sat Jan 30 17:15:57 2010	New York, New York 10001  	clear sky	11-Dec	17-Jan	7	W	-6 -21	43	30.27	10
Sat Jan 30 17:15:57 2010	Baltimore, Maryland 21201  	normal	21 -6	21 -6			16-Mar	45	30.24	
Sat Jan 30 17:15:58 2010	Washington, Washington D. C. 20001  	heavy snow	19 -7	14-Jun	12	NE	11-Dec	73	30.26	0.2
Sat Jan 30 17:15:58 2010	Austin, Texas 73301  	clear sky	34 1	23 -5	17-22	N	25 -4	69	30.21	10
Sat Jan 30 17:15:58 2010	San Francisco, California 94101  	mostly cloudy	46 8	46 8	0		45 7	93	30.04	10
Sat Jan 30 17:15:59 2010	Nashville, Tennessee 37201  	light snow	23 -5	12-Nov	12	N	18 -8	79	29.97	2
Sat Jan 30 17:15:59 2010	Oklahoma City, Oklahoma 73101  	mostly cloudy	19 -7	15-May	14	N	18 -8	93	30.25	2
Sat Jan 30 17:15:59 2010	Fort Worth, Texas 76101  	mostly cloudy	25 -4	15 -9	20-Oct	NW	19 -7	80	30.24	10
Sat Jan 30 17:16:00 2010	Portland, Oregon 97201  	clear sky	16 -9	15-May	22-Sep	N	17-Jan	52	30.18	10
Sat Jan 30 17:16:00 2010	Chicago, Illinois 60601  	mostly cloudy	19 -7	13-Aug	10	NE	13-Sep	62	30.26	10
Sat Jan 30 17:16:00 2010	Phoenix, Arizona 85001  	mostly cloudy	52 11	52 11	0		43 6	71	29.98	10
Sat Jan 30 17:16:01 2010	San Antonio, Texas 78201  	clear sky	34 1	27 -3	9	N	25 -4	69	30.21	10
Sat Jan 30 17:16:01 2010	Indianapolis, Indiana 46201  	mostly cloudy	18 -8	16-Mar	16	NE	14-Jul	62	30.12	10
Sat Jan 30 17:16:02 2010	Dallas, Texas 75201  	mostly cloudy	27 -3	16 -9	13	N	19 -7	74	30.25	10
Sat Jan 30 17:16:02 2010	Jacksonville, Florida 32099  	light rain	63 17	61 16	14	S	61 16	94	29.85	7
Sat Jan 30 17:16:02 2010	Columbus, Ohio 43085  	clear sky	16 -9	17-Jan	15-20	NE	14-Jul	67	30.14	10
Sat Jan 30 17:16:03 2010	Milwaukee, Wisconsin 53201  	light snow	19 -7	11-Dec	5	NW	14 -10	79	30.26	2.5
Sat Jan 30 17:16:03 2010	Houston, Texas 77001  	mostly cloudy	36 2	26 -3	16-23	NW	28 -2	75	30.16	10
Sat Jan 30 17:16:03 2010	Seattle, Washington 98101  	light rain	45 7	44 7	3	SE	43 6	93	29.97	10
Sat Jan 30 17:16:04 2010	Philadelphia, Pennsylvania 19019  	clear sky	18 -8	15-May	13	N	0 -18	44	30.28	10
Sat Jan 30 17:16:04 2010	Detroit, Michigan 48201  	mostly cloudy	16 -9	16-Apr	10	NE	13-Sep	73	30.3	10
Sat Jan 30 17:59:20 2010	Charlotte, North Carolina 28201  	mostly cloudy	27 -3	14 -10	18-25	NE	23 -5	86	29.93	2
Sat Jan 30 17:59:20 2010	San Jose, California 95101  	normal	46 8	44 7	5	SE	46 8	100	30.05	0.1
Sat Jan 30 17:59:21 2010	Denver, Colorado 80214  	clear sky	34 1	27 -3	8	S	11-Dec	40	30.03	10
Sat Jan 30 17:59:21 2010	Memphis, Tennessee 37501  	mostly cloudy	25 -4	13 -11	13-18	N	21 -6	86	30.09	9
Sat Jan 30 17:59:21 2010	San Diego, California 92101  	clear sky	52 11	52 11	0		48 9	87	30.02	4
Sat Jan 30 17:59:22 2010	El Paso, Texas 79901  	clear sky	36 2	31 -1	6	N	30 -1	80	30.15	10
Sat Jan 30 17:59:22 2010	Los Angeles, California 90001  	clear sky	52 11	52 11	0		45 7	76	30.01	5
Sat Jan 30 17:59:23 2010	Las Vegas, Nevada 89101  	clear sky	41 5	39 4	3	W	34 1	75	29.98	10
Sat Jan 30 17:59:23 2010	New York, New York 10001  	clear sky	16 -9	13-Aug	5	N	-6 -21	37	30.25	10
Sat Jan 30 17:59:23 2010	Baltimore, Maryland 21201  	normal	19 -7	19 -7			13-Sep	62	30.24	
Sat Jan 30 17:59:24 2010	Washington, Washington D. C. 20001  	moderate snow	18 -8	13-Aug	8	NE	11-Dec	79	30.27	0.5
Sat Jan 30 17:59:24 2010	Austin, Texas 73301  	clear sky	36 2	27 -3	14	N	25 -4	64	30.24	10
Sat Jan 30 17:59:24 2010	San Francisco, California 94101  	mostly cloudy	46 8	46 8	0		45 7	93	30.04	10
Sat Jan 30 17:59:25 2010	Oklahoma City, Oklahoma 73101  	mostly cloudy	19 -7	14-Jun	12	N	16 -9	86	30.26	2.5
Sat Jan 30 17:59:25 2010	Fort Worth, Texas 76101  	mostly cloudy	27 -3	18 -8	10	N	19 -7	74	30.25	10
Sat Jan 30 17:59:25 2010	Nashville, Tennessee 37201  	light snow	23 -5	13 -11	10	N	19 -7	86	29.98	2
Sat Jan 30 17:59:26 2010	Phoenix, Arizona 85001  	mostly cloudy	55 13	53 12	8	NE	39 4	54	30	10
Sat Jan 30 17:59:26 2010	Portland, Oregon 97201  	clear sky	18 -8	14-Jul	9	NW	15-May	57	30.16	10
Sat Jan 30 17:59:26 2010	Chicago, Illinois 60601  	mostly cloudy	21 -6	13-Sep	12	E	13-Sep	58	30.26	10
Sat Jan 30 17:59:27 2010	San Antonio, Texas 78201  	clear sky	37 3	29 -2	12	N	25 -4	60	30.24	10
Sat Jan 30 17:59:27 2010	Indianapolis, Indiana 46201  	mostly cloudy	19 -7	15-May	15	NE	14-Jul	57	30.13	10
Sat Jan 30 17:59:28 2010	Dallas, Texas 75201  	mostly cloudy	27 -3	16 -9	13	N	19 -7	74	30.26	10
Sat Jan 30 17:59:28 2010	Jacksonville, Florida 32099  	light rain	63 17	62 17	12	S	61 16	94	29.84	8
Sat Jan 30 17:59:28 2010	Columbus, Ohio 43085  	clear sky	18 -8	15-May	13	NE	14-Jul	62	30.14	10
Sat Jan 30 17:59:29 2010	Milwaukee, Wisconsin 53201  	light snow	19 -7	11-Dec	5	NW	16 -9	86	30.27	2.5
Sat Jan 30 17:59:29 2010	Houston, Texas 77001  	mostly cloudy	37 3	28 -2	15	N	28 -2	70	30.19	10
Sat Jan 30 17:59:29 2010	Seattle, Washington 98101  	light rain	45 7	44 7	3	SE	43 6	93	29.97	10
Sat Jan 30 17:59:30 2010	Detroit, Michigan 48201  	clear sky	18 -8	14-Jul	9	E	12-Oct	73	30.28	10
Sat Jan 30 17:59:30 2010	Philadelphia, Pennsylvania 19019  	mostly cloudy	18 -8	13-Aug	8	N	-4 -20	37	30.26	10
Sat Jan 30 18:43:16 2010	Charlotte, North Carolina 28201  	mostly cloudy	25 -4	11-Dec	17-23	NE	21 -6	86	29.92	2
Sat Jan 30 18:43:16 2010	San Jose, California 95101  	clear sky	46 8	46 8	0		46 8	100	30.06	7
Sat Jan 30 18:43:17 2010	San Diego, California 92101  	clear sky	55 13	54 12	6	NE	48 9	77	30.03	5
Sat Jan 30 18:43:17 2010	Denver, Colorado 80214  	clear sky	39 4	39 4	0		12-Oct	30	30.03	10
Sat Jan 30 18:43:18 2010	Memphis, Tennessee 37501  	mostly cloudy	25 -4	14 -10	12	N	19 -7	80	30.11	6
Sat Jan 30 18:43:18 2010	El Paso, Texas 79901  	clear sky	39 4	39 4	0		30 -1	70	30.16	10
Sat Jan 30 18:43:18 2010	Los Angeles, California 90001  	mostly cloudy	55 13	55 13	0		46 8	72	30.01	6
Sat Jan 30 18:43:19 2010	New York, New York 10001  	clear sky	18 -8	12-Oct	6	N	-4 -20	37	30.21	10
Sat Jan 30 18:43:19 2010	Baltimore, Maryland 21201  	normal	18 -8	18 -8			11-Dec	79	30.24	
Sat Jan 30 18:43:20 2010	Washington, Washington D. C. 20001  	heavy snow	18 -8	15-May	13	N	11-Dec	79	30.23	0.2
Sat Jan 30 18:43:20 2010	Las Vegas, Nevada 89101  	mostly cloudy	46 8	46 8	0		36 2	66	29.98	10
Sat Jan 30 18:43:21 2010	Austin, Texas 73301  	clear sky	37 3	28 -2	14	N	25 -4	60	30.25	10
Sat Jan 30 18:43:21 2010	San Francisco, California 94101  	clear sky	48 9	45 7	6	S	48 9	100	30.05	10
Sat Jan 30 18:43:22 2010	Oklahoma City, Oklahoma 73101  	mostly cloudy	19 -7	13-Aug	10	N	16 -9	86	30.27	6
Sat Jan 30 18:43:22 2010	Nashville, Tennessee 37201  	mostly cloudy	25 -4	14 -10	12	N	18 -8	74	29.98	9
Sat Jan 30 18:43:22 2010	Fort Worth, Texas 76101  	mostly cloudy	27 -3	16 -9	13	NW	19 -7	74	30.27	10
Sat Jan 30 18:43:23 2010	Phoenix, Arizona 85001  	mostly cloudy	57 14	55 13	10	E	37 3	47	29.99	10
Sat Jan 30 18:43:23 2010	Portland, Oregon 97201  	mostly cloudy	19 -7	15-May	15	N	13-Sep	62	30.12	10
Sat Jan 30 18:43:24 2010	San Antonio, Texas 78201  	clear sky	39 4	33 1	8	N	27 -3	60	30.24	10
Sat Jan 30 18:43:24 2010	Chicago, Illinois 60601  	clear sky	21 -6	12-Nov	8	E	13-Sep	58	30.26	10
Sat Jan 30 18:43:25 2010	Jacksonville, Florida 32099  	mostly cloudy	63 17	62 17	10	S	63 17	100	29.82	8
Sat Jan 30 18:43:25 2010	Indianapolis, Indiana 46201  	mostly cloudy	21 -6	13-Sep	12	NE	13-Sep	58	30.14	10
Sat Jan 30 18:43:26 2010	Dallas, Texas 75201  	mostly cloudy	28 -2	17 -8	13	N	21 -6	74	30.27	10
Sat Jan 30 18:43:26 2010	Columbus, Ohio 43085  	clear sky	19 -7	15-May	15	NE	14-Jul	57	30.14	10
Sat Jan 30 18:43:27 2010	Houston, Texas 77001  	mostly cloudy	37 3	28 -2	15	NW	28 -2	70	30.19	10
Sat Jan 30 18:43:27 2010	Seattle, Washington 98101  	light rain	45 7	44 7	3	SE	43 6	93	29.98	7
Sat Jan 30 18:43:28 2010	Detroit, Michigan 48201  	mostly cloudy	18 -8	13-Aug	8	SE	14-Jul	62	30.26	10
Sat Jan 30 18:43:28 2010	Milwaukee, Wisconsin 53201  	light snow	21 -6	21 -6	0		18 -8	86	30.24	2
Sat Jan 30 18:43:29 2010	Philadelphia, Pennsylvania 19019  	mostly cloudy	18 -8	14-Jun	10	N	-2 -19	41	30.22	10
Sat Jan 30 19:26:36 2010	San Jose, California 95101  	clear sky	46 8	46 8	0		46 8	100	30.06	7
Sat Jan 30 19:26:37 2010	Charlotte, North Carolina 28201  	mostly cloudy	25 -4	11-Dec	17-23	NE	21 -6	86	29.92	2
Sat Jan 30 19:26:37 2010	San Diego, California 92101  	clear sky	55 13	54 12	6	NE	48 9	77	30.03	5
Sat Jan 30 19:26:38 2010	Memphis, Tennessee 37501  	mostly cloudy	25 -4	14 -10	12	N	19 -7	80	30.11	6
Sat Jan 30 19:26:38 2010	Denver, Colorado 80214  	clear sky	39 4	39 4	0		12-Oct	30	30.03	10
Sat Jan 30 19:26:38 2010	Los Angeles, California 90001  	mostly cloudy	55 13	55 13	0		46 8	72	30.01	6
Sat Jan 30 19:26:39 2010	New York, New York 10001  	clear sky	18 -8	12-Oct	6	N	-4 -20	37	30.21	10
Sat Jan 30 19:26:39 2010	Baltimore, Maryland 21201  	normal	18 -8	18 -8			11-Dec	79	30.24	
Sat Jan 30 19:26:39 2010	El Paso, Texas 79901  	clear sky	39 4	39 4	0		30 -1	70	30.16	10
Sat Jan 30 19:26:40 2010	Washington, Washington D. C. 20001  	heavy snow	18 -8	15-May	13	N	11-Dec	79	30.23	0.2
Sat Jan 30 19:26:40 2010	Austin, Texas 73301  	clear sky	37 3	28 -2	14	N	25 -4	60	30.25	10
Sat Jan 30 19:26:40 2010	Las Vegas, Nevada 89101  	mostly cloudy	46 8	46 8	0		36 2	66	29.98	10
Sat Jan 30 19:26:41 2010	Oklahoma City, Oklahoma 73101  	mostly cloudy	19 -7	13-Aug	10	N	16 -9	86	30.27	6
Sat Jan 30 19:26:41 2010	Nashville, Tennessee 37201  	mostly cloudy	25 -4	14 -10	12	N	18 -8	74	29.98	9
Sat Jan 30 19:26:41 2010	San Francisco, California 94101  	clear sky	48 9	45 7	6	S	48 9	100	30.05	10
Sat Jan 30 19:26:42 2010	Fort Worth, Texas 76101  	mostly cloudy	27 -3	16 -9	13	NW	19 -7	74	30.27	10
Sat Jan 30 19:26:42 2010	Phoenix, Arizona 85001  	mostly cloudy	57 14	55 13	10	E	37 3	47	29.99	10
Sat Jan 30 19:26:42 2010	Portland, Oregon 97201  	mostly cloudy	19 -7	15-May	15	N	13-Sep	62	30.12	10
Sat Jan 30 19:26:43 2010	San Antonio, Texas 78201  	clear sky	39 4	33 1	8	N	27 -3	60	30.24	10
Sat Jan 30 19:26:43 2010	Chicago, Illinois 60601  	clear sky	21 -6	12-Nov	8	E	13-Sep	58	30.26	10
Sat Jan 30 19:26:44 2010	Jacksonville, Florida 32099  	mostly cloudy	63 17	62 17	10	S	63 17	100	29.82	8
Sat Jan 30 19:26:44 2010	Indianapolis, Indiana 46201  	mostly cloudy	21 -6	13-Sep	12	NE	13-Sep	58	30.14	10
Sat Jan 30 19:26:45 2010	Dallas, Texas 75201  	mostly cloudy	28 -2	17 -8	13	N	21 -6	74	30.27	10
Sat Jan 30 19:26:45 2010	Houston, Texas 77001  	mostly cloudy	37 3	28 -2	15	NW	28 -2	70	30.19	10
Sat Jan 30 19:26:45 2010	Columbus, Ohio 43085  	clear sky	19 -7	15-May	15	NE	14-Jul	57	30.14	10
Sat Jan 30 19:26:46 2010	Seattle, Washington 98101  	light rain	45 7	44 7	3	SE	43 6	93	29.98	7
Sat Jan 30 19:26:46 2010	Detroit, Michigan 48201  	mostly cloudy	18 -8	13-Aug	8	SE	14-Jul	62	30.26	10
Sat Jan 30 19:26:46 2010	Milwaukee, Wisconsin 53201  	light snow	21 -6	21 -6	0		18 -8	86	30.24	2
Sat Jan 30 19:26:47 2010	Philadelphia, Pennsylvania 19019  	mostly cloudy	18 -8	14-Jun	10	N	-2 -19	41	30.22	10
Sat Jan 30 20:10:39 2010	Charlotte, North Carolina 28201  	mostly cloudy	25 -4	12-Nov	20-28	NE	21 -6	86	29.88	3
Sat Jan 30 20:10:39 2010	San Diego, California 92101  	clear sky	61 16	61 16	0		48 9	63	30.02	9
Sat Jan 30 20:10:39 2010	San Jose, California 95101  	clear sky	48 9	48 9	0		48 9	100	30.07	10
Sat Jan 30 20:10:40 2010	Denver, Colorado 80214  	clear sky	45 7	42 6	6	S	12-Oct	24	30.01	10
Sat Jan 30 20:10:40 2010	Memphis, Tennessee 37501  	mostly cloudy	25 -4	16 -9	9	N	21 -6	86	30.1	9
Sat Jan 30 20:10:40 2010	Los Angeles, California 90001  	clear sky	59 15	59 15	0		48 9	67	30.01	6
Sat Jan 30 20:10:41 2010	New York, New York 10001  	clear sky	18 -8	12-Oct	6	N	-2 -19	41	30.19	10
Sat Jan 30 20:10:41 2010	El Paso, Texas 79901  	clear sky	45 7	42 6	5	N	32 0	61	30.15	10
Sat Jan 30 20:10:41 2010	Baltimore, Maryland 21201  	normal	18 -8	18 -8			11-Dec	79	30.21	
Sat Jan 30 20:10:42 2010	Washington, Washington D. C. 20001  	light snow	19 -7	14-Jun	13	N	11-Dec	73	30.15	1
Sat Jan 30 20:10:42 2010	Las Vegas, Nevada 89101  	mostly cloudy	50 10	50 10	0		36 2	58	29.98	10
Sat Jan 30 20:10:43 2010	Oklahoma City, Oklahoma 73101  	light snow	21 -6	11-Dec	7	N	18 -8	86	30.26	6
Sat Jan 30 20:10:43 2010	Austin, Texas 73301  	clear sky	39 4	31 -1	15	N	27 -3	60	30.23	10
Sat Jan 30 20:10:43 2010	San Francisco, California 94101  	clear sky	52 11	51 11	5	E	48 9	87	30.06	10
Sat Jan 30 20:10:44 2010	Nashville, Tennessee 37201  	mostly cloudy	25 -4	14 -10	12	N	18 -8	74	29.97	10
Sat Jan 30 20:10:44 2010	Fort Worth, Texas 76101  	mostly cloudy	28 -2	18 -8	12	N	19 -7	69	30.25	10
Sat Jan 30 20:10:44 2010	Phoenix, Arizona 85001  	mostly cloudy	61 16	59 15	12	E	37 3	42	29.99	10
Sat Jan 30 20:10:45 2010	Portland, Oregon 97201  	mostly cloudy	19 -7	13-Aug	9	N	11-Dec	73	30.11	10
Sat Jan 30 20:10:45 2010	San Antonio, Texas 78201  	clear sky	45 7	42 6	6	N	28 -2	53	30.22	10
Sat Jan 30 20:10:45 2010	Chicago, Illinois 60601  	clear sky	23 -5	13 -11	10	E	13-Sep	53	30.23	10
Sat Jan 30 20:10:46 2010	Jacksonville, Florida 32099  	mostly cloudy	66 19	65 18	16-23	S	64 18	94	29.77	9
Sat Jan 30 20:10:46 2010	Indianapolis, Indiana 46201  	mostly cloudy	21 -6	13-Sep	12	NE	13-Sep	58	30.12	10
Sat Jan 30 20:10:47 2010	Dallas, Texas 75201  	mostly cloudy	30 -1	19 -7	15-22	N	21 -6	69	30.26	10
Sat Jan 30 20:10:47 2010	Houston, Texas 77001  	mostly cloudy	39 4	31 -1	13	NW	28 -2	65	30.18	10
Sat Jan 30 20:10:47 2010	Columbus, Ohio 43085  	clear sky	19 -7	14-Jun	13	NE	14-Jul	57	30.11	10
Sat Jan 30 20:10:48 2010	Seattle, Washington 98101  	mostly cloudy	46 8	44 7	5	S	43 6	87	29.99	10
Sat Jan 30 20:10:48 2010	Detroit, Michigan 48201  	mostly cloudy	18 -8	12-Oct	6	NE	14-Jul	62	30.24	10
Sat Jan 30 20:10:48 2010	Milwaukee, Wisconsin 53201  	light snow	21 -6	21 -6	0		18 -8	86	30.23	1.5
Sat Jan 30 20:10:49 2010	Philadelphia, Pennsylvania 19019  	mostly cloudy	18 -8	13-Sep	7	N	-2 -19	41	30.19	10
Sat Jan 30 20:53:49 2010	Charlotte, North Carolina 28201  	mostly cloudy	25 -4	11-Dec	17-21	N	19 -7	80	29.85	9
Sat Jan 30 20:53:49 2010	San Diego, California 92101  	clear sky	61 16	61 16	0		48 9	63	30.01	9
Sat Jan 30 20:53:49 2010	San Jose, California 95101  	clear sky	54 12	54 12	0		46 8	77	30.07	10
Sat Jan 30 20:53:50 2010	Denver, Colorado 80214  	clear sky	46 8	44 7	5	N	12-Oct	23	29.98	10
Sat Jan 30 20:53:51 2010	Memphis, Tennessee 37501  	mostly cloudy	25 -4	14 -10	12	N	21 -6	86	30.1	10
Sat Jan 30 20:53:51 2010	Los Angeles, California 90001  	clear sky	61 16	61 16	3	N	48 9	63	30	7
Sat Jan 30 20:53:52 2010	New York, New York 10001  	clear sky	18 -8	13-Aug	8	W	-2 -19	41	30.17	10
Sat Jan 30 20:53:52 2010	El Paso, Texas 79901  	clear sky	46 8	46 8	0		30 -1	53	30.12	10
Sat Jan 30 20:53:53 2010	Baltimore, Maryland 21201  	normal	18 -8	18 -8			11-Dec	79	30.15	
Sat Jan 30 20:53:53 2010	Las Vegas, Nevada 89101  	mostly cloudy	52 11	52 11	0		36 2	54	29.96	10
Sat Jan 30 20:53:54 2010	Washington, Washington D. C. 20001  	light snow	19 -7	15-May	14	N	11-Dec	73	30.14	0.7
Sat Jan 30 20:53:54 2010	Austin, Texas 73301  	clear sky	41 5	33 1	17	N	28 -2	61	30.2	10
Sat Jan 30 20:53:54 2010	San Francisco, California 94101  	clear sky	52 11	49 9	8	E	48 9	87	30.07	10
Sat Jan 30 20:53:55 2010	Nashville, Tennessee 37201  	mostly cloudy	25 -4	14 -10	12	N	18 -8	74	29.98	10
Sat Jan 30 20:53:55 2010	Oklahoma City, Oklahoma 73101  	light snow	23 -5	19 -7	3	N	18 -8	79	30.24	6
Sat Jan 30 20:53:56 2010	Fort Worth, Texas 76101  	mostly cloudy	28 -2	17 -8	14	NW	21 -6	74	30.25	10
Sat Jan 30 20:53:56 2010	Phoenix, Arizona 85001  	mostly cloudy	63 17	63 17	7	E	36 2	36	29.97	10
Sat Jan 30 20:53:57 2010	Chicago, Illinois 60601  	clear sky	23 -5	14 -10	8	NE	12-Oct	58	30.21	10
Sat Jan 30 20:53:57 2010	Portland, Oregon 97201  	mostly cloudy	21 -6	12-Oct	10	N	11-Dec	68	30.1	10
Sat Jan 30 20:53:57 2010	San Antonio, Texas 78201  	clear sky	48 9	43 6	12	N	30 -1	50	30.19	10
Sat Jan 30 20:53:58 2010	Indianapolis, Indiana 46201  	mostly cloudy	25 -4	16 -9	9	NE	12-Oct	54	30.09	10
Sat Jan 30 20:53:59 2010	Jacksonville, Florida 32099  	mostly cloudy	68 20	68 20	16-23	SW	64 18	88	29.75	10
Sat Jan 30 20:53:59 2010	Columbus, Ohio 43085  	clear sky	21 -6	13-Aug	14	NE	14-Jul	53	30.08	10
Sat Jan 30 20:54:00 2010	Dallas, Texas 75201  	mostly cloudy	30 -1	20 -7	13-22	NW	23 -5	74	30.25	10
Sat Jan 30 20:54:00 2010	Houston, Texas 77001  	mostly cloudy	41 5	33 1	16	NW	28 -2	61	30.15	10
Sat Jan 30 20:54:01 2010	Seattle, Washington 98101  	light rain	46 8	45 7	3	SE	43 6	87	29.99	10
Sat Jan 30 20:54:01 2010	Milwaukee, Wisconsin 53201  	light snow	23 -5	23 -5	0		18 -8	79	30.2	2
Sat Jan 30 20:54:02 2010	Philadelphia, Pennsylvania 19019  	mostly cloudy	19 -7	12-Oct	7	N	-2 -19	38	30.18	10
Sat Jan 30 20:54:02 2010	Detroit, Michigan 48201  	mostly cloudy	19 -7	12-Oct	7	E	14-Jul	57	30.21	10
Sat Jan 30 21:37:32 2010	San Jose, California 95101  	clear sky	54 12	54 12	0		46 8	77	30.07	10
Sat Jan 30 21:37:33 2010	Charlotte, North Carolina 28201  	mostly cloudy	25 -4	11-Dec	17-21	N	19 -7	80	29.85	9
Sat Jan 30 21:37:33 2010	San Diego, California 92101  	clear sky	61 16	61 16	0		48 9	63	30.01	9
Sat Jan 30 21:37:34 2010	Denver, Colorado 80214  	clear sky	46 8	44 7	5	N	12-Oct	23	29.98	10
Sat Jan 30 21:37:34 2010	Memphis, Tennessee 37501  	mostly cloudy	25 -4	14 -10	12	N	21 -6	86	30.1	10
Sat Jan 30 21:37:34 2010	Los Angeles, California 90001  	clear sky	61 16	61 16	3	N	48 9	63	30	7
Sat Jan 30 21:37:35 2010	New York, New York 10001  	clear sky	18 -8	13-Aug	8	W	-2 -19	41	30.17	10
Sat Jan 30 21:37:35 2010	El Paso, Texas 79901  	clear sky	46 8	46 8	0		30 -1	53	30.12	10
Sat Jan 30 21:37:36 2010	Baltimore, Maryland 21201  	normal	18 -8	18 -8			11-Dec	79	30.15	
Sat Jan 30 21:37:36 2010	Las Vegas, Nevada 89101  	mostly cloudy	52 11	52 11	0		36 2	54	29.96	10
Sat Jan 30 21:37:37 2010	Washington, Washington D. C. 20001  	light snow	19 -7	15-May	14	N	11-Dec	73	30.14	0.7
Sat Jan 30 21:37:37 2010	Austin, Texas 73301  	clear sky	41 5	33 1	17	N	28 -2	61	30.2	10
Sat Jan 30 21:37:37 2010	San Francisco, California 94101  	clear sky	52 11	49 9	8	E	48 9	87	30.07	10
Sat Jan 30 21:37:38 2010	Nashville, Tennessee 37201  	mostly cloudy	25 -4	14 -10	12	N	18 -8	74	29.98	10
Sat Jan 30 21:37:38 2010	Oklahoma City, Oklahoma 73101  	light snow	23 -5	19 -7	3	N	18 -8	79	30.24	6
Sat Jan 30 21:37:39 2010	Portland, Oregon 97201  	mostly cloudy	21 -6	12-Oct	10	N	11-Dec	68	30.1	10
Sat Jan 30 21:37:39 2010	Fort Worth, Texas 76101  	mostly cloudy	28 -2	17 -8	14	NW	21 -6	74	30.25	10
Sat Jan 30 21:37:39 2010	Phoenix, Arizona 85001  	mostly cloudy	63 17	63 17	7	E	36 2	36	29.97	10
Sat Jan 30 21:37:40 2010	Chicago, Illinois 60601  	clear sky	23 -5	14 -10	8	NE	12-Oct	58	30.21	10
Sat Jan 30 21:37:40 2010	San Antonio, Texas 78201  	clear sky	48 9	43 6	12	N	30 -1	50	30.19	10
Sat Jan 30 21:37:41 2010	Indianapolis, Indiana 46201  	mostly cloudy	25 -4	16 -9	9	NE	12-Oct	54	30.09	10
Sat Jan 30 21:37:41 2010	Jacksonville, Florida 32099  	mostly cloudy	68 20	68 20	16-23	SW	64 18	88	29.75	10
Sat Jan 30 21:37:42 2010	Dallas, Texas 75201  	mostly cloudy	30 -1	20 -7	13-22	NW	23 -5	74	30.25	10
Sat Jan 30 21:37:42 2010	Columbus, Ohio 43085  	clear sky	21 -6	13-Aug	14	NE	14-Jul	53	30.08	10
Sat Jan 30 21:37:43 2010	Houston, Texas 77001  	mostly cloudy	41 5	33 1	16	NW	28 -2	61	30.15	10
Sat Jan 30 21:37:43 2010	Seattle, Washington 98101  	light rain	46 8	45 7	3	SE	43 6	87	29.99	10
Sat Jan 30 21:37:43 2010	Milwaukee, Wisconsin 53201  	light snow	23 -5	23 -5	0		18 -8	79	30.2	2
Sat Jan 30 21:37:44 2010	Philadelphia, Pennsylvania 19019  	mostly cloudy	19 -7	12-Oct	7	N	-2 -19	38	30.18	10
Sat Jan 30 21:37:44 2010	Detroit, Michigan 48201  	mostly cloudy	19 -7	12-Oct	7	E	14-Jul	57	30.21	10
Sat Jan 30 22:21:20 2010	San Jose, California 95101  	clear sky	55 13	55 13	0		46 8	72	30.06	10
Sat Jan 30 22:21:21 2010	Charlotte, North Carolina 28201  	mostly cloudy	25 -4	13 -11	15-25	NE	19 -7	80	29.85	10
Sat Jan 30 22:21:21 2010	San Diego, California 92101  	clear sky	61 16	59 15	13	W	50 10	68	29.98	10
Sat Jan 30 22:21:22 2010	Memphis, Tennessee 37501  	mostly cloudy	27 -3	16 -9	14-21	N	21 -6	80	30.11	9
Sat Jan 30 22:21:22 2010	Denver, Colorado 80214  	clear sky	48 9	46 8	5	SE	13-Sep	20	29.95	10
Sat Jan 30 22:21:23 2010	El Paso, Texas 79901  	clear sky	50 10	48 9	6	N	30 -1	46	30.08	10
Sat Jan 30 22:21:23 2010	Los Angeles, California 90001  	clear sky	63 17	63 17	3	W	48 9	59	29.98	7
Sat Jan 30 22:21:24 2010	New York, New York 10001  	clear sky	19 -7	12-Nov	6	N	0 -18	41	30.15	10
Sat Jan 30 22:21:24 2010	Baltimore, Maryland 21201  	normal	18 -8	18 -8			11-Dec	79	30.14	
Sat Jan 30 22:21:25 2010	Washington, Washington D. C. 20001  	light snow	19 -7	16-Apr	16	NE	11-Dec	73	30.1	0.7
Sat Jan 30 22:21:25 2010	Las Vegas, Nevada 89101  	mostly cloudy	54 12	54 12	0		36 2	50	29.92	10
Sat Jan 30 22:21:26 2010	Austin, Texas 73301  	clear sky	45 7	39 4	14	N	28 -2	53	30.18	10
Sat Jan 30 22:21:26 2010	San Francisco, California 94101  	mostly cloudy	54 12	52 11	7	E	48 9	82	30.07	10
Sat Jan 30 22:21:27 2010	Nashville, Tennessee 37201  	mostly cloudy	25 -4	13 -11	14	N	18 -8	74	30.01	10
Sat Jan 30 22:21:27 2010	Oklahoma City, Oklahoma 73101  	light snow	23 -5	19 -7	3	NW	19 -7	86	30.22	7
Sat Jan 30 22:21:27 2010	Fort Worth, Texas 76101  	mostly cloudy	28 -2	17 -8	13	N	21 -6	74	30.23	10
Sat Jan 30 22:21:28 2010	Portland, Oregon 97201  	mostly cloudy	21 -6	12-Nov	9	N	11-Dec	68	30.09	10
Sat Jan 30 22:21:28 2010	Phoenix, Arizona 85001  	mostly cloudy	64 18	64 18	7	E	36 2	34	29.94	10
Sat Jan 30 22:21:29 2010	Chicago, Illinois 60601  	clear sky	23 -5	13 -11	10	E	12-Oct	58	30.2	10
Sat Jan 30 22:21:29 2010	San Antonio, Texas 78201  	clear sky	50 10	46 8	17-Sep	N	30 -1	46	30.16	10
Sat Jan 30 22:21:30 2010	Indianapolis, Indiana 46201  	clear sky	25 -4	15 -9	10	NE	12-Oct	54	30.09	10
Sat Jan 30 22:21:30 2010	Jacksonville, Florida 32099  	mostly cloudy	70 21	70 21	20-26	S	64 18	83	29.73	10
Sat Jan 30 22:21:31 2010	Dallas, Texas 75201  	mostly cloudy	30 -1	21 -6	10	N	21 -6	69	30.24	10
Sat Jan 30 22:21:31 2010	Columbus, Ohio 43085  	clear sky	23 -5	13 -11	10	NE	14-Jul	49	30.07	10
Sat Jan 30 22:21:32 2010	Houston, Texas 77001  	mostly cloudy	43 6	35 2	16-23	N	28 -2	56	30.14	10
Sat Jan 30 22:21:32 2010	Seattle, Washington 98101  	mostly cloudy	48 9	47 8	3	SE	45 7	87	29.99	10
Sat Jan 30 22:21:33 2010	Milwaukee, Wisconsin 53201  	mostly cloudy	25 -4	21 -6	3	N	14 -10	63	30.19	10
Sat Jan 30 22:21:33 2010	Detroit, Michigan 48201  	mostly cloudy	18 -8	12-Nov	5	SE	14-Jul	62	30.2	10
Sat Jan 30 22:21:34 2010	Philadelphia, Pennsylvania 19019  	mostly cloudy	18 -8	13-Sep	7	N	-2 -19	41	30.16	10
Sat Jan 30 23:06:31 2010	San Jose, California 95101  	clear sky	57 14	56 13	7	NW	46 8	67	30.04	10
Sat Jan 30 23:06:32 2010	Charlotte, North Carolina 28201  	mostly cloudy	25 -4	13 -11	13-24	NE	19 -7	80	29.84	10
Sat Jan 30 23:06:32 2010	San Diego, California 92101  	clear sky	61 16	59 15	15	NW	52 11	72	inches	10
Sat Jan 30 23:06:32 2010	Denver, Colorado 80214  	clear sky	50 10	47 8	8	SE	13-Sep	18	29.93	10
Sat Jan 30 23:06:33 2010	Memphis, Tennessee 37501  	mostly cloudy	27 -3	16 -9	21-Dec	N	21 -6	80	30.12	9
Sat Jan 30 23:06:33 2010	El Paso, Texas 79901  	mostly cloudy	52 11	50 10	7	N	30 -1	43	30.06	10
Sat Jan 30 23:06:33 2010	Los Angeles, California 90001  	clear sky	63 17	63 17	0		48 9	59	29.95	10
Sat Jan 30 23:06:34 2010	New York, New York 10001  	mostly cloudy	19 -7	13-Sep	8	N	0 -18	41	30.14	10
Sat Jan 30 23:06:34 2010	Baltimore, Maryland 21201  	normal	18 -8	18 -8			11-Dec	79	30.09	
Sat Jan 30 23:06:35 2010	Washington, Washington D. C. 20001  	light snow	18 -8	17-Feb	20	N	11-Dec	79	30.09	0.7
Sat Jan 30 23:06:35 2010	Austin, Texas 73301  	clear sky	45 7	40 4	10	N	30 -1	57	30.17	10
Sat Jan 30 23:06:35 2010	Las Vegas, Nevada 89101  	mostly cloudy	55 13	55 13	3	NE	36 2	47	29.89	10
Sat Jan 30 23:06:35 2010	San Francisco, California 94101  	mostly cloudy	54 12	54 12	3	E	48 9	82	30.05	10
Sat Jan 30 23:06:36 2010	Nashville, Tennessee 37201  	mostly cloudy	25 -4	13 -11	15	N	18 -8	74	30.03	10
Sat Jan 30 23:06:36 2010	Oklahoma City, Oklahoma 73101  	mostly cloudy	25 -4	19 -7	5	NW	19 -7	80	30.21	6
Sat Jan 30 23:06:36 2010	Fort Worth, Texas 76101  	mostly cloudy	28 -2	19 -7	9	N	21 -6	74	30.23	10
Sat Jan 30 23:06:37 2010	Chicago, Illinois 60601  	clear sky	21 -6	13 -11	6	E	12-Oct	62	30.2	10
Sat Jan 30 23:06:37 2010	Portland, Oregon 97201  	clear sky	21 -6	11-Dec	7	N	11-Dec	68	30.09	10
Sat Jan 30 23:06:37 2010	Phoenix, Arizona 85001  	mostly cloudy	64 18	64 18	5	N	36 2	34	29.92	10
Sat Jan 30 23:06:38 2010	Indianapolis, Indiana 46201  	clear sky	27 -3	19 -7	7	N	12-Oct	50	30.1	10
Sat Jan 30 23:06:38 2010	San Antonio, Texas 78201  	clear sky	52 11	48 9	13-17	N	34 1	50	30.14	10
Sat Jan 30 23:06:39 2010	Jacksonville, Florida 32099  	light rain	70 21	70 21	15-29	SW	64 18	83	29.75	8
Sat Jan 30 23:06:39 2010	Columbus, Ohio 43085  	clear sky	23 -5	13 -11	10	N	13-Sep	53	30.06	10
Sat Jan 30 23:06:40 2010	Dallas, Texas 75201  	mostly cloudy	30 -1	22 -6	9	NW	23 -5	74	30.24	10
Sat Jan 30 23:06:40 2010	Houston, Texas 77001  	mostly cloudy	41 5	32 0	18-23	N	28 -2	61	30.13	10
Sat Jan 30 23:06:40 2010	Seattle, Washington 98101  	mostly cloudy	48 9	46 8	5	SE	45 7	87	29.98	10
Sat Jan 30 23:06:41 2010	Milwaukee, Wisconsin 53201  	mostly cloudy	23 -5	15 -9	7	S	16 -9	73	30.18	10
Sat Jan 30 23:06:41 2010	Detroit, Michigan 48201  	clear sky	18 -8	13 -11	3	S	14-Jul	62	30.2	10
Sat Jan 30 23:06:41 2010	Philadelphia, Pennsylvania 19019  	light snow	18 -8	13-Aug	8	N	14-Jul	62	30.14	3
Sat Jan 30 23:51:29 2010	San Jose, California 95101  	clear sky	61 16	61 16	6	W	45 7	55	30.02	10
Sat Jan 30 23:51:30 2010	Charlotte, North Carolina 28201  	mostly cloudy	25 -4	13 -11	13	N	19 -7	80	29.85	10
Sat Jan 30 23:51:31 2010	Memphis, Tennessee 37501  	mostly cloudy	28 -2	19 -7	9	N	23 -5	80	30.14	10
Sat Jan 30 23:51:31 2010	San Diego, California 92101  	clear sky	61 16	59 15	12	NW	50 10	68	29.96	10
Sat Jan 30 23:51:31 2010	Denver, Colorado 80214  	clear sky	52 11	52 11	3	E	13-Sep	17	29.92	10
Sat Jan 30 23:51:32 2010	El Paso, Texas 79901  	mostly cloudy	52 11	52 11	3	NE	30 -1	43	30.04	10
Sat Jan 30 23:51:32 2010	Los Angeles, California 90001  	clear sky	64 18	64 18	0		48 9	56	29.94	10
Sat Jan 30 23:51:33 2010	New York, New York 10001  	mostly cloudy	19 -7	15-May	14-20	NE	0 -18	41	30.12	10
Sat Jan 30 23:51:33 2010	Las Vegas, Nevada 89101  	mostly cloudy	57 14	55 13	8	E	36 2	44	29.87	10
Sat Jan 30 23:51:33 2010	Baltimore, Maryland 21201  	normal	18 -8	18 -8			11-Dec	79	30.08	
Sat Jan 30 23:51:34 2010	Washington, Washington D. C. 20001  	light snow	18 -8	16-Mar	16	N	12-Oct	73	30.07	3
Sat Jan 30 23:51:35 2010	Austin, Texas 73301  	clear sky	46 8	39 4	16	N	30 -1	53	30.17	10
Sat Jan 30 23:51:36 2010	Nashville, Tennessee 37201  	mostly cloudy	25 -4	13 -11	15	N	18 -8	74	30.06	10
Sat Jan 30 23:51:36 2010	San Francisco, California 94101  	clear sky	54 12	53 12	5	E	48 9	82	30.02	10
Sat Jan 30 23:51:36 2010	Oklahoma City, Oklahoma 73101  	mostly cloudy	25 -4	25 -4	0		19 -7	80	30.21	7
Sat Jan 30 23:51:37 2010	Portland, Oregon 97201  	clear sky	21 -6	13 -11	6	N	16 -9	79	30.09	10
Sat Jan 30 23:51:37 2010	Fort Worth, Texas 76101  	mostly cloudy	30 -1	21 -6	10	N	23 -5	74	30.23	10
Sat Jan 30 23:51:37 2010	Phoenix, Arizona 85001  	mostly cloudy	66 19	66 19	12	E	36 2	32	29.89	10
Sat Jan 30 23:51:38 2010	Chicago, Illinois 60601  	mostly cloudy	21 -6	13 -11	6	E	11-Dec	68	30.19	10
Sat Jan 30 23:51:38 2010	San Antonio, Texas 78201  	clear sky	52 11	50 10	17-Jul	N	34 1	50	30.13	10
Sat Jan 30 23:51:39 2010	Indianapolis, Indiana 46201  	clear sky	25 -4	16 -9	9	NE	12-Oct	54	30.11	10
Sat Jan 30 23:51:40 2010	Jacksonville, Florida 32099  	mostly cloudy	70 21	70 21	12	SW	66 19	88	29.75	10
Sat Jan 30 23:51:41 2010	Dallas, Texas 75201  	mostly cloudy	30 -1	22 -6	8	N	25 -4	80	30.24	10
Sat Jan 30 23:51:41 2010	Houston, Texas 77001  	mostly cloudy	39 4	31 -1	13-28	NW	27 -3	60	30.15	10
Sat Jan 30 23:51:41 2010	Columbus, Ohio 43085  	clear sky	21 -6	13-Aug	14	N	14-Jul	53	30.07	10
Sat Jan 30 23:51:42 2010	Milwaukee, Wisconsin 53201  	mostly cloudy	23 -5	16 -9	6	SW	16 -9	73	30.19	9
Sat Jan 30 23:51:42 2010	Seattle, Washington 98101  	light rain	48 9	46 8	5	SE	45 7	87	29.97	10
Sat Jan 30 23:51:43 2010	Philadelphia, Pennsylvania 19019  	light snow	16 -9	16-Mar	12	N	13-Sep	73	30.11	2
Sat Jan 30 23:51:43 2010	Detroit, Michigan 48201  	clear sky	18 -8	18 -8	0		14-Jul	62	30.19	10
Sun Jan 31 00:35:25 2010	San Jose, California 95101  	clear sky	61 16	61 16	6	W	45 7	55	30.02	10
Sun Jan 31 00:35:26 2010	Charlotte, North Carolina 28201  	mostly cloudy	25 -4	13 -11	13	N	19 -7	80	29.85	10
Sun Jan 31 00:35:26 2010	San Diego, California 92101  	clear sky	61 16	59 15	12	NW	50 10	68	29.96	10
Sun Jan 31 00:35:27 2010	Memphis, Tennessee 37501  	mostly cloudy	28 -2	19 -7	9	N	23 -5	80	30.14	10
Sun Jan 31 00:35:27 2010	Denver, Colorado 80214  	clear sky	52 11	52 11	3	E	13-Sep	17	29.92	10
Sun Jan 31 00:35:28 2010	New York, New York 10001  	mostly cloudy	19 -7	15-May	14-20	NE	0 -18	41	30.12	10
Sun Jan 31 00:35:28 2010	El Paso, Texas 79901  	mostly cloudy	52 11	52 11	3	NE	30 -1	43	30.04	10
Sun Jan 31 00:35:28 2010	Los Angeles, California 90001  	clear sky	64 18	64 18	0		48 9	56	29.94	10
Sun Jan 31 00:35:29 2010	Las Vegas, Nevada 89101  	mostly cloudy	57 14	55 13	8	E	36 2	44	29.87	10
Sun Jan 31 00:35:29 2010	Baltimore, Maryland 21201  	normal	18 -8	18 -8			11-Dec	79	30.08	
Sun Jan 31 00:35:30 2010	Washington, Washington D. C. 20001  	light snow	18 -8	16-Mar	16	N	12-Oct	73	30.07	3
Sun Jan 31 00:35:30 2010	Austin, Texas 73301  	clear sky	46 8	39 4	16	N	30 -1	53	30.17	10
Sun Jan 31 00:35:30 2010	San Francisco, California 94101  	clear sky	54 12	53 12	5	E	48 9	82	30.02	10
Sun Jan 31 00:35:31 2010	Nashville, Tennessee 37201  	mostly cloudy	25 -4	13 -11	15	N	18 -8	74	30.06	10
Sun Jan 31 00:35:31 2010	Oklahoma City, Oklahoma 73101  	mostly cloudy	25 -4	25 -4	0		19 -7	80	30.21	7
Sun Jan 31 00:35:32 2010	Portland, Oregon 97201  	clear sky	21 -6	13 -11	6	N	16 -9	79	30.09	10
Sun Jan 31 00:35:32 2010	Fort Worth, Texas 76101  	mostly cloudy	30 -1	21 -6	10	N	23 -5	74	30.23	10
Sun Jan 31 00:35:32 2010	Phoenix, Arizona 85001  	mostly cloudy	66 19	66 19	12	E	36 2	32	29.89	10
Sun Jan 31 00:35:33 2010	Chicago, Illinois 60601  	mostly cloudy	21 -6	13 -11	6	E	11-Dec	68	30.19	10
Sun Jan 31 00:35:33 2010	San Antonio, Texas 78201  	clear sky	52 11	50 10	17-Jul	N	34 1	50	30.13	10
Sun Jan 31 00:35:34 2010	Indianapolis, Indiana 46201  	clear sky	25 -4	16 -9	9	NE	12-Oct	54	30.11	10
Sun Jan 31 00:35:34 2010	Jacksonville, Florida 32099  	mostly cloudy	70 21	70 21	12	SW	66 19	88	29.75	10
Sun Jan 31 00:35:35 2010	Dallas, Texas 75201  	mostly cloudy	30 -1	22 -6	8	N	25 -4	80	30.24	10
Sun Jan 31 00:35:35 2010	Columbus, Ohio 43085  	clear sky	21 -6	13-Aug	14	N	14-Jul	53	30.07	10
Sun Jan 31 00:35:36 2010	Milwaukee, Wisconsin 53201  	mostly cloudy	23 -5	16 -9	6	SW	16 -9	73	30.19	9
Sun Jan 31 00:35:36 2010	Houston, Texas 77001  	mostly cloudy	39 4	31 -1	13-28	NW	27 -3	60	30.15	10
Sun Jan 31 00:35:36 2010	Seattle, Washington 98101  	light rain	48 9	46 8	5	SE	45 7	87	29.97	10
Sun Jan 31 00:35:37 2010	Philadelphia, Pennsylvania 19019  	light snow	16 -9	16-Mar	12	N	13-Sep	73	30.11	2
Sun Jan 31 00:35:37 2010	Detroit, Michigan 48201  	clear sky	18 -8	18 -8	0		14-Jul	62	30.19	10
Sun Jan 31 01:25:52 2010	Charlotte, North Carolina 28201  	mostly cloudy	25 -4	14 -10	12	NE	19 -7	80	29.88	10
Sun Jan 31 01:25:52 2010	San Jose, California 95101  	clear sky	59 15	58 14	8	W	45 7	59	30.01	10
Sun Jan 31 01:25:53 2010	Denver, Colorado 80214  	clear sky	50 10	48 9	6	SE	12-Oct	20	29.91	10
Sun Jan 31 01:25:53 2010	Memphis, Tennessee 37501  	clear sky	27 -3	19 -7	8	N	21 -6	80	30.16	10
Sun Jan 31 01:25:53 2010	San Diego, California 92101  	clear sky	61 16	59 15	12	NW	50 10	68	29.95	10
Sun Jan 31 01:25:54 2010	New York, New York 10001  	mostly cloudy	19 -7	14-Jun	20-Dec	NE	0 -18	41	30.12	10
Sun Jan 31 01:25:54 2010	Los Angeles, California 90001  	clear sky	63 17	63 17	3	N	48 9	59	29.93	10
Sun Jan 31 01:25:54 2010	El Paso, Texas 79901  	mostly cloudy	52 11	52 11	0		30 -1	43	30.03	10
Sun Jan 31 01:25:55 2010	Las Vegas, Nevada 89101  	mostly cloudy	57 14	55 13	9	E	37 3	47	29.87	10
Sun Jan 31 01:25:55 2010	Baltimore, Maryland 21201  	normal	18 -8	18 -8			11-Dec	79	30.07	
Sun Jan 31 01:25:56 2010	Washington, Washington D. C. 20001  	light snow	18 -8	16-Apr	15	N	12-Oct	73	30.07	5
Sun Jan 31 01:25:56 2010	Austin, Texas 73301  	clear sky	45 7	39 4	12	N	30 -1	57	30.16	10
Sun Jan 31 01:25:56 2010	San Francisco, California 94101  	clear sky	55 13	55 13	3	NE	48 9	77	30.02	10
Sun Jan 31 01:25:57 2010	Nashville, Tennessee 37201  	mostly cloudy	25 -4	16 -9	9	N	18 -8	74	30.09	10
Sun Jan 31 01:25:57 2010	Fort Worth, Texas 76101  	mostly cloudy	30 -1	22 -6	9	N	23 -5	74	30.23	10
Sun Jan 31 01:25:57 2010	Oklahoma City, Oklahoma 73101  	mostly cloudy	25 -4	25 -4	0		21 -6	86	30.22	6
Sun Jan 31 01:25:58 2010	Portland, Oregon 97201  	mostly cloudy	21 -6	13 -11	6	N	18 -8	86	30.09	10
Sun Jan 31 01:25:58 2010	Phoenix, Arizona 85001  	mostly cloudy	66 19	66 19	10	E	36 2	32	29.88	10
Sun Jan 31 01:25:59 2010	Indianapolis, Indiana 46201  	clear sky	23 -5	13 -11	9	N	12-Oct	58	30.13	10
Sun Jan 31 01:25:59 2010	San Antonio, Texas 78201  	clear sky	52 11	49 9	10	N	34 1	50	30.14	10
Sun Jan 31 01:25:59 2010	Chicago, Illinois 60601  	mostly cloudy	21 -6	21 -6	0		11-Dec	68	30.2	10
Sun Jan 31 01:26:00 2010	Jacksonville, Florida 32099  	mostly cloudy	70 21	70 21	14-22	SW	64 18	83	29.76	10
Sun Jan 31 01:26:00 2010	Columbus, Ohio 43085  	clear sky	19 -7	14-Jun	13	N	14-Jul	57	30.09	10
Sun Jan 31 01:26:01 2010	Dallas, Texas 75201  	mostly cloudy	30 -1	20 -7	12	N	25 -4	80	30.24	10
Sun Jan 31 01:26:01 2010	Houston, Texas 77001  	mostly cloudy	37 3	29 -2	13	N	28 -2	70	30.16	10
Sun Jan 31 01:26:01 2010	Seattle, Washington 98101  	light rain	48 9	47 8	3	S	45 7	87	29.97	10
Sun Jan 31 01:26:02 2010	Philadelphia, Pennsylvania 19019  	light snow	16 -9	14-Jun	7	N	12-Oct	79	30.09	2
Sun Jan 31 01:26:02 2010	Milwaukee, Wisconsin 53201  	mostly cloudy	23 -5	15 -9	7	S	16 -9	73	30.18	10
Sun Jan 31 01:26:02 2010	Detroit, Michigan 48201  	clear sky	18 -8	12-Nov	5	SE	14-Jul	62	30.18	10
Sun Jan 31 02:10:06 2010	San Jose, California 95101  	clear sky	57 14	55 13	9	NW	45 7	63	30.01	10
Sun Jan 31 02:10:07 2010	Charlotte, North Carolina 28201  	mostly cloudy	23 -5	12-Oct	15	N	19 -7	86	29.91	10
Sun Jan 31 02:10:08 2010	Denver, Colorado 80214  	clear sky	45 7	39 4	12	S	18 -8	33	29.91	10
Sun Jan 31 02:10:08 2010	San Diego, California 92101  	clear sky	61 16	59 15	12	NW	50 10	68	29.96	10
Sun Jan 31 02:10:09 2010	Memphis, Tennessee 37501  	clear sky	27 -3	19 -7	7	N	21 -6	80	30.17	10
Sun Jan 31 02:10:09 2010	Los Angeles, California 90001  	clear sky	61 16	61 16	0		46 8	59	29.93	10
Sun Jan 31 02:10:10 2010	New York, New York 10001  	mostly cloudy	19 -7	14-Jun	12	N	0 -18	41	30.09	10
Sun Jan 31 02:10:10 2010	El Paso, Texas 79901  	mostly cloudy	52 11	52 11	0		30 -1	43	30.03	10
Sun Jan 31 02:10:11 2010	Baltimore, Maryland 21201  	normal	19 -7	19 -7			11-Dec	73	30.06	
Sun Jan 31 02:10:12 2010	Washington, Washington D. C. 20001  	light snow	18 -8	16-Apr	15	N	12-Oct	73	30.07	5
Sun Jan 31 02:10:12 2010	Las Vegas, Nevada 89101  	mostly cloudy	57 14	56 13	6	E	37 3	47	29.87	10
Sun Jan 31 02:10:13 2010	Austin, Texas 73301  	clear sky	41 5	34 1	13	NE	30 -1	65	30.18	10
Sun Jan 31 02:10:13 2010	San Francisco, California 94101  	clear sky	57 14	55 13	8	NW	46 8	67	30.02	10
Sun Jan 31 02:10:14 2010	Nashville, Tennessee 37201  	mostly cloudy	25 -4	13 -11	13	N	18 -8	74	30.12	10
Sun Jan 31 02:10:14 2010	Oklahoma City, Oklahoma 73101  	mostly cloudy	25 -4	18 -8	6	SW	21 -6	86	30.22	6
Sun Jan 31 02:10:15 2010	Fort Worth, Texas 76101  	mostly cloudy	28 -2	19 -7	10	NW	23 -5	80	30.24	10
Sun Jan 31 02:10:15 2010	Phoenix, Arizona 85001  	clear sky	66 19	66 19	6	SE	36 2	32	29.88	10
Sun Jan 31 02:10:16 2010	Chicago, Illinois 60601  	mostly cloudy	21 -6	17 -8	3	E	11-Dec	68	30.2	10
Sun Jan 31 02:10:16 2010	Portland, Oregon 97201  	mostly cloudy	23 -5	13 -11	9	N	18 -8	79	30.08	10
Sun Jan 31 02:10:17 2010	Indianapolis, Indiana 46201  	clear sky	19 -7	13-Sep	8	N	12-Oct	67	30.13	10
Sun Jan 31 02:10:17 2010	San Antonio, Texas 78201  	clear sky	50 10	47 8	7	NE	34 1	54	30.15	10
Sun Jan 31 02:10:18 2010	Jacksonville, Florida 32099  	mostly cloudy	68 20	68 20	13-22	SW	61 16	78	29.78	10
Sun Jan 31 02:10:19 2010	Dallas, Texas 75201  	mostly cloudy	30 -1	22 -6	9	N	25 -4	80	30.25	10
Sun Jan 31 02:10:19 2010	Columbus, Ohio 43085  	clear sky	18 -8	14-Jun	10	N	14-Jul	62	30.09	10
Sun Jan 31 02:10:20 2010	Houston, Texas 77001  	mostly cloudy	37 3	29 -2	13	N	28 -2	70	30.17	10
Sun Jan 31 02:10:20 2010	Seattle, Washington 98101  	light rain	48 9	47 8	3	SE	45 7	87	29.97	10
Sun Jan 31 02:10:21 2010	Milwaukee, Wisconsin 53201  	mostly cloudy	21 -6	13 -11	6	S	16 -9	79	30.17	10
Sun Jan 31 02:10:21 2010	Detroit, Michigan 48201  	clear sky	16 -9	12-Nov	3	S	14-Jul	67	30.19	10
Sun Jan 31 02:10:22 2010	Philadelphia, Pennsylvania 19019  	light snow	16 -9	16-Apr	10	N	12-Oct	79	30.07	3
Sun Jan 31 02:53:21 2010	Charlotte, North Carolina 28201  	light snow	23 -5	14 -10	8	NE	19 -7	86	29.91	3
Sun Jan 31 02:53:21 2010	San Jose, California 95101  	clear sky	55 13	52 11	10	NW	45 7	67	30.01	10
Sun Jan 31 02:53:22 2010	Denver, Colorado 80214  	clear sky	37 3	30 -1	9	S	19 -7	48	29.91	10
Sun Jan 31 02:53:22 2010	San Diego, California 92101  	clear sky	57 14	55 13	9	NW	48 9	72	29.97	10
Sun Jan 31 02:53:23 2010	Memphis, Tennessee 37501  	clear sky	27 -3	24 -4	3	N	19 -7	74	30.18	10
Sun Jan 31 02:53:23 2010	El Paso, Texas 79901  	mostly cloudy	50 10	48 9	6	N	34 1	54	30.03	10
Sun Jan 31 02:53:23 2010	Los Angeles, California 90001  	clear sky	57 14	56 13	5	W	48 9	72	29.94	10
Sun Jan 31 02:53:24 2010	New York, New York 10001  	mostly cloudy	19 -7	13-Aug	17-Oct	N	16-Mar	49	30.07	10
Sun Jan 31 02:53:24 2010	Baltimore, Maryland 21201  	normal	19 -7	19 -7			11-Dec	73	30.05	
Sun Jan 31 02:53:25 2010	Washington, Washington D. C. 20001  	light snow	19 -7	14-Jun	13	N	11-Dec	73	30.06	3
Sun Jan 31 02:53:25 2010	Austin, Texas 73301  	clear sky	37 3	31 -1	8	NE	30 -1	75	30.19	10
Sun Jan 31 02:53:25 2010	Las Vegas, Nevada 89101  	mostly cloudy	55 13	54 12	5	N	37 3	51	29.87	10
Sun Jan 31 02:53:26 2010	Nashville, Tennessee 37201  	mostly cloudy	27 -3	19 -7	8	N	18 -8	68	30.14	10
Sun Jan 31 02:53:26 2010	Oklahoma City, Oklahoma 73101  	mostly cloudy	25 -4	21 -6	3	S	21 -6	86	30.22	6
Sun Jan 31 02:53:26 2010	San Francisco, California 94101  	clear sky	55 13	53 12	9	W	48 9	77	30.02	10
Sun Jan 31 02:53:27 2010	Portland, Oregon 97201  	mostly cloudy	25 -4	13 -11	13	N	19 -7	80	30.02	10
Sun Jan 31 02:53:27 2010	Fort Worth, Texas 76101  	mostly cloudy	28 -2	19 -7	9	NW	23 -5	80	30.25	10
Sun Jan 31 02:53:27 2010	Phoenix, Arizona 85001  	clear sky	64 18	64 18	6	E	37 3	37	29.89	10
Sun Jan 31 02:53:28 2010	Indianapolis, Indiana 46201  	clear sky	18 -8	13-Aug	8	NE	12-Oct	73	30.13	10
Sun Jan 31 02:53:28 2010	Chicago, Illinois 60601  	mostly cloudy	21 -6	14 -10	5	SE	11-Dec	68	30.2	10
Sun Jan 31 02:53:28 2010	San Antonio, Texas 78201  	clear sky	46 8	42 6	7	NE	34 1	61	30.17	10
Sun Jan 31 02:53:29 2010	Jacksonville, Florida 32099  	mostly cloudy	66 19	66 19	10	SW	59 15	78	29.8	10
Sun Jan 31 02:53:29 2010	Columbus, Ohio 43085  	clear sky	18 -8	14-Jun	10	N	13-Sep	67	30.11	10
Sun Jan 31 02:53:30 2010	Dallas, Texas 75201  	mostly cloudy	30 -1	22 -6	8	N	25 -4	80	30.26	10
Sun Jan 31 02:53:30 2010	Houston, Texas 77001  	mostly cloudy	37 3	28 -2	14	N	28 -2	70	30.19	10
Sun Jan 31 02:53:30 2010	Seattle, Washington 98101  	mostly cloudy	46 8	46 8	0		45 7	93	29.97	9
Sun Jan 31 02:53:31 2010	Philadelphia, Pennsylvania 19019  	light snow	18 -8	14-Jul	9	N	12-Oct	73	30.05	9
Sun Jan 31 02:53:31 2010	Milwaukee, Wisconsin 53201  	mostly cloudy	21 -6	11-Dec	7	SW	16 -9	79	30.18	10
Sun Jan 31 02:53:31 2010	Detroit, Michigan 48201  	clear sky	16 -9	14-Jun	7	S	14-Jul	67	30.18	10
Sun Jan 31 03:37:00 2010	San Jose, California 95101  	clear sky	55 13	52 11	10	NW	45 7	67	30.01	10
Sun Jan 31 03:37:01 2010	Charlotte, North Carolina 28201  	light snow	23 -5	14 -10	8	NE	19 -7	86	29.91	3
Sun Jan 31 03:37:01 2010	Denver, Colorado 80214  	clear sky	37 3	30 -1	9	S	19 -7	48	29.91	10
Sun Jan 31 03:37:01 2010	San Diego, California 92101  	clear sky	57 14	55 13	9	NW	48 9	72	29.97	10
Sun Jan 31 03:37:02 2010	Memphis, Tennessee 37501  	clear sky	27 -3	24 -4	3	N	19 -7	74	30.18	10
Sun Jan 31 03:37:02 2010	El Paso, Texas 79901  	mostly cloudy	50 10	48 9	6	N	34 1	54	30.03	10
Sun Jan 31 03:37:02 2010	Los Angeles, California 90001  	clear sky	57 14	56 13	5	W	48 9	72	29.94	10
Sun Jan 31 03:37:03 2010	New York, New York 10001  	mostly cloudy	19 -7	13-Aug	17-Oct	N	16-Mar	49	30.07	10
Sun Jan 31 03:37:03 2010	Las Vegas, Nevada 89101  	mostly cloudy	55 13	54 12	5	N	37 3	51	29.87	10
Sun Jan 31 03:37:03 2010	Baltimore, Maryland 21201  	normal	19 -7	19 -7			11-Dec	73	30.05	
Sun Jan 31 03:37:04 2010	Washington, Washington D. C. 20001  	light snow	19 -7	14-Jun	13	N	11-Dec	73	30.06	3
Sun Jan 31 03:37:04 2010	Austin, Texas 73301  	clear sky	37 3	31 -1	8	NE	30 -1	75	30.19	10
Sun Jan 31 03:37:04 2010	San Francisco, California 94101  	clear sky	55 13	53 12	9	W	48 9	77	30.02	10
Sun Jan 31 03:37:05 2010	Nashville, Tennessee 37201  	mostly cloudy	27 -3	19 -7	8	N	18 -8	68	30.14	10
Sun Jan 31 03:37:05 2010	Oklahoma City, Oklahoma 73101  	mostly cloudy	25 -4	21 -6	3	S	21 -6	86	30.22	6
Sun Jan 31 03:37:05 2010	Fort Worth, Texas 76101  	mostly cloudy	28 -2	19 -7	9	NW	23 -5	80	30.25	10
Sun Jan 31 03:37:06 2010	Chicago, Illinois 60601  	mostly cloudy	21 -6	14 -10	5	SE	11-Dec	68	30.2	10
Sun Jan 31 03:37:06 2010	Portland, Oregon 97201  	mostly cloudy	25 -4	13 -11	13	N	19 -7	80	30.02	10
Sun Jan 31 03:37:06 2010	Phoenix, Arizona 85001  	clear sky	64 18	64 18	6	E	37 3	37	29.89	10
Sun Jan 31 03:37:07 2010	Indianapolis, Indiana 46201  	clear sky	18 -8	13-Aug	8	NE	12-Oct	73	30.13	10
Sun Jan 31 03:37:07 2010	San Antonio, Texas 78201  	clear sky	46 8	42 6	7	NE	34 1	61	30.17	10
Sun Jan 31 03:37:07 2010	Jacksonville, Florida 32099  	mostly cloudy	66 19	66 19	10	SW	59 15	78	29.8	10
Sun Jan 31 03:37:08 2010	Dallas, Texas 75201  	mostly cloudy	30 -1	22 -6	8	N	25 -4	80	30.26	10
Sun Jan 31 03:37:08 2010	Houston, Texas 77001  	mostly cloudy	37 3	28 -2	14	N	28 -2	70	30.19	10
Sun Jan 31 03:37:08 2010	Columbus, Ohio 43085  	clear sky	18 -8	14-Jun	10	N	13-Sep	67	30.11	10
Sun Jan 31 03:37:09 2010	Milwaukee, Wisconsin 53201  	mostly cloudy	21 -6	11-Dec	7	SW	16 -9	79	30.18	10
Sun Jan 31 03:37:09 2010	Detroit, Michigan 48201  	clear sky	16 -9	14-Jun	7	S	14-Jul	67	30.18	10
Sun Jan 31 03:37:09 2010	Seattle, Washington 98101  	mostly cloudy	46 8	46 8	0		45 7	93	29.97	9
Sun Jan 31 03:37:10 2010	Philadelphia, Pennsylvania 19019  	light snow	18 -8	14-Jul	9	N	12-Oct	73	30.05	9
Sun Jan 31 04:20:57 2010	Charlotte, North Carolina 28201  	mostly cloudy	23 -5	14 -10	8	N	19 -7	86	29.93	10
Sun Jan 31 04:20:57 2010	San Jose, California 95101  	clear sky	54 12	52 11	6	NW	46 8	77	30.01	10
Sun Jan 31 04:20:57 2010	San Diego, California 92101  	clear sky	57 14	56 13	5	N	48 9	72	29.96	10
Sun Jan 31 04:20:58 2010	Denver, Colorado 80214  	clear sky	39 4	33 1	9	W	19 -7	44	29.91	10
Sun Jan 31 04:20:58 2010	Memphis, Tennessee 37501  	clear sky	25 -4	21 -6	3	N	19 -7	80	30.19	10
Sun Jan 31 04:20:59 2010	El Paso, Texas 79901  	mostly cloudy	46 8	42 6	7	N	34 1	61	30.03	10
Sun Jan 31 04:20:59 2010	Los Angeles, California 90001  	clear sky	57 14	57 14	3	W	48 9	72	29.94	10
Sun Jan 31 04:21:00 2010	New York, New York 10001  	mostly cloudy	19 -7	13-Aug	17-Sep	N	17-Jan	45	30.05	10
Sun Jan 31 04:21:00 2010	Las Vegas, Nevada 89101  	mostly cloudy	54 12	52 11	7	N	39 4	58	29.88	10
Sun Jan 31 04:21:00 2010	Baltimore, Maryland 21201  	normal	19 -7	19 -7			11-Dec	73	30.04	
Sun Jan 31 04:21:01 2010	Washington, Washington D. C. 20001  	light snow	19 -7	15-May	15	N	12-Oct	67	30.05	5
Sun Jan 31 04:21:01 2010	Austin, Texas 73301  	clear sky	36 2	29 -2	9	NE	30 -1	80	30.22	10
Sun Jan 31 04:21:02 2010	Oklahoma City, Oklahoma 73101  	mostly cloudy	19 -7	12-Nov	6	S	18 -8	93	30.22	5
Sun Jan 31 04:21:02 2010	San Francisco, California 94101  	clear sky	54 12	50 10	12	W	48 9	82	30.01	10
Sun Jan 31 04:21:03 2010	Nashville, Tennessee 37201  	mostly cloudy	27 -3	20 -7	6	NW	18 -8	68	30.16	10
Sun Jan 31 04:21:03 2010	Fort Worth, Texas 76101  	mostly cloudy	28 -2	22 -6	5	N	23 -5	80	30.26	10
Sun Jan 31 04:21:04 2010	Chicago, Illinois 60601  	mostly cloudy	21 -6	17 -8	3	SE	11-Dec	68	30.2	10
Sun Jan 31 04:21:04 2010	Portland, Oregon 97201  	clear sky	25 -4	13 -11	15	N	19 -7	80	30	10
Sun Jan 31 04:21:04 2010	Phoenix, Arizona 85001  	clear sky	63 17	63 17	3	E	37 3	39	29.89	10
Sun Jan 31 04:21:05 2010	San Antonio, Texas 78201  	clear sky	43 6	39 4	7	NE	34 1	70	30.19	10
Sun Jan 31 04:21:05 2010	Indianapolis, Indiana 46201  	clear sky	18 -8	12-Nov	5	N	13-Sep	67	30.16	10
Sun Jan 31 04:21:06 2010	Jacksonville, Florida 32099  	mostly cloudy	59 15	55 13	23	N	55 13	88	29.86	10
Sun Jan 31 04:21:07 2010	Dallas, Texas 75201  	mostly cloudy	30 -1	22 -6	9	NW	25 -4	80	30.27	10
Sun Jan 31 04:21:07 2010	Houston, Texas 77001  	mostly cloudy	37 3	28 -2	15	N	28 -2	70	30.2	10
Sun Jan 31 04:21:07 2010	Columbus, Ohio 43085  	clear sky	16 -9	16-Apr	10	N	13-Sep	73	30.11	10
Sun Jan 31 04:21:08 2010	Milwaukee, Wisconsin 53201  	mostly cloudy	21 -6	13 -11	6	SW	16 -9	79	30.16	10
Sun Jan 31 04:21:08 2010	Seattle, Washington 98101  	light rain	46 8	46 8	0		43 6	87	29.98	10
Sun Jan 31 04:21:09 2010	Detroit, Michigan 48201  	clear sky	16 -9	13-Aug	5	S	14-Jul	67	30.17	10
Sun Jan 31 04:21:09 2010	Philadelphia, Pennsylvania 19019  	mostly cloudy	19 -7	13-Sep	8	N	14-Jul	57	30.04	10
Sun Jan 31 05:05:16 2010	Charlotte, North Carolina 28201  	mostly cloudy	23 -5	12-Nov	13	N	18 -8	79	29.95	10
Sun Jan 31 05:05:16 2010	San Jose, California 95101  	clear sky	50 10	47 8	8	NW	46 8	87	30.02	10
Sun Jan 31 05:05:16 2010	San Diego, California 92101  	clear sky	57 14	57 14	0		48 9	72	29.96	10
Sun Jan 31 05:05:17 2010	Memphis, Tennessee 37501  	clear sky	25 -4	19 -7	5	N	18 -8	74	30.21	9
Sun Jan 31 05:05:17 2010	Denver, Colorado 80214  	clear sky	34 1	29 -2	6	W	19 -7	55	29.92	10
Sun Jan 31 05:05:18 2010	El Paso, Texas 79901  	mostly cloudy	45 7	44 7	3	N	34 1	66	30.03	10
Sun Jan 31 05:05:18 2010	Los Angeles, California 90001  	clear sky	55 13	55 13	0		48 9	77	29.94	10
Sun Jan 31 05:05:19 2010	New York, New York 10001  	mostly cloudy	19 -7	12-Oct	16-Jul	N	17-Jan	45	30.03	10
Sun Jan 31 05:05:19 2010	Las Vegas, Nevada 89101  	mostly cloudy	54 12	52 11	6	N	37 3	54	29.88	10
Sun Jan 31 05:05:19 2010	Baltimore, Maryland 21201  	normal	19 -7	19 -7			13-Sep	62	30.03	
Sun Jan 31 05:05:20 2010	Washington, Washington D. C. 20001  	light snow	19 -7	16-Apr	17	N	12-Oct	67	30.05	5
Sun Jan 31 05:05:20 2010	Austin, Texas 73301  	clear sky	34 1	27 -3	9	NE	28 -2	80	30.24	10
Sun Jan 31 05:05:21 2010	Oklahoma City, Oklahoma 73101  	mostly cloudy	21 -6	12-Nov	8	S	19 -7	93	30.23	3
Sun Jan 31 05:05:21 2010	San Francisco, California 94101  	clear sky	52 11	48 9	13	W	48 9	87	30.03	10
Sun Jan 31 05:05:22 2010	Nashville, Tennessee 37201  	clear sky	25 -4	18 -8	6	NW	18 -8	74	30.16	10
Sun Jan 31 05:05:22 2010	Fort Worth, Texas 76101  	mostly cloudy	28 -2	21 -6	6	N	23 -5	80	30.26	10
Sun Jan 31 05:05:22 2010	Phoenix, Arizona 85001  	clear sky	61 16	61 16	3	NE	43 6	51	29.89	10
Sun Jan 31 05:05:23 2010	Chicago, Illinois 60601  	mostly cloudy	21 -6	17 -8	3	S	11-Dec	68	30.19	10
Sun Jan 31 05:05:23 2010	Portland, Oregon 97201  	mostly cloudy	25 -4	14 -10	12	N	19 -7	80	29.96	10
Sun Jan 31 05:05:24 2010	Indianapolis, Indiana 46201  	clear sky	18 -8	14-Jul	9	N	12-Oct	73	30.16	10
Sun Jan 31 05:05:24 2010	San Antonio, Texas 78201  	clear sky	41 5	36 2	8	N	32 0	70	30.2	10
Sun Jan 31 05:05:25 2010	Jacksonville, Florida 32099  	mostly cloudy	54 12	49 9	22-29	NW	48 9	82	29.9	10
Sun Jan 31 05:05:26 2010	Dallas, Texas 75201  	mostly cloudy	30 -1	22 -6	9	N	25 -4	80	30.27	10
Sun Jan 31 05:05:26 2010	Houston, Texas 77001  	mostly cloudy	37 3	29 -2	13	N	28 -2	70	30.22	10
Sun Jan 31 05:05:26 2010	Columbus, Ohio 43085  	clear sky	11-Dec	17-Feb	6	N	13-Sep	85	30.12	10
Sun Jan 31 05:05:27 2010	Milwaukee, Wisconsin 53201  	mostly cloudy	23 -5	16 -9	6	W	14 -10	68	30.16	10
Sun Jan 31 05:05:27 2010	Seattle, Washington 98101  	mostly cloudy	46 8	46 8	0		45 7	93	29.98	10
Sun Jan 31 05:05:28 2010	Philadelphia, Pennsylvania 19019  	mostly cloudy	19 -7	14-Jun	12	N	16-Mar	49	30.02	10
Sun Jan 31 05:05:28 2010	Detroit, Michigan 48201  	clear sky	16 -9	16 -9	0		14-Jul	67	30.17	10
Sun Jan 31 05:51:28 2010	San Jose, California 95101  	clear sky	50 10	48 9	6	NW	46 8	87	30.03	10
Sun Jan 31 05:51:29 2010	Charlotte, North Carolina 28201  	mostly cloudy	21 -6	12-Nov	8	N	18 -8	86	29.97	10
Sun Jan 31 05:51:30 2010	Denver, Colorado 80214  	clear sky	34 1	27 -3	8	W	19 -7	55	29.92	10
Sun Jan 31 05:51:30 2010	San Diego, California 92101  	clear sky	55 13	55 13	0		48 9	77	29.96	9
Sun Jan 31 05:51:31 2010	Los Angeles, California 90001  	clear sky	55 13	55 13	0		48 9	77	29.94	10
Sun Jan 31 05:51:31 2010	Memphis, Tennessee 37501  	clear sky	25 -4	25 -4	0		18 -8	74	30.24	10
Sun Jan 31 05:51:32 2010	New York, New York 10001  	mostly cloudy	19 -7	14-Jun	16-Dec	N	17-Jan	45	30.01	10
Sun Jan 31 05:51:32 2010	El Paso, Texas 79901  	clear sky	43 6	39 4	7	NE	32 0	65	30.04	10
Sun Jan 31 05:51:33 2010	Baltimore, Maryland 21201  	normal	21 -6	21 -6			14-Jul	53	30.02	
Sun Jan 31 05:51:34 2010	Washington, Washington D. C. 20001  	light snow	18 -8	16-Apr	14	N	12-Oct	73	30.05	2.5
Sun Jan 31 05:51:34 2010	Las Vegas, Nevada 89101  	clear sky	52 11	51 11	5	W	39 4	62	29.89	10
Sun Jan 31 05:51:35 2010	Austin, Texas 73301  	clear sky	32 0	25 -4	7	NE	28 -2	86	30.25	10
Sun Jan 31 05:51:35 2010	San Francisco, California 94101  	clear sky	52 11	48 9	12	W	48 9	87	30.03	10
Sun Jan 31 05:51:36 2010	Nashville, Tennessee 37201  	clear sky	23 -5	16 -9	6	NW	16 -9	73	30.17	10
Sun Jan 31 05:51:36 2010	Oklahoma City, Oklahoma 73101  	mostly cloudy	21 -6	14 -10	5	S	19 -7	93	30.23	3
Sun Jan 31 05:51:36 2010	Fort Worth, Texas 76101  	mostly cloudy	28 -2	20 -7	8	N	23 -5	80	30.26	10
Sun Jan 31 05:51:37 2010	Portland, Oregon 97201  	mostly cloudy	27 -3	16 -9	14	N	19 -7	74	29.92	10
Sun Jan 31 05:51:37 2010	Phoenix, Arizona 85001  	clear sky	57 14	57 14	0		48 9	72	29.89	10
Sun Jan 31 05:51:38 2010	Chicago, Illinois 60601  	mostly cloudy	21 -6	17 -8	3	SW	11-Dec	68	30.19	10
Sun Jan 31 05:51:38 2010	San Antonio, Texas 78201  	clear sky	39 4	35 2	6	NE	32 0	75	30.21	10
Sun Jan 31 05:51:39 2010	Indianapolis, Indiana 46201  	clear sky	18 -8	12-Oct	6	NE	12-Oct	73	30.15	10
Sun Jan 31 05:51:40 2010	Dallas, Texas 75201  	mostly cloudy	30 -1	22 -6	9	NE	25 -4	80	30.27	10
Sun Jan 31 05:51:40 2010	Jacksonville, Florida 32099  	mostly cloudy	52 11	47 8	15-25	NW	46 8	82	29.93	10
Sun Jan 31 05:51:40 2010	Columbus, Ohio 43085  	clear sky	11-Dec	16-Apr	5	N	14-Jul	78	30.13	10
Sun Jan 31 05:51:41 2010	Houston, Texas 77001  	mostly cloudy	36 2	27 -3	13	N	28 -2	75	30.24	10
Sun Jan 31 05:51:41 2010	Seattle, Washington 98101  	light rain	46 8	45 7	3	SE	45 7	93	29.97	10
Sun Jan 31 05:51:42 2010	Milwaukee, Wisconsin 53201  	mostly cloudy	21 -6	13 -11	6	W	11-Dec	68	30.15	10
Sun Jan 31 05:51:42 2010	Detroit, Michigan 48201  	clear sky	14 -10	14 -10	0		14-Jul	72	30.17	10
Sun Jan 31 05:51:43 2010	Philadelphia, Pennsylvania 19019  	mostly cloudy	19 -7	15-May	15-21	N	16-Mar	49	30.01	10
Sun Jan 31 06:36:22 2010	Charlotte, North Carolina 28201  	mostly cloudy	21 -6	12-Nov	8	N	18 -8	86	29.97	10
Sun Jan 31 06:36:22 2010	San Jose, California 95101  	clear sky	50 10	48 9	6	NW	46 8	87	30.03	10
Sun Jan 31 06:36:23 2010	Denver, Colorado 80214  	clear sky	34 1	27 -3	8	W	19 -7	55	29.92	10
Sun Jan 31 06:36:23 2010	Memphis, Tennessee 37501  	clear sky	25 -4	25 -4	0		18 -8	74	30.24	10
Sun Jan 31 06:36:23 2010	San Diego, California 92101  	clear sky	55 13	55 13	0		48 9	77	29.96	9
Sun Jan 31 06:36:24 2010	El Paso, Texas 79901  	clear sky	43 6	39 4	7	NE	32 0	65	30.04	10
Sun Jan 31 06:36:24 2010	Los Angeles, California 90001  	clear sky	55 13	55 13	0		48 9	77	29.94	10
Sun Jan 31 06:36:25 2010	New York, New York 10001  	mostly cloudy	19 -7	14-Jun	16-Dec	N	17-Jan	45	30.01	10
Sun Jan 31 06:36:25 2010	Las Vegas, Nevada 89101  	clear sky	52 11	51 11	5	W	39 4	62	29.89	10
Sun Jan 31 06:36:25 2010	Baltimore, Maryland 21201  	normal	21 -6	21 -6			14-Jul	53	30.02	
Sun Jan 31 06:36:26 2010	Washington, Washington D. C. 20001  	light snow	18 -8	16-Apr	14	N	12-Oct	73	30.05	2.5
Sun Jan 31 06:36:26 2010	Austin, Texas 73301  	clear sky	32 0	25 -4	7	NE	28 -2	86	30.25	10
Sun Jan 31 06:36:27 2010	Nashville, Tennessee 37201  	clear sky	23 -5	16 -9	6	NW	16 -9	73	30.17	10
Sun Jan 31 06:36:27 2010	Oklahoma City, Oklahoma 73101  	mostly cloudy	21 -6	14 -10	5	S	19 -7	93	30.23	3
Sun Jan 31 06:36:27 2010	San Francisco, California 94101  	clear sky	52 11	48 9	12	W	48 9	87	30.03	10
Sun Jan 31 06:36:28 2010	Portland, Oregon 97201  	mostly cloudy	27 -3	16 -9	14	N	19 -7	74	29.92	10
Sun Jan 31 06:36:28 2010	Fort Worth, Texas 76101  	mostly cloudy	28 -2	20 -7	8	N	23 -5	80	30.26	10
Sun Jan 31 06:36:28 2010	Phoenix, Arizona 85001  	clear sky	57 14	57 14	0		48 9	72	29.89	10
Sun Jan 31 06:36:29 2010	Chicago, Illinois 60601  	mostly cloudy	21 -6	17 -8	3	SW	11-Dec	68	30.19	10
Sun Jan 31 06:36:29 2010	San Antonio, Texas 78201  	clear sky	39 4	35 2	6	NE	32 0	75	30.21	10
Sun Jan 31 06:36:30 2010	Indianapolis, Indiana 46201  	clear sky	18 -8	12-Oct	6	NE	12-Oct	73	30.15	10
Sun Jan 31 06:36:30 2010	Jacksonville, Florida 32099  	mostly cloudy	52 11	47 8	15-25	NW	46 8	82	29.93	10
Sun Jan 31 06:36:31 2010	Dallas, Texas 75201  	mostly cloudy	30 -1	22 -6	9	NE	25 -4	80	30.27	10
Sun Jan 31 06:36:31 2010	Houston, Texas 77001  	mostly cloudy	36 2	27 -3	13	N	28 -2	75	30.24	10
Sun Jan 31 06:36:31 2010	Columbus, Ohio 43085  	clear sky	11-Dec	16-Apr	5	N	14-Jul	78	30.13	10
Sun Jan 31 06:36:32 2010	Milwaukee, Wisconsin 53201  	mostly cloudy	21 -6	13 -11	6	W	11-Dec	68	30.15	10
Sun Jan 31 06:36:32 2010	Seattle, Washington 98101  	light rain	46 8	45 7	3	SE	45 7	93	29.97	10
Sun Jan 31 06:36:33 2010	Philadelphia, Pennsylvania 19019  	mostly cloudy	19 -7	15-May	15-21	N	16-Mar	49	30.01	10
Sun Jan 31 06:36:33 2010	Detroit, Michigan 48201  	clear sky	14 -10	14 -10	0		14-Jul	72	30.17	10
Sun Jan 31 07:19:27 2010	Charlotte, North Carolina 28201  	mostly cloudy	23 -5	15 -9	7	N	18 -8	79	29.98	10
Sun Jan 31 07:19:27 2010	San Jose, California 95101  	clear sky	48 9	47 8	3	NW	46 8	93	30.04	9
Sun Jan 31 07:19:27 2010	San Diego, California 92101  	clear sky	55 13	55 13	0		48 9	77	29.96	9
Sun Jan 31 07:19:28 2010	Denver, Colorado 80214  	clear sky	34 1	29 -2	6	W	18 -8	51	29.93	10
Sun Jan 31 07:19:28 2010	Los Angeles, California 90001  	clear sky	54 12	54 12	0		48 9	82	29.93	10
Sun Jan 31 07:19:28 2010	Memphis, Tennessee 37501  	clear sky	25 -4	25 -4	0		18 -8	74	30.26	10
Sun Jan 31 07:19:29 2010	New York, New York 10001  	mostly cloudy	18 -8	13-Aug	20-Aug	N	17-Jan	48	30	10
Sun Jan 31 07:19:29 2010	El Paso, Texas 79901  	mostly cloudy	41 5	37 3	6	N	34 1	75	30.05	10
Sun Jan 31 07:19:29 2010	Baltimore, Maryland 21201  	normal	21 -6	21 -6			15-May	49	30.03	
Sun Jan 31 07:19:30 2010	Austin, Texas 73301  	clear sky	32 0	25 -4	8	N	28 -2	86	30.24	10
Sun Jan 31 07:19:30 2010	Las Vegas, Nevada 89101  	clear sky	50 10	48 9	5	W	37 3	62	29.89	10
Sun Jan 31 07:19:30 2010	Washington, Washington D. C. 20001  	light snow	19 -7	12-Oct	7	NW	13-Sep	62	30.06	6
Sun Jan 31 07:19:31 2010	Oklahoma City, Oklahoma 73101  	normal	23 -5	15 -9	7	SW	21 -6	93	30.24	1
Sun Jan 31 07:19:31 2010	San Francisco, California 94101  	clear sky	52 11	49 9	8	W	48 9	87	30.04	10
Sun Jan 31 07:19:32 2010	Nashville, Tennessee 37201  	clear sky	21 -6	14 -10	5	N	16 -9	79	30.18	10
Sun Jan 31 07:19:32 2010	Fort Worth, Texas 76101  	mostly cloudy	28 -2	25 -4	3	N	25 -4	86	30.27	10
Sun Jan 31 07:19:32 2010	Phoenix, Arizona 85001  	clear sky	57 14	57 14	0		43 6	59	29.89	10
Sun Jan 31 07:19:33 2010	Chicago, Illinois 60601  	mostly cloudy	19 -7	15 -9	3	SW	11-Dec	73	30.18	10
Sun Jan 31 07:19:33 2010	Portland, Oregon 97201  	light snow	27 -3	18 -8	10	NE	21 -6	80	29.89	8
Sun Jan 31 07:19:33 2010	San Antonio, Texas 78201  	clear sky	37 3	37 3	0		30 -1	75	30.23	10
Sun Jan 31 07:19:34 2010	Indianapolis, Indiana 46201  	clear sky	18 -8	13 -11	3	NE	12-Oct	73	30.17	10
Sun Jan 31 07:19:34 2010	Jacksonville, Florida 32099  	mostly cloudy	50 10	45 7	14-21	NW	43 6	76	29.96	10
Sun Jan 31 07:19:35 2010	Dallas, Texas 75201  	mostly cloudy	30 -1	23 -5	7	NE	25 -4	80	30.28	10
Sun Jan 31 07:19:35 2010	Houston, Texas 77001  	mostly cloudy	37 3	29 -2	13	N	28 -2	70	30.24	10
Sun Jan 31 07:19:35 2010	Columbus, Ohio 43085  	clear sky	12-Oct	16-Apr	3	N	14-Jul	85	30.14	10
Sun Jan 31 07:19:36 2010	Milwaukee, Wisconsin 53201  	mostly cloudy	19 -7	11-Dec	5	W	11-Dec	73	30.15	10
Sun Jan 31 07:19:36 2010	Seattle, Washington 98101  	mostly cloudy	46 8	45 7	3	SE	45 7	93	29.97	10
Sun Jan 31 07:19:36 2010	Detroit, Michigan 48201  	clear sky	16 -9	12-Nov	3	W	14-Jul	67	30.16	10
Sun Jan 31 07:19:37 2010	Philadelphia, Pennsylvania 19019  	mostly cloudy	19 -7	13-Aug	21-Oct	N	16-Mar	49	30	10
Sun Jan 31 08:06:06 2010	San Jose, California 95101  	mostly cloudy	48 9	48 9	0		46 8	93	30.04	9
Sun Jan 31 08:06:07 2010	Charlotte, North Carolina 28201  	clear sky	21 -6	12-Nov	9	N	16 -9	79	30.01	10
Sun Jan 31 08:06:07 2010	San Diego, California 92101  	clear sky	54 12	54 12	0		48 9	82	29.96	7
Sun Jan 31 08:06:08 2010	Denver, Colorado 80214  	clear sky	30 -1	24 -4	6	W	18 -8	59	29.93	10
Sun Jan 31 08:06:08 2010	Los Angeles, California 90001  	clear sky	54 12	54 12	0		48 9	82	29.94	10
Sun Jan 31 08:06:08 2010	Memphis, Tennessee 37501  	clear sky	25 -4	25 -4	0		18 -8	74	30.26	10
Sun Jan 31 08:06:09 2010	New York, New York 10001  	mostly cloudy	18 -8	13-Aug	17-Aug	N	0 -18	44	30.01	10
Sun Jan 31 08:06:09 2010	El Paso, Texas 79901  	mostly cloudy	43 6	40 4	5	N	34 1	70	30.04	10
Sun Jan 31 08:06:09 2010	Baltimore, Maryland 21201  	normal	21 -6	21 -6			16-Mar	45	30.03	
Sun Jan 31 08:06:10 2010	Austin, Texas 73301  	clear sky	30 -1	22 -6	9	N	28 -2	93	30.25	10
Sun Jan 31 08:06:10 2010	Las Vegas, Nevada 89101  	clear sky	48 9	46 8	5	SW	39 4	71	29.9	10
Sun Jan 31 08:06:10 2010	Washington, Washington D. C. 20001  	mostly cloudy	19 -7	13-Aug	9	NW	14-Jul	57	30.06	8
Sun Jan 31 08:06:11 2010	Oklahoma City, Oklahoma 73101  	mostly cloudy	23 -5	16 -9	6	S	21 -6	93	30.24	1.7
Sun Jan 31 08:06:11 2010	San Francisco, California 94101  	clear sky	50 10	48 9	5	W	48 9	94	30.04	10
Sun Jan 31 08:06:11 2010	Nashville, Tennessee 37201  	clear sky	19 -7	19 -7	0		16 -9	86	30.19	10
Sun Jan 31 08:06:12 2010	Portland, Oregon 97201  	light snow	27 -3	15 -9	16	N	19 -7	74	29.87	8
Sun Jan 31 08:06:12 2010	Fort Worth, Texas 76101  	mostly cloudy	28 -2	21 -6	6	NE	23 -5	80	30.26	10
Sun Jan 31 08:06:12 2010	Phoenix, Arizona 85001  	clear sky	55 13	54 12	5	E	41 5	58	29.9	10
Sun Jan 31 08:06:13 2010	Chicago, Illinois 60601  	mostly cloudy	19 -7	11-Dec	5	SW	11-Dec	73	30.18	10
Sun Jan 31 08:06:13 2010	San Antonio, Texas 78201  	clear sky	36 2	31 -1	6	E	30 -1	80	30.24	10
Sun Jan 31 08:06:14 2010	Jacksonville, Florida 32099  	mostly cloudy	48 9	42 6	16	NW	39 4	71	29.98	10
Sun Jan 31 08:06:14 2010	Indianapolis, Indiana 46201  	clear sky	16 -9	16 -9	0		13-Sep	73	30.16	10
Sun Jan 31 08:06:15 2010	Dallas, Texas 75201  	mostly cloudy	30 -1	27 -3	3	NE	25 -4	80	30.29	10
Sun Jan 31 08:06:15 2010	Houston, Texas 77001  	mostly cloudy	37 3	29 -2	12	N	28 -2	70	30.24	10
Sun Jan 31 08:06:15 2010	Columbus, Ohio 43085  	clear sky	11-Dec	11-Dec	0		14-Jul	78	30.13	10
Sun Jan 31 08:06:16 2010	Milwaukee, Wisconsin 53201  	mostly cloudy	19 -7	12-Nov	6	W	12-Oct	67	30.15	10
Sun Jan 31 08:06:16 2010	Seattle, Washington 98101  	mostly cloudy	46 8	45 7	3	N	45 7	93	29.98	10
Sun Jan 31 08:06:16 2010	Detroit, Michigan 48201  	clear sky	14 -10	15-May	6	W	13-Sep	79	30.16	10
Sun Jan 31 08:06:17 2010	Philadelphia, Pennsylvania 19019  	mostly cloudy	19 -7	14-Jun	13	N	16-Mar	49	30	10
Sun Jan 31 08:50:35 2010	Charlotte, North Carolina 28201  	mostly cloudy	23 -5	16 -9	6	N	16 -9	73	30.02	10
Sun Jan 31 08:50:35 2010	San Jose, California 95101  	mostly cloudy	50 10	50 10	0		46 8	87	30.05	10
Sun Jan 31 08:50:36 2010	Denver, Colorado 80214  	clear sky	34 1	29 -2	6	W	18 -8	51	29.92	10
Sun Jan 31 08:50:36 2010	San Diego, California 92101  	clear sky	54 12	54 12	0		48 9	82	29.97	6
Sun Jan 31 08:50:37 2010	Memphis, Tennessee 37501  	clear sky	21 -6	11-Dec	7	N	16 -9	79	30.26	10
Sun Jan 31 08:50:37 2010	Los Angeles, California 90001  	clear sky	54 12	54 12	0		48 9	82	29.95	10
Sun Jan 31 08:50:38 2010	New York, New York 10001  	clear sky	18 -8	13-Aug	17-Aug	N	0 -18	44	30	10
Sun Jan 31 08:50:38 2010	El Paso, Texas 79901  	mostly cloudy	43 6	40 4	5	NE	34 1	70	30.04	10
Sun Jan 31 08:50:38 2010	Baltimore, Maryland 21201  	normal	21 -6	21 -6			16-Mar	45	30.04	
Sun Jan 31 08:50:39 2010	Las Vegas, Nevada 89101  	clear sky	46 8	45 7	3	W	37 3	71	29.9	10
Sun Jan 31 08:50:39 2010	Washington, Washington D. C. 20001  	mostly cloudy	19 -7	15-May	15	NW	15-May	53	30.06	10
Sun Jan 31 08:50:40 2010	Oklahoma City, Oklahoma 73101  	normal	23 -5	17 -8	5	S	21 -6	93	30.25	0.5
Sun Jan 31 08:50:40 2010	Austin, Texas 73301  	mostly cloudy	32 0	22 -6	13	N	28 -2	86	30.24	9
Sun Jan 31 08:50:40 2010	San Francisco, California 94101  	mostly cloudy	52 11	52 11	3	W	48 9	87	30.04	10
Sun Jan 31 08:50:41 2010	Fort Worth, Texas 76101  	mostly cloudy	28 -2	21 -6	7	E	25 -4	86	30.27	10
Sun Jan 31 08:50:41 2010	Nashville, Tennessee 37201  	clear sky	16 -9	16 -9	0		14 -10	92	30.21	8
Sun Jan 31 08:50:42 2010	Portland, Oregon 97201  	light snow	28 -2	16 -9	16-21	NE	19 -7	69	29.86	6
Sun Jan 31 08:50:42 2010	Phoenix, Arizona 85001  	clear sky	54 12	53 12	5	E	43 6	67	29.89	10
Sun Jan 31 08:50:43 2010	Indianapolis, Indiana 46201  	clear sky	16 -9	12-Nov	3	SE	12-Oct	79	30.16	10
Sun Jan 31 08:50:43 2010	Chicago, Illinois 60601  	mostly cloudy	19 -7	11-Dec	5	SW	11-Dec	73	30.17	10
Sun Jan 31 08:50:43 2010	San Antonio, Texas 78201  	clear sky	34 1	29 -2	6	NE	30 -1	86	30.23	10
Sun Jan 31 08:50:46 2010	Dallas, Texas 75201  	mostly cloudy	30 -1	24 -4	6	NE	25 -4	80	30.28	10
Sun Jan 31 08:50:46 2010	Jacksonville, Florida 32099  	mostly cloudy	48 9	43 6	12	NW	39 4	71	29.99	10
Sun Jan 31 08:50:46 2010	Columbus, Ohio 43085  	clear sky	12-Oct	17-Jan	5	NW	14-Jul	85	30.15	10
Sun Jan 31 08:50:47 2010	Houston, Texas 77001  	mostly cloudy	36 2	30 -1	8	NE	28 -2	75	30.25	10
Sun Jan 31 08:50:47 2010	Seattle, Washington 98101  	mostly cloudy	46 8	46 8	0		45 7	93	29.98	10
Sun Jan 31 08:50:48 2010	Milwaukee, Wisconsin 53201  	clear sky	18 -8	12-Nov	5	W	12-Oct	73	30.14	9
Sun Jan 31 08:50:48 2010	Detroit, Michigan 48201  	clear sky	14 -10	15-May	6	W	13-Sep	79	30.15	10
Sun Jan 31 08:50:49 2010	Philadelphia, Pennsylvania 19019  	mostly cloudy	18 -8	16-Apr	14	N	16-Mar	52	30.01	10
Sun Jan 31 09:34:13 2010	San Jose, California 95101  	mostly cloudy	50 10	50 10	0		46 8	87	30.05	10
Sun Jan 31 09:34:14 2010	Charlotte, North Carolina 28201  	mostly cloudy	23 -5	16 -9	6	N	16 -9	73	30.02	10
Sun Jan 31 09:34:14 2010	Denver, Colorado 80214  	clear sky	34 1	29 -2	6	W	18 -8	51	29.92	10
Sun Jan 31 09:34:14 2010	San Diego, California 92101  	clear sky	54 12	54 12	0		48 9	82	29.97	6
Sun Jan 31 09:34:15 2010	Memphis, Tennessee 37501  	clear sky	21 -6	11-Dec	7	N	16 -9	79	30.26	10
Sun Jan 31 09:34:15 2010	El Paso, Texas 79901  	mostly cloudy	43 6	40 4	5	NE	34 1	70	30.04	10
Sun Jan 31 09:34:15 2010	Los Angeles, California 90001  	clear sky	54 12	54 12	0		48 9	82	29.95	10
Sun Jan 31 09:34:16 2010	New York, New York 10001  	clear sky	18 -8	13-Aug	17-Aug	N	0 -18	44	30	10
Sun Jan 31 09:34:16 2010	Las Vegas, Nevada 89101  	clear sky	46 8	45 7	3	W	37 3	71	29.9	10
Sun Jan 31 09:34:16 2010	Baltimore, Maryland 21201  	normal	21 -6	21 -6			16-Mar	45	30.04	
Sun Jan 31 09:34:17 2010	Austin, Texas 73301  	mostly cloudy	32 0	22 -6	13	N	28 -2	86	30.24	9
Sun Jan 31 09:34:17 2010	San Francisco, California 94101  	mostly cloudy	52 11	52 11	3	W	48 9	87	30.04	10
Sun Jan 31 09:34:17 2010	Washington, Washington D. C. 20001  	mostly cloudy	19 -7	15-May	15	NW	15-May	53	30.06	10
Sun Jan 31 09:34:18 2010	Oklahoma City, Oklahoma 73101  	normal	23 -5	17 -8	5	S	21 -6	93	30.25	0.5
Sun Jan 31 09:34:18 2010	Fort Worth, Texas 76101  	mostly cloudy	28 -2	21 -6	7	E	25 -4	86	30.27	10
Sun Jan 31 09:34:18 2010	Phoenix, Arizona 85001  	clear sky	54 12	53 12	5	E	43 6	67	29.89	10
Sun Jan 31 09:34:18 2010	Nashville, Tennessee 37201  	clear sky	16 -9	16 -9	0		14 -10	92	30.21	8
Sun Jan 31 09:34:19 2010	Chicago, Illinois 60601  	mostly cloudy	19 -7	11-Dec	5	SW	11-Dec	73	30.17	10
Sun Jan 31 09:34:19 2010	Portland, Oregon 97201  	light snow	28 -2	16 -9	16-21	NE	19 -7	69	29.86	6
Sun Jan 31 09:34:19 2010	San Antonio, Texas 78201  	clear sky	34 1	29 -2	6	NE	30 -1	86	30.23	10
Sun Jan 31 09:34:20 2010	Indianapolis, Indiana 46201  	clear sky	16 -9	12-Nov	3	SE	12-Oct	79	30.16	10
Sun Jan 31 09:34:20 2010	Jacksonville, Florida 32099  	mostly cloudy	48 9	43 6	12	NW	39 4	71	29.99	10
Sun Jan 31 09:34:21 2010	Dallas, Texas 75201  	mostly cloudy	30 -1	24 -4	6	NE	25 -4	80	30.28	10
Sun Jan 31 09:34:21 2010	Houston, Texas 77001  	mostly cloudy	36 2	30 -1	8	NE	28 -2	75	30.25	10
Sun Jan 31 09:34:21 2010	Columbus, Ohio 43085  	clear sky	12-Oct	17-Jan	5	NW	14-Jul	85	30.15	10
Sun Jan 31 09:34:22 2010	Milwaukee, Wisconsin 53201  	clear sky	18 -8	12-Nov	5	W	12-Oct	73	30.14	9
Sun Jan 31 09:34:22 2010	Detroit, Michigan 48201  	clear sky	14 -10	15-May	6	W	13-Sep	79	30.15	10
Sun Jan 31 09:34:22 2010	Seattle, Washington 98101  	mostly cloudy	46 8	46 8	0		45 7	93	29.98	10
Sun Jan 31 09:34:23 2010	Philadelphia, Pennsylvania 19019  	mostly cloudy	18 -8	16-Apr	14	N	16-Mar	52	30.01	10
Sun Jan 31 10:17:23 2010	San Jose, California 95101  	mostly cloudy	50 10	50 10	0		46 8	87	30.04	10
Sun Jan 31 10:17:24 2010	Charlotte, North Carolina 28201  	clear sky	21 -6	13 -11	6	NE	16 -9	79	30.03	10
Sun Jan 31 10:17:24 2010	San Diego, California 92101  	mostly cloudy	52 11	52 11	0		48 9	87	29.97	6
Sun Jan 31 10:17:25 2010	Denver, Colorado 80214  	clear sky	30 -1	30 -1	0		18 -8	59	29.92	10
Sun Jan 31 10:17:26 2010	Los Angeles, California 90001  	clear sky	54 12	54 12	0		48 9	82	29.95	10
Sun Jan 31 10:17:26 2010	Memphis, Tennessee 37501  	clear sky	21 -6	21 -6	0		16 -9	79	30.27	10
Sun Jan 31 10:17:27 2010	El Paso, Texas 79901  	mostly cloudy	41 5	36 2	7	N	34 1	75	30.03	10
Sun Jan 31 10:17:28 2010	New York, New York 10001  	clear sky	18 -8	13-Aug	16-Aug	NE	0 -18	44	30.02	10
Sun Jan 31 10:17:28 2010	Baltimore, Maryland 21201  	normal	19 -7	19 -7			16-Mar	49	30.06	
Sun Jan 31 10:17:29 2010	Washington, Washington D. C. 20001  	mostly cloudy	19 -7	15-May	14	N	16-Mar	49	30.07	10
Sun Jan 31 10:17:29 2010	Las Vegas, Nevada 89101  	clear sky	45 7	44 7	3	SW	37 3	76	29.9	10
Sun Jan 31 10:17:30 2010	Austin, Texas 73301  	mostly cloudy	32 0	22 -6	13	N	28 -2	86	30.24	9
Sun Jan 31 10:17:30 2010	San Francisco, California 94101  	mostly cloudy	50 10	48 9	5	SE	48 9	94	30.03	10
Sun Jan 31 10:17:31 2010	Nashville, Tennessee 37201  	clear sky	19 -7	12-Nov	6	NW	16 -9	86	30.22	9
Sun Jan 31 10:17:31 2010	Oklahoma City, Oklahoma 73101  	mostly cloudy	23 -5	16 -9	6	S	21 -6	93	30.24	1.2
Sun Jan 31 10:17:32 2010	Fort Worth, Texas 76101  	mostly cloudy	28 -2	21 -6	7	E	25 -4	86	30.27	10
Sun Jan 31 10:17:33 2010	Portland, Oregon 97201  	light snow	28 -2	17 -8	14-21	N	19 -7	69	29.86	9
Sun Jan 31 10:17:33 2010	Phoenix, Arizona 85001  	clear sky	52 11	52 11	3	E	43 6	71	29.89	10
Sun Jan 31 10:17:34 2010	Chicago, Illinois 60601  	mostly cloudy	19 -7	11-Dec	5	W	11-Dec	73	30.18	9
Sun Jan 31 10:17:34 2010	San Antonio, Texas 78201  	clear sky	32 0	27 -3	5	NE	28 -2	86	30.23	10
Sun Jan 31 10:17:35 2010	Indianapolis, Indiana 46201  	clear sky	16 -9	13-Aug	5	SE	12-Oct	79	30.17	10
Sun Jan 31 10:17:36 2010	Jacksonville, Florida 32099  	mostly cloudy	46 8	40 4	21-Dec	NW	39 4	76	30	10
Sun Jan 31 10:17:36 2010	Columbus, Ohio 43085  	clear sky	12-Oct	12-Oct	0		14-Jul	85	30.16	10
Sun Jan 31 10:17:37 2010	Dallas, Texas 75201  	mostly cloudy	30 -1	24 -4	6	E	27 -3	86	30.28	10
Sun Jan 31 10:17:37 2010	Houston, Texas 77001  	mostly cloudy	36 2	29 -2	10	NE	28 -2	75	30.25	10
Sun Jan 31 10:17:38 2010	Seattle, Washington 98101  	mostly cloudy	46 8	45 7	3	S	45 7	93	29.98	10
Sun Jan 31 10:17:38 2010	Milwaukee, Wisconsin 53201  	mostly cloudy	18 -8	12-Oct	6	W	13-Sep	67	30.15	8
Sun Jan 31 10:17:39 2010	Detroit, Michigan 48201  	clear sky	14 -10	15-May	6	W	13-Sep	79	30.15	10
Sun Jan 31 10:17:40 2010	Philadelphia, Pennsylvania 19019  	clear sky	18 -8	15-May	13	N	16-Mar	52	30.03	10
Sun Jan 31 11:01:15 2010	Charlotte, North Carolina 28201  	clear sky	19 -7	15 -9	3	N	16 -9	86	30.06	10
Sun Jan 31 11:01:15 2010	San Jose, California 95101  	mostly cloudy	50 10	50 10	0		46 8	87	30.03	10
Sun Jan 31 11:01:16 2010	Denver, Colorado 80214  	clear sky	28 -2	28 -2	0		18 -8	63	29.9	10
Sun Jan 31 11:01:16 2010	Memphis, Tennessee 37501  	clear sky	19 -7	19 -7	0		16 -9	86	30.29	9
Sun Jan 31 11:01:16 2010	San Diego, California 92101  	mostly cloudy	52 11	52 11	0		46 8	82	29.97	6
Sun Jan 31 11:01:17 2010	El Paso, Texas 79901  	mostly cloudy	39 4	34 1	7	N	34 1	81	30.02	10
Sun Jan 31 11:01:17 2010	Los Angeles, California 90001  	clear sky	54 12	54 12	0		48 9	82	29.94	8
Sun Jan 31 11:01:18 2010	New York, New York 10001  	clear sky	18 -8	13-Sep	7	N	0 -18	44	30.03	10
Sun Jan 31 11:01:18 2010	Baltimore, Maryland 21201  	normal	19 -7	19 -7			16-Mar	49	30.08	
Sun Jan 31 11:01:18 2010	Las Vegas, Nevada 89101  	clear sky	45 7	45 7	0		37 3	76	29.91	10
Sun Jan 31 11:01:19 2010	Austin, Texas 73301  	mostly cloudy	32 0	24 -4	9	NE	28 -2	86	30.25	8
Sun Jan 31 11:01:19 2010	Washington, Washington D. C. 20001  	clear sky	19 -7	14-Jun	13	NW	16-Mar	49	30.09	10
Sun Jan 31 11:01:19 2010	San Francisco, California 94101  	clear sky	48 9	47 8	3	SE	46 8	93	30.02	10
Sun Jan 31 11:01:20 2010	Nashville, Tennessee 37201  	clear sky	18 -8	12-Nov	5	W	11-Dec	79	30.24	8
Sun Jan 31 11:01:20 2010	Oklahoma City, Oklahoma 73101  	mostly cloudy	21 -6	14 -10	5	SE	21 -6	100	30.24	2.5
Sun Jan 31 11:01:21 2010	Portland, Oregon 97201  	mostly cloudy	27 -3	14 -10	18-23	N	19 -7	74	29.87	10
Sun Jan 31 11:01:21 2010	Fort Worth, Texas 76101  	mostly cloudy	28 -2	25 -4	3	N	25 -4	86	30.27	10
Sun Jan 31 11:01:21 2010	Phoenix, Arizona 85001  	clear sky	52 11	52 11	3	E	41 5	66	29.88	10
Sun Jan 31 11:01:22 2010	Chicago, Illinois 60601  	mostly cloudy	19 -7	12-Oct	7	W	11-Dec	73	30.18	10
Sun Jan 31 11:01:22 2010	San Antonio, Texas 78201  	mostly cloudy	30 -1	25 -4	5	NE	28 -2	93	30.22	6
Sun Jan 31 11:01:22 2010	Indianapolis, Indiana 46201  	clear sky	11-Dec	11-Dec	0		13-Sep	85	30.17	10
Sun Jan 31 11:01:23 2010	Jacksonville, Florida 32099  	mostly cloudy	46 8	40 4	14-21	N	37 3	71	30.02	10
Sun Jan 31 11:01:24 2010	Houston, Texas 77001  	mostly cloudy	36 2	30 -1	7	NE	28 -2	75	30.25	10
Sun Jan 31 11:01:24 2010	Columbus, Ohio 43085  	clear sky	13-Sep	16-Mar	3	W	14-Jul	92	30.16	10
Sun Jan 31 11:01:24 2010	Dallas, Texas 75201  	mostly cloudy	30 -1	30 -1	0		27 -3	86	30.28	10
Sun Jan 31 11:01:25 2010	Seattle, Washington 98101  	light rain	46 8	45 7	3	N	45 7	93	29.97	10
Sun Jan 31 11:01:25 2010	Detroit, Michigan 48201  	clear sky	11-Dec	0 -18	8	W	14-Jul	78	30.15	10
Sun Jan 31 11:01:25 2010	Milwaukee, Wisconsin 53201  	clear sky	16 -9	13-Aug	5	W	13-Sep	73	30.13	9
Sun Jan 31 11:01:26 2010	Philadelphia, Pennsylvania 19019  	clear sky	18 -8	14-Jun	10	N	16-Mar	52	30.05	10
Sun Jan 31 11:44:44 2010	San Jose, California 95101  	mostly cloudy	50 10	50 10	3	S	46 8	87	30.03	10
Sun Jan 31 11:44:45 2010	Charlotte, North Carolina 28201  	clear sky	19 -7	19 -7	0		16 -9	86	30.08	10
Sun Jan 31 11:44:45 2010	Denver, Colorado 80214  	clear sky	25 -4	25 -4	0		18 -8	74	29.88	10
Sun Jan 31 11:44:45 2010	San Diego, California 92101  	mostly cloudy	52 11	52 11	0		46 8	82	29.96	7
Sun Jan 31 11:44:46 2010	El Paso, Texas 79901  	mostly cloudy	39 4	35 2	6	N	34 1	81	30.02	10
Sun Jan 31 11:44:46 2010	Los Angeles, California 90001  	clear sky	52 11	52 11	0		46 8	82	29.94	6
Sun Jan 31 11:44:46 2010	Memphis, Tennessee 37501  	clear sky	21 -6	21 -6	0		16 -9	79	30.29	9
Sun Jan 31 11:44:47 2010	New York, New York 10001  	clear sky	16 -9	14-Jun	17-Jul	N	0 -18	48	30.06	10
Sun Jan 31 11:44:47 2010	Baltimore, Maryland 21201  	normal	18 -8	18 -8			17-Jan	48	30.11	
Sun Jan 31 11:44:47 2010	Las Vegas, Nevada 89101  	clear sky	45 7	45 7	0		36 2	70	29.91	10
Sun Jan 31 11:44:48 2010	Oklahoma City, Oklahoma 73101  	mostly cloudy	21 -6	17 -8	3	SE	19 -7	93	30.23	5
Sun Jan 31 11:44:48 2010	Austin, Texas 73301  	mostly cloudy	32 0	25 -4	8	NE	28 -2	86	30.26	8
Sun Jan 31 11:44:48 2010	Washington, Washington D. C. 20001  	clear sky	18 -8	14-Jun	10	NW	16-Mar	52	30.12	10
Sun Jan 31 11:44:48 2010	San Francisco, California 94101  	clear sky	48 9	47 8	3	S	46 8	93	30.02	10
Sun Jan 31 11:44:49 2010	Fort Worth, Texas 76101  	mostly cloudy	28 -2	28 -2	0		25 -4	86	30.27	10
Sun Jan 31 11:44:49 2010	Nashville, Tennessee 37201  	clear sky	16 -9	16 -9	0		11-Dec	85	30.24	7
Sun Jan 31 11:44:49 2010	Phoenix, Arizona 85001  	clear sky	50 10	50 10	0		43 6	76	29.88	10
Sun Jan 31 11:44:50 2010	Chicago, Illinois 60601  	mostly cloudy	19 -7	13-Sep	8	W	11-Dec	73	30.18	10
Sun Jan 31 11:44:50 2010	Portland, Oregon 97201  	mostly cloudy	27 -3	15 -9	15-26	N	21 -6	80	29.87	9
Sun Jan 31 11:44:50 2010	San Antonio, Texas 78201  	mostly cloudy	32 0	26 -3	6	NE	28 -2	86	30.23	6
Sun Jan 31 11:44:51 2010	Jacksonville, Florida 32099  	mostly cloudy	45 7	38 3	16	N	36 2	70	30.05	10
Sun Jan 31 11:44:51 2010	Indianapolis, Indiana 46201  	clear sky	13-Sep	0 -18	5	W	14-Jul	92	30.2	8
Sun Jan 31 11:44:52 2010	Dallas, Texas 75201  	mostly cloudy	30 -1	27 -3	3	E	27 -3	86	30.29	10
Sun Jan 31 11:44:52 2010	Houston, Texas 77001  	mostly cloudy	36 2	29 -2	9	NE	28 -2	75	30.25	9
Sun Jan 31 11:44:52 2010	Columbus, Ohio 43085  	clear sky	13-Sep	16-Mar	3	W	14-Jul	92	30.16	10
Sun Jan 31 11:44:53 2010	Seattle, Washington 98101  	light rain	46 8	45 7	3	S	45 7	93	29.98	7
Sun Jan 31 11:44:53 2010	Detroit, Michigan 48201  	clear sky	11-Dec	17-Feb	6	W	14-Jul	78	30.14	10
Sun Jan 31 11:44:53 2010	Milwaukee, Wisconsin 53201  	clear sky	16 -9	13-Aug	5	W	14-Jul	67	30.13	9
Sun Jan 31 11:44:54 2010	Philadelphia, Pennsylvania 19019  	clear sky	16 -9	17-Feb	13	N	17-Jan	52	30.07	10
Sun Jan 31 12:28:02 2010	San Jose, California 95101  	mostly cloudy	50 10	50 10	3	S	46 8	87	30.03	10
Sun Jan 31 12:28:03 2010	Charlotte, North Carolina 28201  	clear sky	19 -7	19 -7	0		16 -9	86	30.08	10
Sun Jan 31 12:28:03 2010	Denver, Colorado 80214  	clear sky	25 -4	25 -4	0		18 -8	74	29.88	10
Sun Jan 31 12:28:03 2010	San Diego, California 92101  	mostly cloudy	52 11	52 11	0		46 8	82	29.96	7
Sun Jan 31 12:28:04 2010	El Paso, Texas 79901  	mostly cloudy	39 4	35 2	6	N	34 1	81	30.02	10
Sun Jan 31 12:28:04 2010	Los Angeles, California 90001  	clear sky	52 11	52 11	0		46 8	82	29.94	6
Sun Jan 31 12:28:04 2010	Memphis, Tennessee 37501  	clear sky	21 -6	21 -6	0		16 -9	79	30.29	9
Sun Jan 31 12:28:05 2010	New York, New York 10001  	clear sky	16 -9	14-Jun	17-Jul	N	0 -18	48	30.06	10
Sun Jan 31 12:28:05 2010	Baltimore, Maryland 21201  	normal	18 -8	18 -8			17-Jan	48	30.11	
Sun Jan 31 12:28:06 2010	Austin, Texas 73301  	mostly cloudy	32 0	25 -4	8	NE	28 -2	86	30.26	8
Sun Jan 31 12:28:06 2010	Washington, Washington D. C. 20001  	clear sky	18 -8	14-Jun	10	NW	16-Mar	52	30.12	10
Sun Jan 31 12:28:06 2010	Las Vegas, Nevada 89101  	clear sky	45 7	45 7	0		36 2	70	29.91	10
Sun Jan 31 12:28:07 2010	Oklahoma City, Oklahoma 73101  	mostly cloudy	21 -6	17 -8	3	SE	19 -7	93	30.23	5
Sun Jan 31 12:28:07 2010	San Francisco, California 94101  	clear sky	48 9	47 8	3	S	46 8	93	30.02	10
Sun Jan 31 12:28:07 2010	Nashville, Tennessee 37201  	clear sky	16 -9	16 -9	0		11-Dec	85	30.24	7
Sun Jan 31 12:28:08 2010	Portland, Oregon 97201  	mostly cloudy	27 -3	15 -9	15-26	N	21 -6	80	29.87	9
Sun Jan 31 12:28:08 2010	Fort Worth, Texas 76101  	mostly cloudy	28 -2	28 -2	0		25 -4	86	30.27	10
Sun Jan 31 12:28:08 2010	Phoenix, Arizona 85001  	clear sky	50 10	50 10	0		43 6	76	29.88	10
Sun Jan 31 12:28:09 2010	Chicago, Illinois 60601  	mostly cloudy	19 -7	13-Sep	8	W	11-Dec	73	30.18	10
Sun Jan 31 12:28:09 2010	San Antonio, Texas 78201  	mostly cloudy	32 0	26 -3	6	NE	28 -2	86	30.23	6
Sun Jan 31 12:28:10 2010	Jacksonville, Florida 32099  	mostly cloudy	45 7	38 3	16	N	36 2	70	30.05	10
Sun Jan 31 12:28:10 2010	Indianapolis, Indiana 46201  	clear sky	13-Sep	0 -18	5	W	14-Jul	92	30.2	8
Sun Jan 31 12:28:11 2010	Dallas, Texas 75201  	mostly cloudy	30 -1	27 -3	3	E	27 -3	86	30.29	10
Sun Jan 31 12:28:11 2010	Houston, Texas 77001  	mostly cloudy	36 2	29 -2	9	NE	28 -2	75	30.25	9
Sun Jan 31 12:28:11 2010	Columbus, Ohio 43085  	clear sky	13-Sep	16-Mar	3	W	14-Jul	92	30.16	10
Sun Jan 31 12:28:12 2010	Seattle, Washington 98101  	light rain	46 8	45 7	3	S	45 7	93	29.98	7
Sun Jan 31 12:28:12 2010	Detroit, Michigan 48201  	clear sky	11-Dec	17-Feb	6	W	14-Jul	78	30.14	10
Sun Jan 31 12:28:12 2010	Milwaukee, Wisconsin 53201  	clear sky	16 -9	13-Aug	5	W	14-Jul	67	30.13	9
Sun Jan 31 12:28:13 2010	Philadelphia, Pennsylvania 19019  	clear sky	16 -9	17-Feb	13	N	17-Jan	52	30.07	10
Sun Jan 31 13:11:25 2010	San Jose, California 95101  	mostly cloudy	50 10	50 10	0		46 8	87	30.02	10
Sun Jan 31 13:11:26 2010	Charlotte, North Carolina 28201  	clear sky	19 -7	11-Dec	5	N	16 -9	86	30.09	10
Sun Jan 31 13:11:26 2010	San Diego, California 92101  	mostly cloudy	54 12	54 12	0		48 9	82	29.95	6
Sun Jan 31 13:11:27 2010	Denver, Colorado 80214  	clear sky	27 -3	27 -3	0		18 -8	68	29.88	10
Sun Jan 31 13:11:27 2010	Los Angeles, California 90001  	clear sky	52 11	52 11	0		46 8	82	29.94	7
Sun Jan 31 13:11:27 2010	Memphis, Tennessee 37501  	clear sky	21 -6	21 -6	0		16 -9	79	30.28	9
Sun Jan 31 13:11:28 2010	New York, New York 10001  	clear sky	16 -9	15-May	17-Aug	NW	0 -18	48	30.07	10
Sun Jan 31 13:11:28 2010	El Paso, Texas 79901  	mostly cloudy	39 4	35 2	5	N	34 1	81	30	10
Sun Jan 31 13:11:28 2010	Baltimore, Maryland 21201  	normal	18 -8	18 -8			17-Jan	48	30.13	
Sun Jan 31 13:11:29 2010	Washington, Washington D. C. 20001  	mostly cloudy	18 -8	14-Jun	10	NW	17-Jan	48	30.15	10
Sun Jan 31 13:11:29 2010	Austin, Texas 73301  	mostly cloudy	30 -1	22 -6	8	NE	28 -2	93	30.26	7
Sun Jan 31 13:11:29 2010	Las Vegas, Nevada 89101  	clear sky	43 6	39 4	6	SW	36 2	75	29.91	10
Sun Jan 31 13:11:30 2010	Oklahoma City, Oklahoma 73101  	mostly cloudy	19 -7	12-Oct	7	S	18 -8	93	30.23	3
Sun Jan 31 13:11:30 2010	San Francisco, California 94101  	mostly cloudy	46 8	44 7	5	S	46 8	100	30.02	10
Sun Jan 31 13:11:30 2010	Nashville, Tennessee 37201  	clear sky	14 -10	14 -10	0		11-Dec	92	30.27	6
Sun Jan 31 13:11:31 2010	Portland, Oregon 97201  	mostly cloudy	27 -3	14 -10	17-24	N	19 -7	74	29.89	10
Sun Jan 31 13:11:31 2010	Fort Worth, Texas 76101  	mostly cloudy	28 -2	25 -4	3	NE	25 -4	86	30.27	10
Sun Jan 31 13:11:31 2010	Phoenix, Arizona 85001  	clear sky	52 11	52 11	0		39 4	62	29.88	10
Sun Jan 31 13:11:32 2010	Chicago, Illinois 60601  	mostly cloudy	18 -8	12-Nov	5	W	11-Dec	79	30.19	10
Sun Jan 31 13:11:32 2010	San Antonio, Texas 78201  	mostly cloudy	32 0	25 -4	7	E	28 -2	86	30.24	6
Sun Jan 31 13:11:33 2010	Jacksonville, Florida 32099  	mostly cloudy	45 7	38 3	16	N	36 2	70	30.08	10
Sun Jan 31 13:11:33 2010	Indianapolis, Indiana 46201  	clear sky	12-Oct	16-Apr	3	W	14-Jul	85	30.2	9
Sun Jan 31 13:11:34 2010	Houston, Texas 77001  	mostly cloudy	34 1	25 -4	12	N	28 -2	80	30.25	9
Sun Jan 31 13:11:34 2010	Columbus, Ohio 43085  	clear sky	13-Sep	13-Sep	0		14-Jul	92	30.17	10
Sun Jan 31 13:11:34 2010	Dallas, Texas 75201  	mostly cloudy	30 -1	30 -1	0		27 -3	86	30.29	10
Sun Jan 31 13:11:35 2010	Seattle, Washington 98101  	light rain	46 8	45 7	3	SE	45 7	93	29.98	9
Sun Jan 31 13:11:35 2010	Detroit, Michigan 48201  	clear sky	12-Oct	0 -18	6	SW	14-Jul	85	30.14	10
Sun Jan 31 13:11:35 2010	Milwaukee, Wisconsin 53201  	clear sky	16 -9	14-Jun	7	W	14-Jul	67	30.14	9
Sun Jan 31 13:11:36 2010	Philadelphia, Pennsylvania 19019  	clear sky	16 -9	15-May	9	N	17-Jan	52	30.09	10
Sun Jan 31 13:54:58 2010	San Jose, California 95101  	mostly cloudy	50 10	50 10	3	E	45 7	82	30.02	10
Sun Jan 31 13:54:59 2010	Charlotte, North Carolina 28201  	clear sky	19 -7	19 -7	0		16 -9	86	30.12	10
Sun Jan 31 13:54:59 2010	Denver, Colorado 80214  	clear sky	27 -3	27 -3	0		18 -8	68	29.86	10
Sun Jan 31 13:54:59 2010	San Diego, California 92101  	mostly cloudy	54 12	54 12	0		46 8	77	29.95	6
Sun Jan 31 13:55:00 2010	Los Angeles, California 90001  	clear sky	50 10	50 10	0		45 7	82	29.93	6
Sun Jan 31 13:55:00 2010	Memphis, Tennessee 37501  	clear sky	19 -7	19 -7	0		16 -9	86	30.29	10
Sun Jan 31 13:55:01 2010	New York, New York 10001  	clear sky	14 -10	15-May	18-Jun	N	0 -18	52	30.08	10
Sun Jan 31 13:55:01 2010	El Paso, Texas 79901  	mostly cloudy	39 4	35 2	6	N	34 1	81	30	10
Sun Jan 31 13:55:01 2010	Baltimore, Maryland 21201  	normal	18 -8	18 -8			17-Jan	48	30.16	
Sun Jan 31 13:55:02 2010	Washington, Washington D. C. 20001  	mostly cloudy	16 -9	17-Feb	13	N	17-Jan	52	30.17	10
Sun Jan 31 13:55:02 2010	Austin, Texas 73301  	mostly cloudy	30 -1	20 -7	12	NE	28 -2	93	30.27	7
Sun Jan 31 13:55:02 2010	Las Vegas, Nevada 89101  	clear sky	43 6	40 4	5	S	36 2	75	29.91	10
Sun Jan 31 13:55:03 2010	Oklahoma City, Oklahoma 73101  	mostly cloudy	19 -7	13-Aug	10	S	18 -8	93	30.24	1.7
Sun Jan 31 13:55:03 2010	San Francisco, California 94101  	mostly cloudy	46 8	45 7	3	S	45 7	93	30.01	10
Sun Jan 31 13:55:03 2010	Nashville, Tennessee 37201  	clear sky	16 -9	16 -9	0		11-Dec	85	30.29	6
Sun Jan 31 13:55:04 2010	Portland, Oregon 97201  	mostly cloudy	27 -3	13 -11	20	N	19 -7	74	29.91	10
Sun Jan 31 13:55:04 2010	Fort Worth, Texas 76101  	mostly cloudy	28 -2	25 -4	3	NE	25 -4	86	30.28	10
Sun Jan 31 13:55:04 2010	Phoenix, Arizona 85001  	clear sky	50 10	50 10	0		43 6	76	29.88	10
Sun Jan 31 13:55:05 2010	Chicago, Illinois 60601  	clear sky	18 -8	13-Sep	7	W	11-Dec	79	30.19	7
Sun Jan 31 13:55:05 2010	San Antonio, Texas 78201  	mostly cloudy	32 0	25 -4	8	NE	28 -2	86	30.24	5
Sun Jan 31 13:55:06 2010	Jacksonville, Florida 32099  	mostly cloudy	43 6	35 2	17	N	34 1	70	30.12	10
Sun Jan 31 13:55:06 2010	Indianapolis, Indiana 46201  	clear sky	12-Oct	12-Oct	0		14-Jul	85	30.22	8
Sun Jan 31 13:55:07 2010	Dallas, Texas 75201  	mostly cloudy	30 -1	24 -4	6	E	27 -3	86	30.3	10
Sun Jan 31 13:55:07 2010	Houston, Texas 77001  	mostly cloudy	36 2	29 -2	9	N	28 -2	75	30.27	8
Sun Jan 31 13:55:07 2010	Columbus, Ohio 43085  	clear sky	14-Jul	14-Jul	0		15-May	92	30.19	10
Sun Jan 31 13:55:08 2010	Seattle, Washington 98101  	light rain	46 8	44 7	5	SE	45 7	93	29.97	10
Sun Jan 31 13:55:08 2010	Milwaukee, Wisconsin 53201  	mostly cloudy	14 -10	16-Apr	7	W	14-Jul	72	30.14	9
Sun Jan 31 13:55:08 2010	Detroit, Michigan 48201  	mostly cloudy	11-Dec	0 -18	8	SW	13-Sep	85	30.15	10
Sun Jan 31 13:55:09 2010	Philadelphia, Pennsylvania 19019  	clear sky	16 -9	14-Jun	7	NW	0 -18	48	30.12	10
Sun Jan 31 14:37:52 2010	San Jose, California 95101  	mostly cloudy	50 10	50 10	3	E	45 7	82	30.02	10
Sun Jan 31 14:37:52 2010	Charlotte, North Carolina 28201  	clear sky	19 -7	19 -7	0		16 -9	86	30.12	10
Sun Jan 31 14:37:53 2010	Denver, Colorado 80214  	clear sky	27 -3	27 -3	0		18 -8	68	29.86	10
Sun Jan 31 14:37:53 2010	Memphis, Tennessee 37501  	clear sky	19 -7	19 -7	0		16 -9	86	30.29	10
Sun Jan 31 14:37:53 2010	San Diego, California 92101  	mostly cloudy	54 12	54 12	0		46 8	77	29.95	6
Sun Jan 31 14:37:54 2010	New York, New York 10001  	clear sky	14 -10	15-May	18-Jun	N	0 -18	52	30.08	10
Sun Jan 31 14:37:54 2010	El Paso, Texas 79901  	mostly cloudy	39 4	35 2	6	N	34 1	81	30	10
Sun Jan 31 14:37:54 2010	Los Angeles, California 90001  	clear sky	50 10	50 10	0		45 7	82	29.93	6
Sun Jan 31 14:37:55 2010	Washington, Washington D. C. 20001  	mostly cloudy	16 -9	17-Feb	13	N	17-Jan	52	30.17	10
Sun Jan 31 14:37:55 2010	Austin, Texas 73301  	mostly cloudy	30 -1	20 -7	12	NE	28 -2	93	30.27	7
Sun Jan 31 14:37:55 2010	Las Vegas, Nevada 89101  	clear sky	43 6	40 4	5	S	36 2	75	29.91	10
Sun Jan 31 14:37:55 2010	Baltimore, Maryland 21201  	normal	18 -8	18 -8			17-Jan	48	30.16	
Sun Jan 31 14:37:56 2010	Oklahoma City, Oklahoma 73101  	mostly cloudy	19 -7	13-Aug	10	S	18 -8	93	30.24	1.7
Sun Jan 31 14:37:56 2010	San Francisco, California 94101  	mostly cloudy	46 8	45 7	3	S	45 7	93	30.01	10
Sun Jan 31 14:37:56 2010	Nashville, Tennessee 37201  	clear sky	16 -9	16 -9	0		11-Dec	85	30.29	6
Sun Jan 31 14:37:57 2010	Portland, Oregon 97201  	mostly cloudy	27 -3	13 -11	20	N	19 -7	74	29.91	10
Sun Jan 31 14:37:57 2010	Fort Worth, Texas 76101  	mostly cloudy	28 -2	25 -4	3	NE	25 -4	86	30.28	10
Sun Jan 31 14:37:57 2010	Phoenix, Arizona 85001  	clear sky	50 10	50 10	0		43 6	76	29.88	10
Sun Jan 31 14:37:58 2010	Chicago, Illinois 60601  	clear sky	18 -8	13-Sep	7	W	11-Dec	79	30.19	7
Sun Jan 31 14:37:58 2010	San Antonio, Texas 78201  	mostly cloudy	32 0	25 -4	8	NE	28 -2	86	30.24	5
Sun Jan 31 14:37:58 2010	Indianapolis, Indiana 46201  	clear sky	12-Oct	12-Oct	0		14-Jul	85	30.22	8
Sun Jan 31 14:37:59 2010	Jacksonville, Florida 32099  	mostly cloudy	43 6	35 2	17	N	34 1	70	30.12	10
Sun Jan 31 14:37:59 2010	Columbus, Ohio 43085  	clear sky	14-Jul	14-Jul	0		15-May	92	30.19	10
Sun Jan 31 14:38:00 2010	Dallas, Texas 75201  	mostly cloudy	30 -1	24 -4	6	E	27 -3	86	30.3	10
Sun Jan 31 14:38:00 2010	Houston, Texas 77001  	mostly cloudy	36 2	29 -2	9	N	28 -2	75	30.27	8
Sun Jan 31 14:38:00 2010	Seattle, Washington 98101  	light rain	46 8	44 7	5	SE	45 7	93	29.97	10
Sun Jan 31 14:38:01 2010	Philadelphia, Pennsylvania 19019  	clear sky	16 -9	14-Jun	7	NW	0 -18	48	30.12	10
Sun Jan 31 14:38:01 2010	Milwaukee, Wisconsin 53201  	mostly cloudy	14 -10	16-Apr	7	W	14-Jul	72	30.14	9
Sun Jan 31 14:38:01 2010	Detroit, Michigan 48201  	mostly cloudy	11-Dec	0 -18	8	SW	13-Sep	85	30.15	10
Sun Jan 31 15:21:53 2010	Charlotte, North Carolina 28201  	clear sky	18 -8	13 -11	3	SW	14 -10	85	30.17	10
Sun Jan 31 15:21:53 2010	San Diego, California 92101  	clear sky	52 11	52 11	0		46 8	82	29.94	5
Sun Jan 31 15:21:53 2010	San Jose, California 95101  	mostly cloudy	50 10	50 10	0		45 7	82	30.01	10
Sun Jan 31 15:21:54 2010	Denver, Colorado 80214  	clear sky	27 -3	24 -4	3	W	18 -8	68	29.85	10
Sun Jan 31 15:21:54 2010	Los Angeles, California 90001  	clear sky	48 9	48 9	0		45 7	87	29.93	7
Sun Jan 31 15:21:54 2010	Memphis, Tennessee 37501  	clear sky	19 -7	19 -7	0		16 -9	86	30.31	10
Sun Jan 31 15:21:55 2010	New York, New York 10001  	clear sky	14 -10	13-Sep	18-Mar	N	0 -18	52	30.13	10
Sun Jan 31 15:21:55 2010	El Paso, Texas 79901  	mostly cloudy	39 4	35 2	6	N	34 1	81	30	10
Sun Jan 31 15:21:55 2010	Baltimore, Maryland 21201  	normal	18 -8	18 -8			17-Jan	48	30.18	
Sun Jan 31 15:21:56 2010	Washington, Washington D. C. 20001  	mostly cloudy	18 -8	15-May	12	NW	17-Jan	48	30.2	10
Sun Jan 31 15:21:56 2010	Austin, Texas 73301  	mostly cloudy	30 -1	24 -4	6	N	28 -2	93	30.29	8
Sun Jan 31 15:21:56 2010	Las Vegas, Nevada 89101  	clear sky	43 6	40 4	5	S	36 2	75	29.91	10
Sun Jan 31 15:21:57 2010	Oklahoma City, Oklahoma 73101  	mostly cloudy	21 -6	12-Nov	9	S	19 -7	93	30.25	0.7
Sun Jan 31 15:21:57 2010	San Francisco, California 94101  	mostly cloudy	48 9	45 7	6	S	45 7	87	30.01	10
Sun Jan 31 15:21:57 2010	Nashville, Tennessee 37201  	clear sky	11-Dec	14-Jul	3	S	13-Sep	85	30.3	5
Sun Jan 31 15:21:58 2010	Portland, Oregon 97201  	mostly cloudy	27 -3	14 -10	18-26	N	19 -7	74	29.93	10
Sun Jan 31 15:21:58 2010	Fort Worth, Texas 76101  	mostly cloudy	28 -2	21 -6	7	E	25 -4	86	30.29	10
Sun Jan 31 15:21:58 2010	Phoenix, Arizona 85001  	clear sky	48 9	48 9	0		41 5	76	29.89	10
Sun Jan 31 15:21:59 2010	Chicago, Illinois 60601  	clear sky	16 -9	14-Jun	7	W	12-Oct	79	30.2	8
Sun Jan 31 15:21:59 2010	San Antonio, Texas 78201  	mostly cloudy	30 -1	24 -4	6	NE	28 -2	93	30.27	6
Sun Jan 31 15:21:59 2010	Indianapolis, Indiana 46201  	clear sky	13-Sep	16-Mar	3	SW	15-May	85	30.23	8
Sun Jan 31 15:22:00 2010	Jacksonville, Florida 32099  	mostly cloudy	41 5	33 1	17	N	34 1	75	30.16	10
Sun Jan 31 15:22:00 2010	Columbus, Ohio 43085  	clear sky	13-Sep	13-Sep	0		14-Jul	92	30.22	10
Sun Jan 31 15:22:01 2010	Dallas, Texas 75201  	mostly cloudy	30 -1	24 -4	6	SE	27 -3	86	30.31	10
Sun Jan 31 15:22:01 2010	Houston, Texas 77001  	mostly cloudy	36 2	30 -1	8	N	28 -2	75	30.28	8
Sun Jan 31 15:22:01 2010	Seattle, Washington 98101  	light rain	46 8	44 7	5	SE	45 7	93	29.98	10
Sun Jan 31 15:22:02 2010	Philadelphia, Pennsylvania 19019  	clear sky	16 -9	16-Apr	10	NW	0 -18	48	30.14	10
Sun Jan 31 15:22:02 2010	Milwaukee, Wisconsin 53201  	mostly cloudy	14 -10	16-Apr	7	W	15-May	67	30.14	9
Sun Jan 31 15:22:02 2010	Detroit, Michigan 48201  	mostly cloudy	14 -10	16-Apr	7	SW	13-Sep	79	30.16	10
Sun Jan 31 16:05:45 2010	San Jose, California 95101  	mostly cloudy	48 9	48 9	0		45 7	87	30.01	10
Sun Jan 31 16:05:46 2010	Charlotte, North Carolina 28201  	clear sky	21 -6	17 -8	3	SW	18 -8	86	30.22	10
Sun Jan 31 16:05:46 2010	Denver, Colorado 80214  	clear sky	25 -4	21 -6	3	SW	18 -8	74	29.85	10
Sun Jan 31 16:05:46 2010	San Diego, California 92101  	clear sky	52 11	52 11	0		46 8	82	29.95	5
Sun Jan 31 16:05:47 2010	El Paso, Texas 79901  	mostly cloudy	39 4	35 2	6	N	34 1	81	30.01	10
Sun Jan 31 16:05:47 2010	Los Angeles, California 90001  	clear sky	48 9	48 9	0		43 6	81	29.94	6
Sun Jan 31 16:05:47 2010	Memphis, Tennessee 37501  	clear sky	21 -6	21 -6	0		18 -8	86	30.34	10
Sun Jan 31 16:05:48 2010	Las Vegas, Nevada 89101  	clear sky	43 6	40 4	5	W	36 2	75	29.93	10
Sun Jan 31 16:05:48 2010	Baltimore, Maryland 21201  	normal	19 -7	19 -7			-2 -19	38	30.2	
Sun Jan 31 16:05:48 2010	New York, New York 10001  	clear sky	16 -9	16 -9	0		0 -18	48	30.12	10
Sun Jan 31 16:05:49 2010	Washington, Washington D. C. 20001  	clear sky	19 -7	15-May	14	N	17-Jan	45	30.21	10
Sun Jan 31 16:05:49 2010	Austin, Texas 73301  	mostly cloudy	30 -1	22 -6	8	NE	28 -2	93	30.29	7
Sun Jan 31 16:05:49 2010	San Francisco, California 94101  	mostly cloudy	48 9	46 8	5	S	46 8	93	30.02	10
Sun Jan 31 16:05:50 2010	Oklahoma City, Oklahoma 73101  	mostly cloudy	19 -7	13-Aug	9	S	19 -7	100	30.25	0.7
Sun Jan 31 16:05:50 2010	Fort Worth, Texas 76101  	mostly cloudy	28 -2	28 -2	0		25 -4	86	30.3	10
Sun Jan 31 16:05:50 2010	Nashville, Tennessee 37201  	clear sky	14 -10	14 -10	0		11-Dec	92	30.32	10
Sun Jan 31 16:05:51 2010	Chicago, Illinois 60601  	clear sky	16 -9	14-Jul	6	SW	12-Oct	79	30.21	9
Sun Jan 31 16:05:51 2010	Portland, Oregon 97201  	clear sky	27 -3	15 -9	16-26	N	14 -10	58	29.95	10
Sun Jan 31 16:05:51 2010	Phoenix, Arizona 85001  	mostly cloudy	48 9	46 8	5	E	39 4	71	29.9	10
Sun Jan 31 16:05:52 2010	San Antonio, Texas 78201  	mostly cloudy	30 -1	22 -6	9	NE	28 -2	93	30.26	4
Sun Jan 31 16:05:52 2010	Indianapolis, Indiana 46201  	clear sky	11-Dec	11-Dec	0		12-Oct	92	30.24	7
Sun Jan 31 16:05:53 2010	Dallas, Texas 75201  	mostly cloudy	30 -1	27 -3	3	E	27 -3	86	30.32	7
Sun Jan 31 16:05:53 2010	Jacksonville, Florida 32099  	mostly cloudy	43 6	35 2	16	N	34 1	70	30.18	10
Sun Jan 31 16:05:53 2010	Columbus, Ohio 43085  	mostly cloudy	12-Oct	12-Oct	0		13-Sep	92	30.23	10
Sun Jan 31 16:05:54 2010	Houston, Texas 77001  	mostly cloudy	36 2	29 -2	9	N	28 -2	75	30.29	10
Sun Jan 31 16:05:54 2010	Milwaukee, Wisconsin 53201  	mostly cloudy	16 -9	14-Jun	7	W	16-Mar	57	30.14	8
Sun Jan 31 16:05:54 2010	Seattle, Washington 98101  	light rain	46 8	44 7	5	SE	45 7	93	29.98	10
Sun Jan 31 16:05:55 2010	Philadelphia, Pennsylvania 19019  	clear sky	18 -8	14-Jun	10	N	0 -18	44	30.16	10
Sun Jan 31 16:05:55 2010	Detroit, Michigan 48201  	mostly cloudy	16 -9	15-May	9	SW	13-Sep	73	30.16	10
Sun Jan 31 16:55:20 2010	San Jose, California 95101  	mostly cloudy	50 10	50 10	3	NE	45 7	82	30.03	10
Sun Jan 31 16:55:21 2010	Charlotte, North Carolina 28201  	clear sky	27 -3	27 -3	0		19 -7	74	30.23	10
Sun Jan 31 16:55:21 2010	San Diego, California 92101  	clear sky	50 10	50 10	0		46 8	87	29.97	4
Sun Jan 31 16:55:22 2010	Denver, Colorado 80214  	clear sky	25 -4	25 -4	0		18 -8	74	29.84	10
Sun Jan 31 16:55:22 2010	Los Angeles, California 90001  	clear sky	46 8	46 8	0		43 6	87	29.95	5
Sun Jan 31 16:55:22 2010	Memphis, Tennessee 37501  	clear sky	25 -4	25 -4	0		21 -6	86	30.36	10
Sun Jan 31 16:55:23 2010	New York, New York 10001  	clear sky	18 -8	14-Jul	9	W	0 -18	44	30.13	10
Sun Jan 31 16:55:23 2010	El Paso, Texas 79901  	mostly cloudy	39 4	35 2	6	N	34 1	81	30.01	10
Sun Jan 31 16:55:23 2010	Baltimore, Maryland 21201  	normal	21 -6	21 -6			-4 -20	32	30.21	
Sun Jan 31 16:55:24 2010	Washington, Washington D. C. 20001  	clear sky	21 -6	12-Nov	8	NW	17-Jan	41	30.23	10
Sun Jan 31 16:55:24 2010	Austin, Texas 73301  	mostly cloudy	32 0	24 -4	10	N	28 -2	86	30.29	7
Sun Jan 31 16:55:24 2010	Las Vegas, Nevada 89101  	clear sky	41 5	38 3	5	SW	36 2	81	29.94	10
Sun Jan 31 16:55:25 2010	Oklahoma City, Oklahoma 73101  	mostly cloudy	21 -6	12-Nov	9	S	19 -7	93	30.26	1.5
Sun Jan 31 16:55:25 2010	San Francisco, California 94101  	mostly cloudy	48 9	47 8	3	S	45 7	87	30.02	10
Sun Jan 31 16:55:25 2010	Nashville, Tennessee 37201  	clear sky	18 -8	18 -8	0		18 -8	100	30.33	9
Sun Jan 31 16:55:26 2010	Fort Worth, Texas 76101  	mostly cloudy	30 -1	30 -1	0		25 -4	80	30.3	10
Sun Jan 31 16:55:26 2010	Phoenix, Arizona 85001  	mostly cloudy	48 9	48 9	0		43 6	81	29.92	10
Sun Jan 31 16:55:27 2010	Chicago, Illinois 60601  	clear sky	18 -8	14-Jun	10	W	12-Oct	73	30.2	10
Sun Jan 31 16:55:27 2010	Portland, Oregon 97201  	mostly cloudy	28 -2	15 -9	20-25	N	16 -9	59	29.98	10
Sun Jan 31 16:55:27 2010	San Antonio, Texas 78201  	mostly cloudy	32 0	25 -4	7	NE	28 -2	86	30.27	4
Sun Jan 31 16:55:28 2010	Jacksonville, Florida 32099  	mostly cloudy	43 6	36 2	14	N	32 0	65	30.2	10
Sun Jan 31 16:55:28 2010	Indianapolis, Indiana 46201  	clear sky	16 -9	16 -9	0		11-Dec	85	30.25	8
Sun Jan 31 16:55:29 2010	Columbus, Ohio 43085  	clear sky	16 -9	15-May	8	SW	12-Oct	79	30.23	10
Sun Jan 31 16:55:29 2010	Dallas, Texas 75201  	mostly cloudy	30 -1	22 -6	8	SE	27 -3	86	30.32	7
Sun Jan 31 16:55:29 2010	Houston, Texas 77001  	mostly cloudy	36 2	29 -2	10	NE	28 -2	75	30.31	10
Sun Jan 31 16:55:30 2010	Milwaukee, Wisconsin 53201  	clear sky	16 -9	15-May	9	W	15-May	62	30.16	8
Sun Jan 31 16:55:30 2010	Detroit, Michigan 48201  	mostly cloudy	19 -7	14-Jun	12	SW	13-Sep	62	30.14	10
Sun Jan 31 16:55:30 2010	Seattle, Washington 98101  	mostly cloudy	46 8	46 8	0		45 7	93	29.98	10
Sun Jan 31 16:55:31 2010	Philadelphia, Pennsylvania 19019  	clear sky	19 -7	12-Oct	7	NW	0 -18	41	30.17	10
Sun Jan 31 17:38:55 2010	San Jose, California 95101  	mostly cloudy	50 10	50 10	3	NE	45 7	82	30.03	10
Sun Jan 31 17:38:55 2010	Charlotte, North Carolina 28201  	clear sky	27 -3	27 -3	0		19 -7	74	30.23	10
Sun Jan 31 17:38:56 2010	Denver, Colorado 80214  	clear sky	25 -4	25 -4	0		18 -8	74	29.84	10
Sun Jan 31 17:38:56 2010	San Diego, California 92101  	clear sky	50 10	50 10	0		46 8	87	29.97	4
Sun Jan 31 17:38:57 2010	Los Angeles, California 90001  	clear sky	46 8	46 8	0		43 6	87	29.95	5
Sun Jan 31 17:38:57 2010	Memphis, Tennessee 37501  	clear sky	25 -4	25 -4	0		21 -6	86	30.36	10
Sun Jan 31 17:38:58 2010	New York, New York 10001  	clear sky	18 -8	14-Jul	9	W	0 -18	44	30.13	10
Sun Jan 31 17:38:58 2010	El Paso, Texas 79901  	mostly cloudy	39 4	35 2	6	N	34 1	81	30.01	10
Sun Jan 31 17:38:59 2010	Las Vegas, Nevada 89101  	clear sky	41 5	38 3	5	SW	36 2	81	29.94	10
Sun Jan 31 17:38:59 2010	Baltimore, Maryland 21201  	normal	21 -6	21 -6			-4 -20	32	30.21	
Sun Jan 31 17:39:00 2010	Washington, Washington D. C. 20001  	clear sky	21 -6	12-Nov	8	NW	17-Jan	41	30.23	10
Sun Jan 31 17:39:00 2010	Austin, Texas 73301  	mostly cloudy	32 0	24 -4	10	N	28 -2	86	30.29	7
Sun Jan 31 17:39:01 2010	San Francisco, California 94101  	mostly cloudy	48 9	47 8	3	S	45 7	87	30.02	10
Sun Jan 31 17:39:02 2010	Oklahoma City, Oklahoma 73101  	mostly cloudy	21 -6	12-Nov	9	S	19 -7	93	30.26	1.5
Sun Jan 31 17:39:02 2010	Nashville, Tennessee 37201  	clear sky	18 -8	18 -8	0		18 -8	100	30.33	9
Sun Jan 31 17:39:03 2010	Portland, Oregon 97201  	mostly cloudy	28 -2	15 -9	20-25	N	16 -9	59	29.98	10
Sun Jan 31 17:39:03 2010	Fort Worth, Texas 76101  	mostly cloudy	30 -1	30 -1	0		25 -4	80	30.3	10
Sun Jan 31 17:39:03 2010	Phoenix, Arizona 85001  	mostly cloudy	48 9	48 9	0		43 6	81	29.92	10
Sun Jan 31 17:39:04 2010	Chicago, Illinois 60601  	clear sky	18 -8	14-Jun	10	W	12-Oct	73	30.2	10
Sun Jan 31 17:39:05 2010	San Antonio, Texas 78201  	mostly cloudy	32 0	25 -4	7	NE	28 -2	86	30.27	4
Sun Jan 31 17:39:05 2010	Indianapolis, Indiana 46201  	clear sky	16 -9	16 -9	0		11-Dec	85	30.25	8
Sun Jan 31 17:39:06 2010	Columbus, Ohio 43085  	clear sky	16 -9	15-May	8	SW	12-Oct	79	30.23	10
Sun Jan 31 17:39:06 2010	Jacksonville, Florida 32099  	mostly cloudy	43 6	36 2	14	N	32 0	65	30.2	10
Sun Jan 31 17:39:07 2010	Dallas, Texas 75201  	mostly cloudy	30 -1	22 -6	8	SE	27 -3	86	30.32	7
Sun Jan 31 17:39:07 2010	Houston, Texas 77001  	mostly cloudy	36 2	29 -2	10	NE	28 -2	75	30.31	10
Sun Jan 31 17:39:07 2010	Seattle, Washington 98101  	mostly cloudy	46 8	46 8	0		45 7	93	29.98	10
Sun Jan 31 17:39:08 2010	Milwaukee, Wisconsin 53201  	clear sky	16 -9	15-May	9	W	15-May	62	30.16	8
Sun Jan 31 17:39:08 2010	Detroit, Michigan 48201  	mostly cloudy	19 -7	14-Jun	12	SW	13-Sep	62	30.14	10
Sun Jan 31 17:39:09 2010	Philadelphia, Pennsylvania 19019  	clear sky	19 -7	12-Oct	7	NW	0 -18	41	30.17	10
Sun Jan 31 18:23:58 2010	San Jose, California 95101  	mostly cloudy	48 9	47 8	3	S	45 7	87	30.03	10
Sun Jan 31 18:23:58 2010	Charlotte, North Carolina 28201  	normal	30 -1	30 -1	0		19 -7	64	30.25	10
Sun Jan 31 18:23:59 2010	Denver, Colorado 80214  	clear sky	28 -2	28 -2	0		19 -7	69	29.82	10
Sun Jan 31 18:23:59 2010	San Diego, California 92101  	clear sky	52 11	52 11	0		46 8	82	29.98	4
Sun Jan 31 18:24:00 2010	Memphis, Tennessee 37501  	clear sky	28 -2	25 -4	3	NE	23 -5	80	30.36	10
Sun Jan 31 18:24:00 2010	Los Angeles, California 90001  	clear sky	48 9	48 9	0		45 7	87	29.96	4
Sun Jan 31 18:24:01 2010	New York, New York 10001  	clear sky	19 -7	12-Nov	6	N	0 -18	41	30.14	10
Sun Jan 31 18:24:01 2010	El Paso, Texas 79901  	mostly cloudy	41 5	37 3	6	N	34 1	75	30.02	10
Sun Jan 31 18:24:02 2010	Baltimore, Maryland 21201  	normal	25 -4	25 -4			-2 -19	30	30.22	
Sun Jan 31 18:24:02 2010	Las Vegas, Nevada 89101  	clear sky	43 6	43 6	0		36 2	75	29.96	10
Sun Jan 31 18:24:03 2010	Washington, Washington D. C. 20001  	clear sky	25 -4	13 -11	13	NW	0 -18	33	30.25	10
Sun Jan 31 18:24:03 2010	Austin, Texas 73301  	mostly cloudy	32 0	23 -5	12	NE	28 -2	86	30.3	8
Sun Jan 31 18:24:04 2010	Oklahoma City, Oklahoma 73101  	mostly cloudy	23 -5	15 -9	7	S	21 -6	93	30.27	1.5
Sun Jan 31 18:24:04 2010	San Francisco, California 94101  	mostly cloudy	48 9	48 9	0		46 8	93	30.03	10
Sun Jan 31 18:24:05 2010	Fort Worth, Texas 76101  	mostly cloudy	30 -1	24 -4	6	S	27 -3	86	30.31	9
Sun Jan 31 18:24:05 2010	Nashville, Tennessee 37201  	clear sky	25 -4	25 -4	0		18 -8	74	30.34	9
Sun Jan 31 18:24:05 2010	Phoenix, Arizona 85001  	mostly cloudy	52 11	52 11	0		41 5	66	29.93	10
Sun Jan 31 18:24:06 2010	Portland, Oregon 97201  	mostly cloudy	27 -3	15 -9	15-24	N	16 -9	63	29.98	10
Sun Jan 31 18:24:06 2010	Chicago, Illinois 60601  	clear sky	19 -7	14-Jun	12	W	13-Sep	62	30.21	10
Sun Jan 31 18:24:07 2010	Indianapolis, Indiana 46201  	clear sky	19 -7	12-Nov	6	SW	14 -10	79	30.25	10
Sun Jan 31 18:24:07 2010	San Antonio, Texas 78201  	mostly cloudy	32 0	25 -4	8	NE	30 -1	93	30.3	4
Sun Jan 31 18:24:08 2010	Jacksonville, Florida 32099  	mostly cloudy	43 6	37 3	21-Dec	N	34 1	70	30.23	10
Sun Jan 31 18:24:09 2010	Columbus, Ohio 43085  	clear sky	19 -7	13-Aug	10	W	12-Oct	67	30.24	10
Sun Jan 31 18:24:09 2010	Dallas, Texas 75201  	mostly cloudy	32 0	29 -2	3	SE	27 -3	80	30.33	6
Sun Jan 31 18:24:09 2010	Houston, Texas 77001  	mostly cloudy	37 3	30 -1	10	NE	30 -1	75	30.3	10
Sun Jan 31 18:24:10 2010	Milwaukee, Wisconsin 53201  	clear sky	18 -8	14-Jul	9	W	16-Mar	52	30.16	9
Sun Jan 31 18:24:10 2010	Seattle, Washington 98101  	mostly cloudy	46 8	46 8	0		43 6	87	29.99	10
Sun Jan 31 18:24:11 2010	Philadelphia, Pennsylvania 19019  	clear sky	21 -6	11-Dec	7	N	0 -18	38	30.17	10
Sun Jan 31 18:24:11 2010	Detroit, Michigan 48201  	mostly cloudy	19 -7	15-May	14	SW	12-Oct	67	30.14	9
Sun Jan 31 19:07:52 2010	Charlotte, North Carolina 28201  	clear sky	34 1	29 -2	6	NE	19 -7	55	30.24	10
Sun Jan 31 19:07:52 2010	San Jose, California 95101  	mostly cloudy	48 9	48 9	0		45 7	87	30.03	10
Sun Jan 31 19:07:53 2010	Denver, Colorado 80214  	clear sky	30 -1	27 -3	3	N	18 -8	59	29.83	10
Sun Jan 31 19:07:53 2010	San Diego, California 92101  	clear sky	54 12	54 12	0		46 8	77	29.98	4
Sun Jan 31 19:07:54 2010	Memphis, Tennessee 37501  	clear sky	30 -1	27 -3	3	E	25 -4	80	30.36	10
Sun Jan 31 19:07:54 2010	El Paso, Texas 79901  	mostly cloudy	45 7	44 7	3	N	36 2	70	30.03	10
Sun Jan 31 19:07:54 2010	Los Angeles, California 90001  	clear sky	52 11	52 11	0		45 7	76	29.98	6
Sun Jan 31 19:07:55 2010	New York, New York 10001  	clear sky	21 -6	13 -11	6	N	0 -18	38	30.13	10
Sun Jan 31 19:07:55 2010	Baltimore, Maryland 21201  	normal	27 -3	27 -3			0 -18	30	30.21	
Sun Jan 31 19:07:55 2010	Las Vegas, Nevada 89101  	clear sky	48 9	48 9	0		36 2	62	29.97	10
Sun Jan 31 19:07:56 2010	Washington, Washington D. C. 20001  	clear sky	25 -4	13 -11	13	N	17-Jan	36	30.24	10
Sun Jan 31 19:07:56 2010	Austin, Texas 73301  	mostly cloudy	34 1	28 -2	7	NE	28 -2	80	30.3	7
Sun Jan 31 19:07:57 2010	Oklahoma City, Oklahoma 73101  	light snow	25 -4	16 -9	8	S	21 -6	86	30.27	0.7
Sun Jan 31 19:07:57 2010	San Francisco, California 94101  	mostly cloudy	50 10	48 9	5	SE	46 8	87	30.04	10
Sun Jan 31 19:07:57 2010	Nashville, Tennessee 37201  	clear sky	28 -2	28 -2	0		19 -7	69	30.34	10
Sun Jan 31 19:07:58 2010	Portland, Oregon 97201  	clear sky	28 -2	16 -9	15-22	NW	14 -10	54	29.98	10
Sun Jan 31 19:07:58 2010	Fort Worth, Texas 76101  	mostly cloudy	30 -1	24 -4	6	SE	27 -3	86	30.3	10
Sun Jan 31 19:07:58 2010	Phoenix, Arizona 85001  	mostly cloudy	55 13	55 13	3	E	41 5	58	29.94	10
Sun Jan 31 19:07:59 2010	San Antonio, Texas 78201  	mostly cloudy	32 0	25 -4	7	E	30 -1	93	30.3	4
Sun Jan 31 19:07:59 2010	Chicago, Illinois 60601  	clear sky	25 -4	14 -10	12	W	14-Jul	46	30.22	10
Sun Jan 31 19:08:00 2010	Indianapolis, Indiana 46201  	clear sky	23 -5	15 -9	7	SW	14 -10	68	30.26	10
Sun Jan 31 19:08:00 2010	Jacksonville, Florida 32099  	mostly cloudy	45 7	39 4	13-21	NE	34 1	66	30.24	10
Sun Jan 31 19:08:01 2010	Columbus, Ohio 43085  	clear sky	21 -6	13-Sep	12	SW	11-Dec	68	30.22	10
Sun Jan 31 19:08:01 2010	Dallas, Texas 75201  	mostly cloudy	32 0	26 -3	6	S	27 -3	80	30.32	6
Sun Jan 31 19:08:02 2010	Houston, Texas 77001  	mostly cloudy	37 3	31 -1	8	NE	30 -1	75	30.3	8
Sun Jan 31 19:08:02 2010	Milwaukee, Wisconsin 53201  	clear sky	19 -7	14-Jun	13-20	NW	15-May	53	30.16	9
Sun Jan 31 19:08:02 2010	Seattle, Washington 98101  	mostly cloudy	46 8	46 8	0		43 6	87	30	10
Sun Jan 31 19:08:03 2010	Philadelphia, Pennsylvania 19019  	clear sky	25 -4	18 -8	6	NW	0 -18	33	30.17	10
Sun Jan 31 19:08:03 2010	Detroit, Michigan 48201  	mostly cloudy	21 -6	14-Jul	15-21	SW	11-Dec	68	30.13	10
Sun Jan 31 19:53:10 2010	San Jose, California 95101  	mostly cloudy	52 11	52 11	0		45 7	76	30.05	10
Sun Jan 31 19:53:11 2010	Charlotte, North Carolina 28201  	clear sky	34 1	32 0	3	N	18 -8	51	30.22	10
Sun Jan 31 19:53:11 2010	San Diego, California 92101  	clear sky	57 14	56 13	7	NW	48 9	72	29.99	6
Sun Jan 31 19:53:12 2010	Denver, Colorado 80214  	clear sky	34 1	27 -3	8	N	19 -7	55	29.83	10
Sun Jan 31 19:53:12 2010	Memphis, Tennessee 37501  	clear sky	32 0	26 -3	6	E	25 -4	74	30.33	10
Sun Jan 31 19:53:12 2010	Los Angeles, California 90001  	clear sky	57 14	57 14	0		45 7	63	29.99	6
Sun Jan 31 19:53:13 2010	New York, New York 10001  	clear sky	25 -4	19 -7	5	N	17-Jan	36	30.1	10
Sun Jan 31 19:53:13 2010	Baltimore, Maryland 21201  	normal	28 -2	28 -2			0 -18	28	30.18	
Sun Jan 31 19:53:13 2010	El Paso, Texas 79901  	mostly cloudy	48 9	48 9	0		34 1	57	30.01	10
Sun Jan 31 19:53:14 2010	Washington, Washington D. C. 20001  	clear sky	28 -2	20 -7	8	NW	16-Mar	33	30.22	10
Sun Jan 31 19:53:14 2010	Las Vegas, Nevada 89101  	clear sky	52 11	52 11	0		34 1	50	29.98	10
Sun Jan 31 19:53:15 2010	Austin, Texas 73301  	mostly cloudy	34 1	34 1	0		28 -2	80	30.3	7
Sun Jan 31 19:53:16 2010	Oklahoma City, Oklahoma 73101  	mostly cloudy	25 -4	17 -8	7	S	23 -5	93	30.26	1
Sun Jan 31 19:53:16 2010	San Francisco, California 94101  	clear sky	52 11	52 11	3	NE	48 9	87	30.05	9
Sun Jan 31 19:53:17 2010	Fort Worth, Texas 76101  	mostly cloudy	30 -1	25 -4	5	E	27 -3	86	30.28	10
Sun Jan 31 19:53:17 2010	Nashville, Tennessee 37201  	clear sky	32 0	32 0	0		16 -9	51	30.32	10
Sun Jan 31 19:53:18 2010	Phoenix, Arizona 85001  	mostly cloudy	61 16	61 16	6	E	39 4	45	29.94	10
Sun Jan 31 19:53:18 2010	Portland, Oregon 97201  	clear sky	27 -3	16 -9	12	NW	13-Sep	46	29.96	10
Sun Jan 31 19:53:19 2010	Indianapolis, Indiana 46201  	clear sky	25 -4	16 -9	8	SW	14 -10	63	30.24	10
Sun Jan 31 19:53:19 2010	San Antonio, Texas 78201  	mostly cloudy	34 1	27 -3	8	E	30 -1	86	30.28	4
Sun Jan 31 19:53:19 2010	Chicago, Illinois 60601  	clear sky	27 -3	16 -9	12	W	14-Jul	42	30.2	10
Sun Jan 31 19:53:20 2010	Jacksonville, Florida 32099  	mostly cloudy	45 7	37 3	18	NE	34 1	66	30.22	10
Sun Jan 31 19:53:21 2010	Columbus, Ohio 43085  	clear sky	23 -5	12-Nov	12	W	11-Dec	63	30.19	10
Sun Jan 31 19:53:21 2010	Houston, Texas 77001  	mostly cloudy	39 4	35 2	5	NE	30 -1	70	30.28	9
Sun Jan 31 19:53:21 2010	Dallas, Texas 75201  	mostly cloudy	34 1	34 1	0		28 -2	80	30.3	6
Sun Jan 31 19:53:22 2010	Seattle, Washington 98101  	mostly cloudy	48 9	47 8	3	S	45 7	87	30.01	10
Sun Jan 31 19:53:23 2010	Philadelphia, Pennsylvania 19019  	clear sky	27 -3	19 -7	8	W	17-Jan	33	30.14	10
Sun Jan 31 19:53:23 2010	Detroit, Michigan 48201  	mostly cloudy	21 -6	14-Jul	15-21	SW	11-Dec	68	30.1	10
Sun Jan 31 19:53:23 2010	Milwaukee, Wisconsin 53201  	clear sky	23 -5	12-Nov	20-Dec	W	15-May	45	30.15	9
Sun Jan 31 20:35:56 2010	Charlotte, North Carolina 28201  	clear sky	34 1	32 0	3	N	18 -8	51	30.22	10
Sun Jan 31 20:35:56 2010	San Jose, California 95101  	mostly cloudy	52 11	52 11	0		45 7	76	30.05	10
Sun Jan 31 20:35:57 2010	Denver, Colorado 80214  	clear sky	34 1	27 -3	8	N	19 -7	55	29.83	10
Sun Jan 31 20:35:57 2010	Memphis, Tennessee 37501  	clear sky	32 0	26 -3	6	E	25 -4	74	30.33	10
Sun Jan 31 20:35:57 2010	San Diego, California 92101  	clear sky	57 14	56 13	7	NW	48 9	72	29.99	6
Sun Jan 31 20:35:58 2010	El Paso, Texas 79901  	mostly cloudy	48 9	48 9	0		34 1	57	30.01	10
Sun Jan 31 20:35:58 2010	Los Angeles, California 90001  	clear sky	57 14	57 14	0		45 7	63	29.99	6
Sun Jan 31 20:35:59 2010	New York, New York 10001  	clear sky	25 -4	19 -7	5	N	17-Jan	36	30.1	10
Sun Jan 31 20:35:59 2010	Baltimore, Maryland 21201  	normal	28 -2	28 -2			0 -18	28	30.18	
Sun Jan 31 20:35:59 2010	Las Vegas, Nevada 89101  	clear sky	52 11	52 11	0		34 1	50	29.98	10
Sun Jan 31 20:36:00 2010	Washington, Washington D. C. 20001  	clear sky	28 -2	20 -7	8	NW	16-Mar	33	30.22	10
Sun Jan 31 20:36:00 2010	San Francisco, California 94101  	clear sky	52 11	52 11	3	NE	48 9	87	30.05	9
Sun Jan 31 20:36:00 2010	Austin, Texas 73301  	mostly cloudy	34 1	34 1	0		28 -2	80	30.3	7
Sun Jan 31 20:36:01 2010	Oklahoma City, Oklahoma 73101  	mostly cloudy	25 -4	17 -8	7	S	23 -5	93	30.26	1
Sun Jan 31 20:36:01 2010	Nashville, Tennessee 37201  	clear sky	32 0	32 0	0		16 -9	51	30.32	10
Sun Jan 31 20:36:02 2010	Fort Worth, Texas 76101  	mostly cloudy	30 -1	25 -4	5	E	27 -3	86	30.28	10
Sun Jan 31 20:36:02 2010	Phoenix, Arizona 85001  	mostly cloudy	61 16	61 16	6	E	39 4	45	29.94	10
Sun Jan 31 20:36:02 2010	Portland, Oregon 97201  	clear sky	27 -3	16 -9	12	NW	13-Sep	46	29.96	10
Sun Jan 31 20:36:03 2010	Indianapolis, Indiana 46201  	clear sky	25 -4	16 -9	8	SW	14 -10	63	30.24	10
Sun Jan 31 20:36:03 2010	San Antonio, Texas 78201  	mostly cloudy	34 1	27 -3	8	E	30 -1	86	30.28	4
Sun Jan 31 20:36:03 2010	Chicago, Illinois 60601  	clear sky	27 -3	16 -9	12	W	14-Jul	42	30.2	10
Sun Jan 31 20:36:04 2010	Jacksonville, Florida 32099  	mostly cloudy	45 7	37 3	18	NE	34 1	66	30.22	10
Sun Jan 31 20:36:05 2010	Columbus, Ohio 43085  	clear sky	23 -5	12-Nov	12	W	11-Dec	63	30.19	10
Sun Jan 31 20:36:05 2010	Houston, Texas 77001  	mostly cloudy	39 4	35 2	5	NE	30 -1	70	30.28	9
Sun Jan 31 20:36:05 2010	Dallas, Texas 75201  	mostly cloudy	34 1	34 1	0		28 -2	80	30.3	6
Sun Jan 31 20:36:06 2010	Detroit, Michigan 48201  	mostly cloudy	21 -6	14-Jul	15-21	SW	11-Dec	68	30.1	10
Sun Jan 31 20:36:06 2010	Seattle, Washington 98101  	mostly cloudy	48 9	47 8	3	S	45 7	87	30.01	10
Sun Jan 31 20:36:06 2010	Milwaukee, Wisconsin 53201  	clear sky	23 -5	12-Nov	20-Dec	W	15-May	45	30.15	9
Sun Jan 31 20:36:07 2010	Philadelphia, Pennsylvania 19019  	clear sky	27 -3	19 -7	8	W	17-Jan	33	30.14	10
Sun Jan 31 21:20:29 2010	San Jose, California 95101  	clear sky	54 12	54 12	0		46 8	77	30.05	10
Sun Jan 31 21:20:30 2010	Denver, Colorado 80214  	clear sky	36 2	31 -1	6	N	18 -8	47	29.82	10
Sun Jan 31 21:20:30 2010	San Diego, California 92101  	clear sky	59 15	58 14	8	NW	48 9	67	29.99	9
Sun Jan 31 21:20:30 2010	Charlotte, North Carolina 28201  	clear sky	36 2	36 2	0		18 -8	47	30.2	10
Sun Jan 31 21:20:31 2010	El Paso, Texas 79901  	mostly cloudy	52 11	52 11	0		34 1	50	29.98	10
Sun Jan 31 21:20:31 2010	Los Angeles, California 90001  	clear sky	63 17	63 17	0		45 7	52	29.97	7
Sun Jan 31 21:20:31 2010	Memphis, Tennessee 37501  	clear sky	34 1	34 1	0		25 -4	69	30.32	10
Sun Jan 31 21:20:32 2010	New York, New York 10001  	normal	27 -3	19 -7	7	W	17-Jan	33	30.09	10
Sun Jan 31 21:20:32 2010	Baltimore, Maryland 21201  	normal	30 -1	30 -1			17-Jan	28	30.17	
Sun Jan 31 21:20:32 2010	Las Vegas, Nevada 89101  	clear sky	54 12	54 12	0		34 1	47	29.97	10
Sun Jan 31 21:20:33 2010	Washington, Washington D. C. 20001  	clear sky	30 -1	24 -4	6	N	16-Mar	31	30.19	10
Sun Jan 31 21:20:33 2010	San Francisco, California 94101  	clear sky	52 11	50 10	6	NE	46 8	82	30.05	10
Sun Jan 31 21:20:33 2010	Austin, Texas 73301  	mostly cloudy	34 1	34 1	0		28 -2	80	30.26	8
Sun Jan 31 21:20:34 2010	Oklahoma City, Oklahoma 73101  	mostly cloudy	27 -3	18 -8	10	SE	23 -5	86	30.23	1.5
Sun Jan 31 21:20:34 2010	Fort Worth, Texas 76101  	mostly cloudy	32 0	25 -4	7	SE	27 -3	80	30.23	10
Sun Jan 31 21:20:34 2010	Nashville, Tennessee 37201  	clear sky	34 1	34 1	0		18 -8	51	30.31	10
Sun Jan 31 21:20:35 2010	Phoenix, Arizona 85001  	mostly cloudy	63 17	63 17	5	N	39 4	42	29.93	10
Sun Jan 31 21:20:35 2010	Portland, Oregon 97201  	clear sky	27 -3	16 -9	12	NW	14-Jul	42	29.97	10
Sun Jan 31 21:20:36 2010	Indianapolis, Indiana 46201  	clear sky	27 -3	18 -8	9	W	14 -10	58	30.23	10
Sun Jan 31 21:20:36 2010	San Antonio, Texas 78201  	mostly cloudy	34 1	32 0	3	E	30 -1	86	30.26	5
Sun Jan 31 21:20:36 2010	Chicago, Illinois 60601  	clear sky	28 -2	17 -8	14	W	14-Jul	39	30.19	10
Sun Jan 31 21:20:37 2010	Columbus, Ohio 43085  	clear sky	25 -4	13 -11	14-21	SW	11-Dec	58	30.18	10
Sun Jan 31 21:20:37 2010	Jacksonville, Florida 32099  	mostly cloudy	45 7	38 3	16	N	34 1	66	30.22	10
Sun Jan 31 21:20:38 2010	Dallas, Texas 75201  	mostly cloudy	36 2	34 1	3	N	28 -2	75	30.25	6
Sun Jan 31 21:20:38 2010	Seattle, Washington 98101  	mostly cloudy	48 9	47 8	3	S	45 7	87	30.01	10
Sun Jan 31 21:20:38 2010	Houston, Texas 77001  	mostly cloudy	39 4	39 4	0		30 -1	70	30.27	10
Sun Jan 31 21:20:39 2010	Philadelphia, Pennsylvania 19019  	clear sky	28 -2	18 -8	12	W	0 -18	28	30.14	10
Sun Jan 31 21:20:39 2010	Detroit, Michigan 48201  	mostly cloudy	23 -5	12-Oct	15-23	W	11-Dec	63	30.08	10
Sun Jan 31 21:20:39 2010	Milwaukee, Wisconsin 53201  	clear sky	25 -4	14 -10	20-Dec	W	15-May	42	30.13	10
Sun Jan 31 22:03:27 2010	San Jose, California 95101  	clear sky	57 14	57 14	0		45 7	63	30.02	10
Sun Jan 31 22:03:28 2010	San Diego, California 92101  	clear sky	61 16	60 16	10	W	48 9	63	29.97	10
Sun Jan 31 22:03:28 2010	Charlotte, North Carolina 28201  	clear sky	37 3	37 3	0		18 -8	44	30.21	10
Sun Jan 31 22:03:29 2010	Denver, Colorado 80214  	clear sky	39 4	39 4	0		18 -8	41	29.78	10
Sun Jan 31 22:03:29 2010	Los Angeles, California 90001  	clear sky	64 18	64 18	0		43 6	45	29.93	8
Sun Jan 31 22:03:29 2010	Memphis, Tennessee 37501  	clear sky	36 2	36 2	0		27 -3	69	30.31	10
Sun Jan 31 22:03:30 2010	New York, New York 10001  	clear sky	28 -2	21 -6	7	N	17-Jan	31	30.09	10
Sun Jan 31 22:03:30 2010	El Paso, Texas 79901  	mostly cloudy	54 12	54 12	3	N	34 1	47	29.94	10
Sun Jan 31 22:03:31 2010	Las Vegas, Nevada 89101  	clear sky	55 13	54 12	5	E	34 1	44	29.94	10
Sun Jan 31 22:03:31 2010	Baltimore, Maryland 21201  	normal	30 -1	30 -1			16-Mar	31	30.17	
Sun Jan 31 22:03:32 2010	Austin, Texas 73301  	mostly cloudy	36 2	36 2	0		30 -1	80	30.24	8
Sun Jan 31 22:03:32 2010	San Francisco, California 94101  	mostly cloudy	54 12	54 12	0		48 9	82	30.03	10
Sun Jan 31 22:03:32 2010	Washington, Washington D. C. 20001  	clear sky	30 -1	30 -1	0		16-Mar	31	30.19	10
Sun Jan 31 22:03:33 2010	Oklahoma City, Oklahoma 73101  	mostly cloudy	27 -3	18 -8	10	SE	25 -4	93	30.2	1.5
Sun Jan 31 22:03:33 2010	Nashville, Tennessee 37201  	clear sky	36 2	36 2	0		18 -8	47	30.29	10
Sun Jan 31 22:03:34 2010	Fort Worth, Texas 76101  	mostly cloudy	34 1	29 -2	5	NE	28 -2	80	30.22	10
Sun Jan 31 22:03:34 2010	Phoenix, Arizona 85001  	clear sky	64 18	64 18	0		39 4	39	29.89	10
Sun Jan 31 22:03:35 2010	Chicago, Illinois 60601  	clear sky	28 -2	16 -9	16	W	15-May	36	30.19	10
Sun Jan 31 22:03:35 2010	Portland, Oregon 97201  	clear sky	27 -3	16 -9	20-Dec	NW	14-Jul	42	29.99	10
Sun Jan 31 22:03:36 2010	Indianapolis, Indiana 46201  	clear sky	28 -2	19 -7	9	W	16 -9	59	30.22	10
Sun Jan 31 22:03:36 2010	San Antonio, Texas 78201  	mostly cloudy	34 1	32 0	3	E	30 -1	86	30.22	5
Sun Jan 31 22:03:37 2010	Columbus, Ohio 43085  	clear sky	27 -3	16 -9	13-21	W	11-Dec	54	30.17	10
Sun Jan 31 22:03:37 2010	Jacksonville, Florida 32099  	mostly cloudy	45 7	38 3	16	NE	34 1	66	30.21	10
Sun Jan 31 22:03:38 2010	Dallas, Texas 75201  	mostly cloudy	36 2	30 -1	7	E	28 -2	75	30.23	6
Sun Jan 31 22:03:38 2010	Seattle, Washington 98101  	mostly cloudy	48 9	45 7	6	S	45 7	87	30.01	10
Sun Jan 31 22:03:38 2010	Houston, Texas 77001  	mostly cloudy	39 4	39 4	0		30 -1	70	30.24	8
Sun Jan 31 22:03:39 2010	Detroit, Michigan 48201  	mostly cloudy	25 -4	13 -11	13-22	W	14 -10	63	30.07	10
Sun Jan 31 22:03:39 2010	Milwaukee, Wisconsin 53201  	mostly cloudy	25 -4	13 -11	15-23	W	16-Mar	39	30.15	10
Sun Jan 31 22:03:40 2010	Philadelphia, Pennsylvania 19019  	clear sky	28 -2	19 -7	9	W	0 -18	28	30.13	10
Sun Jan 31 22:48:12 2010	San Jose, California 95101  	mostly cloudy	57 14	57 14	3	NW	46 8	67	29.99	10
Sun Jan 31 22:48:13 2010	San Diego, California 92101  	clear sky	61 16	59 15	13	W	48 9	63	29.94	10
Sun Jan 31 22:48:13 2010	Charlotte, North Carolina 28201  	clear sky	39 4	39 4	0		14 -10	35	30.21	10
Sun Jan 31 22:48:14 2010	Denver, Colorado 80214  	clear sky	41 5	34 1	13	N	18 -8	38	29.79	10
Sun Jan 31 22:48:14 2010	Memphis, Tennessee 37501  	clear sky	37 3	33 1	5	N	27 -3	65	30.3	10
Sun Jan 31 22:48:15 2010	New York, New York 10001  	clear sky	30 -1	23 -5	7	W	17-Jan	28	30.08	10
Sun Jan 31 22:48:15 2010	El Paso, Texas 79901  	mostly cloudy	55 13	55 13	3	W	32 0	41	29.91	10
Sun Jan 31 22:48:15 2010	Los Angeles, California 90001  	clear sky	64 18	64 18	0		45 7	49	29.92	6
Sun Jan 31 22:48:16 2010	Baltimore, Maryland 21201  	normal	30 -1	30 -1			15-May	34	30.17	
Sun Jan 31 22:48:17 2010	Las Vegas, Nevada 89101  	mostly cloudy	55 13	55 13	3	W	34 1	44	29.92	10
Sun Jan 31 22:48:17 2010	Washington, Washington D. C. 20001  	clear sky	34 1	27 -3	8	NW	15-May	29	30.18	10
Sun Jan 31 22:48:18 2010	San Francisco, California 94101  	mostly cloudy	54 12	54 12	3	NE	48 9	82	30	10
Sun Jan 31 22:48:18 2010	Austin, Texas 73301  	mostly cloudy	36 2	36 2	0		30 -1	80	30.22	7
Sun Jan 31 22:48:19 2010	Oklahoma City, Oklahoma 73101  	mostly cloudy	27 -3	18 -8	9	S	25 -4	93	30.19	2.5
Sun Jan 31 22:48:19 2010	Fort Worth, Texas 76101  	mostly cloudy	34 1	34 1	0		28 -2	80	30.21	10
Sun Jan 31 22:48:19 2010	Nashville, Tennessee 37201  	clear sky	37 3	37 3	0		18 -8	44	30.29	10
Sun Jan 31 22:48:20 2010	Portland, Oregon 97201  	clear sky	27 -3	18 -8	20-Oct	NW	14-Jul	42	30	10
Sun Jan 31 22:48:20 2010	Phoenix, Arizona 85001  	clear sky	66 19	66 19	0		39 4	37	29.87	10
Sun Jan 31 22:48:21 2010	San Antonio, Texas 78201  	mostly cloudy	36 2	32 0	5	NE	30 -1	80	30.19	6
Sun Jan 31 22:48:21 2010	Chicago, Illinois 60601  	mostly cloudy	28 -2	16 -9	16	W	13-Sep	43	30.2	10
Sun Jan 31 22:48:22 2010	Indianapolis, Indiana 46201  	clear sky	28 -2	17 -8	13	W	14 -10	54	30.23	10
Sun Jan 31 22:48:22 2010	Jacksonville, Florida 32099  	mostly cloudy	45 7	39 4	12	NE	34 1	66	30.22	10
Sun Jan 31 22:48:23 2010	Columbus, Ohio 43085  	clear sky	28 -2	16 -9	16-21	SW	11-Dec	50	30.17	10
Sun Jan 31 22:48:23 2010	Dallas, Texas 75201  	mostly cloudy	37 3	32 0	7	E	28 -2	70	30.22	6
Sun Jan 31 22:48:24 2010	Seattle, Washington 98101  	mostly cloudy	48 9	45 7	6	S	43 6	81	29.98	10
Sun Jan 31 22:48:24 2010	Houston, Texas 77001  	mostly cloudy	39 4	39 4	0		30 -1	70	30.23	10
Sun Jan 31 22:48:25 2010	Detroit, Michigan 48201  	mostly cloudy	27 -3	16 -9	13-21	SW	14 -10	58	30.06	10
Sun Jan 31 22:48:25 2010	Milwaukee, Wisconsin 53201  	clear sky	25 -4	13 -11	14-23	NW	15-May	42	30.17	8
Sun Jan 31 22:48:26 2010	Philadelphia, Pennsylvania 19019  	clear sky	30 -1	21 -6	10	W	0 -18	26	30.12	10
Sun Jan 31 23:31:37 2010	San Jose, California 95101  	mostly cloudy	57 14	57 14	3	NW	46 8	67	29.99	10
Sun Jan 31 23:31:37 2010	Charlotte, North Carolina 28201  	clear sky	39 4	39 4	0		14 -10	35	30.21	10
Sun Jan 31 23:31:38 2010	Denver, Colorado 80214  	clear sky	41 5	34 1	13	N	18 -8	38	29.79	10
Sun Jan 31 23:31:38 2010	San Diego, California 92101  	clear sky	61 16	59 15	13	W	48 9	63	29.94	10
Sun Jan 31 23:31:39 2010	Memphis, Tennessee 37501  	clear sky	37 3	33 1	5	N	27 -3	65	30.3	10
Sun Jan 31 23:31:39 2010	Los Angeles, California 90001  	clear sky	64 18	64 18	0		45 7	49	29.92	6
Sun Jan 31 23:31:40 2010	New York, New York 10001  	clear sky	30 -1	23 -5	7	W	17-Jan	28	30.08	10
Sun Jan 31 23:31:40 2010	El Paso, Texas 79901  	mostly cloudy	55 13	55 13	3	W	32 0	41	29.91	10
Sun Jan 31 23:31:40 2010	Baltimore, Maryland 21201  	normal	30 -1	30 -1			15-May	34	30.17	
Sun Jan 31 23:31:41 2010	Las Vegas, Nevada 89101  	mostly cloudy	55 13	55 13	3	W	34 1	44	29.92	10
Sun Jan 31 23:31:41 2010	Washington, Washington D. C. 20001  	clear sky	34 1	27 -3	8	NW	15-May	29	30.18	10
Sun Jan 31 23:31:42 2010	Oklahoma City, Oklahoma 73101  	mostly cloudy	27 -3	18 -8	9	S	25 -4	93	30.19	2.5
Sun Jan 31 23:31:42 2010	San Francisco, California 94101  	mostly cloudy	54 12	54 12	3	NE	48 9	82	30	10
Sun Jan 31 23:31:42 2010	Austin, Texas 73301  	mostly cloudy	36 2	36 2	0		30 -1	80	30.22	7
Sun Jan 31 23:31:43 2010	Fort Worth, Texas 76101  	mostly cloudy	34 1	34 1	0		28 -2	80	30.21	10
Sun Jan 31 23:31:43 2010	Nashville, Tennessee 37201  	clear sky	37 3	37 3	0		18 -8	44	30.29	10
Sun Jan 31 23:31:44 2010	Portland, Oregon 97201  	clear sky	27 -3	18 -8	20-Oct	NW	14-Jul	42	30	10
Sun Jan 31 23:31:44 2010	Chicago, Illinois 60601  	mostly cloudy	28 -2	16 -9	16	W	13-Sep	43	30.2	10
Sun Jan 31 23:31:44 2010	Phoenix, Arizona 85001  	clear sky	66 19	66 19	0		39 4	37	29.87	10
Sun Jan 31 23:31:45 2010	Indianapolis, Indiana 46201  	clear sky	28 -2	17 -8	13	W	14 -10	54	30.23	10
Sun Jan 31 23:31:45 2010	San Antonio, Texas 78201  	mostly cloudy	36 2	32 0	5	NE	30 -1	80	30.19	6
Sun Jan 31 23:31:46 2010	Columbus, Ohio 43085  	clear sky	28 -2	16 -9	16-21	SW	11-Dec	50	30.17	10
Sun Jan 31 23:31:46 2010	Jacksonville, Florida 32099  	mostly cloudy	45 7	39 4	12	NE	34 1	66	30.22	10
Sun Jan 31 23:31:47 2010	Dallas, Texas 75201  	mostly cloudy	37 3	32 0	7	E	28 -2	70	30.22	6
Sun Jan 31 23:31:47 2010	Houston, Texas 77001  	mostly cloudy	39 4	39 4	0		30 -1	70	30.23	10
Sun Jan 31 23:31:48 2010	Detroit, Michigan 48201  	mostly cloudy	27 -3	16 -9	13-21	SW	14 -10	58	30.06	10
Sun Jan 31 23:31:48 2010	Seattle, Washington 98101  	mostly cloudy	48 9	45 7	6	S	43 6	81	29.98	10
Sun Jan 31 23:31:48 2010	Milwaukee, Wisconsin 53201  	clear sky	25 -4	13 -11	14-23	NW	15-May	42	30.17	8
Sun Jan 31 23:31:49 2010	Philadelphia, Pennsylvania 19019  	clear sky	30 -1	21 -6	10	W	0 -18	26	30.12	10
Thu Feb  4 00:16:54 2010	San Jose, California 95101  	clear sky	63 17	63 17	5	NW	45 7	52	29.8	10
Thu Feb  4 00:16:54 2010	Charlotte, North Carolina 28201  	clear sky	52 11	52 11	0		32 0	47	30.12	10
Thu Feb  4 00:16:55 2010	Denver, Colorado 80214  	clear sky	48 9	41 5	18-24	SE	12-Oct	21	29.84	10
Thu Feb  4 00:16:55 2010	Memphis, Tennessee 37501  	mostly cloudy	46 8	41 5	10	NE	28 -2	49	30.21	10
Thu Feb  4 00:16:55 2010	San Diego, California 92101  	clear sky	63 17	63 17	7	NW	50 10	63	29.78	10
Thu Feb  4 00:16:56 2010	New York, New York 10001  	mostly cloudy	36 2	30 -1	20-Jul	W	23 -5	60	30.04	10
Thu Feb  4 00:16:56 2010	El Paso, Texas 79901  	light rain	43 6	36 2	14	N	41 5	93	29.68	7
Thu Feb  4 00:16:56 2010	Los Angeles, California 90001  	clear sky	68 20	68 20	0		43 6	40	29.71	10
Thu Feb  4 00:16:57 2010	Washington, Washington D. C. 20001  	mostly cloudy	41 5	36 2	8	NW	28 -2	61	30.16	10
Thu Feb  4 00:16:57 2010	Las Vegas, Nevada 89101  	clear sky	61 16	60 16	7	E	32 0	34	29.68	10
Thu Feb  4 00:16:57 2010	Baltimore, Maryland 21201  	normal	41 5	41 5			27 -3	56	30.12	
Thu Feb  4 00:16:58 2010	Oklahoma City, Oklahoma 73101  	clear sky	37 3	32 0	7	E	34 1	87	30.09	9
Thu Feb  4 00:16:58 2010	Austin, Texas 73301  	moderate rain	48 9	43 6	12	NE	46 8	93	29.92	2
Thu Feb  4 00:16:58 2010	San Francisco, California 94101  	mostly cloudy	57 14	57 14	0		48 9	72	29.81	10
Thu Feb  4 00:16:59 2010	Nashville, Tennessee 37201  	clear sky	45 7	41 5	7	N	27 -3	49	30.23	10
Thu Feb  4 00:16:59 2010	Phoenix, Arizona 85001  	mostly cloudy	70 21	76 24	8	S	37 3	31	29.6	10
Thu Feb  4 00:16:59 2010	Fort Worth, Texas 76101  	moderate rain	43 6	39 4	6	E	39 4	87	30.06	5
Thu Feb  4 00:17:00 2010	Chicago, Illinois 60601  	mostly cloudy	30 -1	23 -5	7	E	21 -6	69	30.3	10
Thu Feb  4 00:17:00 2010	Portland, Oregon 97201  	mostly cloudy	30 -1	20 -7	13	N	27 -3	86	29.95	9
Thu Feb  4 00:17:00 2010	San Antonio, Texas 78201  	light rain	48 9	44 7	23-Oct	E	48 9	100	29.88	2
Thu Feb  4 00:17:01 2010	Indianapolis, Indiana 46201  	mostly cloudy	28 -2	25 -4	3	N	21 -6	74	30.29	8
Thu Feb  4 00:17:01 2010	Jacksonville, Florida 32099  	mostly cloudy	54 12	52 11	6	NE	43 6	67	30.15	10
Thu Feb  4 00:17:02 2010	Columbus, Ohio 43085  	mostly cloudy	32 0	25 -4	8	W	25 -4	74	30.25	4
Thu Feb  4 00:17:02 2010	Dallas, Texas 75201  	light rain	45 7	42 6	5	E	39 4	81	30.05	6
Thu Feb  4 00:17:02 2010	Houston, Texas 77001  	mostly cloudy	52 11	46 8	20-25	E	45 7	76	29.95	9
Thu Feb  4 00:17:03 2010	Milwaukee, Wisconsin 53201  	clear sky	28 -2	21 -6	6	E	18 -8	63	30.29	10
Thu Feb  4 00:17:03 2010	Seattle, Washington 98101  	light rain	46 8	46 8	0		45 7	93	29.72	9
Thu Feb  4 00:17:04 2010	Detroit, Michigan 48201  	mostly cloudy	32 0	25 -4	7	NW	23 -5	69	30.24	10
Thu Feb  4 00:17:04 2010	Philadelphia, Pennsylvania 19019  	clear sky	37 3	30 -1	18-Sep	NW	27 -3	65	30.08	10
Thu Feb  4 01:00:45 2010	San Jose, California 95101  	mostly cloudy	63 17	63 17	5	N	45 7	52	29.78	10
Thu Feb  4 01:00:46 2010	Denver, Colorado 80214  	clear sky	45 7	39 4	14-24	SE	11-Dec	26	29.84	10
Thu Feb  4 01:00:46 2010	Charlotte, North Carolina 28201  	clear sky	46 8	45 7	3	NE	32 0	57	30.14	10
Thu Feb  4 01:00:46 2010	San Diego, California 92101  	clear sky	61 16	60 16	9	S	52 11	72	29.77	10
Thu Feb  4 01:00:47 2010	Memphis, Tennessee 37501  	mostly cloudy	45 7	40 4	9	N	28 -2	53	30.24	10
Thu Feb  4 01:00:47 2010	El Paso, Texas 79901  	mostly cloudy	45 7	39 4	14	N	41 5	87	29.69	10
Thu Feb  4 01:00:47 2010	Los Angeles, California 90001  	clear sky	68 20	68 20	3	N	46 8	46	29.72	10
Thu Feb  4 01:00:48 2010	New York, New York 10001  	mostly cloudy	36 2	30 -1	17-Aug	W	21 -6	55	30.07	10
Thu Feb  4 01:00:48 2010	Baltimore, Maryland 21201  	normal	41 5	41 5			27 -3	56	30.15	
Thu Feb  4 01:00:49 2010	Washington, Washington D. C. 20001  	mostly cloudy	39 4	33 1	8	NW	28 -2	65	30.17	10
Thu Feb  4 01:00:49 2010	Las Vegas, Nevada 89101  	clear sky	63 17	63 17	3	N	32 0	32	29.67	10
Thu Feb  4 01:00:49 2010	Austin, Texas 73301  	moderate rain	48 9	42 6	15	NE	46 8	93	29.91	2
Thu Feb  4 01:00:49 2010	San Francisco, California 94101  	mostly cloudy	57 14	57 14	3	NE	50 10	77	29.81	10
Thu Feb  4 01:00:50 2010	Nashville, Tennessee 37201  	clear sky	43 6	38 3	8	NE	27 -3	52	30.23	10
Thu Feb  4 01:00:50 2010	Oklahoma City, Oklahoma 73101  	clear sky	37 3	30 -1	9	E	34 1	87	30.1	6
Thu Feb  4 01:00:50 2010	Fort Worth, Texas 76101  	light rain	43 6	39 4	6	NE	39 4	87	30.07	4
Thu Feb  4 01:00:51 2010	Chicago, Illinois 60601  	mostly cloudy	28 -2	21 -6	6	E	21 -6	74	30.33	10
Thu Feb  4 01:00:51 2010	Portland, Oregon 97201  	clear sky	30 -1	20 -7	13	N	27 -3	86	29.96	10
Thu Feb  4 01:00:51 2010	Phoenix, Arizona 85001  	mostly cloudy	70 21	76 24	8	S	39 4	33	29.61	10
Thu Feb  4 01:00:52 2010	San Antonio, Texas 78201  	light rain	50 10	47 8	8	E	48 9	94	29.88	6
Thu Feb  4 01:00:52 2010	Indianapolis, Indiana 46201  	clear sky	28 -2	28 -2	0		21 -6	74	30.29	7
Thu Feb  4 01:00:53 2010	Columbus, Ohio 43085  	mostly cloudy	32 0	25 -4	8	W	25 -4	74	30.29	5
Thu Feb  4 01:00:53 2010	Jacksonville, Florida 32099  	mostly cloudy	54 12	52 11	7	NE	45 7	71	30.17	10
Thu Feb  4 01:00:54 2010	Dallas, Texas 75201  	light rain	45 7	41 5	7	E	39 4	81	30.09	5
Thu Feb  4 01:00:54 2010	Seattle, Washington 98101  	light rain	48 9	46 8	5	NE	45 7	87	29.7	10
Thu Feb  4 01:00:54 2010	Houston, Texas 77001  	light rain	52 11	47 8	14-28	E	46 8	82	29.98	7
Thu Feb  4 01:00:54 2010	Milwaukee, Wisconsin 53201  	clear sky	27 -3	27 -3	0		16 -9	63	30.32	10
Thu Feb  4 01:00:55 2010	Detroit, Michigan 48201  	mostly cloudy	32 0	26 -3	6	NW	23 -5	69	30.26	10
Thu Feb  4 01:00:55 2010	Philadelphia, Pennsylvania 19019  	mostly cloudy	37 3	35 2	18-Mar	NW	27 -3	65	30.1	10
Thu Feb  4 01:44:04 2010	San Jose, California 95101  	mostly cloudy	57 14	54 12	12	NW	46 8	67	29.8	10
Thu Feb  4 01:44:04 2010	Charlotte, North Carolina 28201  	clear sky	43 6	43 6	0		34 1	70	30.18	10
Thu Feb  4 01:44:05 2010	Denver, Colorado 80214  	mostly cloudy	43 6	38 3	9	SE	11-Dec	28	29.85	10
Thu Feb  4 01:44:05 2010	Memphis, Tennessee 37501  	mostly cloudy	43 6	37 3	20-Oct	NE	28 -2	56	30.27	10
Thu Feb  4 01:44:05 2010	San Diego, California 92101  	clear sky	61 16	60 16	9	SW	52 11	72	29.78	10
Thu Feb  4 01:44:06 2010	New York, New York 10001  	clear sky	36 2	30 -1	17-Aug	W	21 -6	55	30.1	10
Thu Feb  4 01:44:06 2010	El Paso, Texas 79901  	mostly cloudy	45 7	40 4	9	N	41 5	87	29.71	10
Thu Feb  4 01:44:06 2010	Los Angeles, California 90001  	clear sky	66 19	66 19	0		45 7	46	29.73	10
Thu Feb  4 01:44:07 2010	Washington, Washington D. C. 20001  	mostly cloudy	39 4	34 1	7	W	27 -3	60	30.2	10
Thu Feb  4 01:44:07 2010	Las Vegas, Nevada 89101  	clear sky	63 17	63 17	3	NE	30 -1	29	29.68	10
Thu Feb  4 01:44:07 2010	Austin, Texas 73301  	light rain	48 9	43 6	12	E	46 8	93	29.91	2.5
Thu Feb  4 01:44:07 2010	Baltimore, Maryland 21201  	normal	39 4	39 4			25 -4	56	30.17	
Thu Feb  4 01:44:08 2010	Nashville, Tennessee 37201  	clear sky	37 3	32 0	7	N	27 -3	65	30.27	10
Thu Feb  4 01:44:08 2010	Oklahoma City, Oklahoma 73101  	clear sky	36 2	29 -2	9	E	34 1	93	30.13	7
Thu Feb  4 01:44:08 2010	San Francisco, California 94101  	clear sky	57 14	55 13	9	W	50 10	77	29.83	10
Thu Feb  4 01:44:09 2010	Portland, Oregon 97201  	mostly cloudy	30 -1	19 -7	16	NW	25 -4	80	29.97	10
Thu Feb  4 01:44:09 2010	Fort Worth, Texas 76101  	light rain	43 6	37 3	12	NE	39 4	87	30.05	5
Thu Feb  4 01:44:09 2010	Phoenix, Arizona 85001  	mostly cloudy	70 21	76 24	7	S	39 4	33	29.62	10
Thu Feb  4 01:44:10 2010	Chicago, Illinois 60601  	mostly cloudy	28 -2	25 -4	3	E	21 -6	74	30.35	10
Thu Feb  4 01:44:10 2010	San Antonio, Texas 78201  	mostly cloudy	50 10	44 7	16-25	E	48 9	94	29.83	6
Thu Feb  4 01:44:10 2010	Indianapolis, Indiana 46201  	clear sky	27 -3	27 -3	0		19 -7	74	30.32	7
Thu Feb  4 01:44:11 2010	Columbus, Ohio 43085  	mostly cloudy	30 -1	25 -4	5	NW	25 -4	80	30.31	5
Thu Feb  4 01:44:11 2010	Jacksonville, Florida 32099  	mostly cloudy	52 11	50 10	6	NE	45 7	76	30.17	10
Thu Feb  4 01:44:12 2010	Dallas, Texas 75201  	mostly cloudy	45 7	41 5	8	E	39 4	81	30.1	10
Thu Feb  4 01:44:12 2010	Houston, Texas 77001  	light rain	52 11	47 8	15-24	E	46 8	82	29.95	8
Thu Feb  4 01:44:12 2010	Seattle, Washington 98101  	mostly cloudy	50 10	50 10	0		43 6	76	29.7	10
Thu Feb  4 01:44:13 2010	Detroit, Michigan 48201  	clear sky	30 -1	25 -4	5	NW	21 -6	69	30.29	10
Thu Feb  4 01:44:13 2010	Philadelphia, Pennsylvania 19019  	clear sky	36 2	31 -1	6	W	25 -4	64	30.14	10
Thu Feb  4 01:44:13 2010	Milwaukee, Wisconsin 53201  	clear sky	25 -4	25 -4	0		16 -9	68	30.34	10
Thu Feb  4 02:31:54 2010	San Jose, California 95101  	mostly cloudy	57 14	54 12	12	NW	46 8	67	29.8	10
Thu Feb  4 02:31:54 2010	Charlotte, North Carolina 28201  	clear sky	43 6	43 6	0		34 1	70	30.18	10
Thu Feb  4 02:31:55 2010	Denver, Colorado 80214  	mostly cloudy	43 6	38 3	9	SE	11-Dec	28	29.85	10
Thu Feb  4 02:31:55 2010	Memphis, Tennessee 37501  	mostly cloudy	43 6	37 3	20-Oct	NE	28 -2	56	30.27	10
Thu Feb  4 02:31:55 2010	San Diego, California 92101  	clear sky	61 16	60 16	9	SW	52 11	72	29.78	10
Thu Feb  4 02:31:56 2010	New York, New York 10001  	clear sky	36 2	30 -1	17-Aug	W	21 -6	55	30.1	10
Thu Feb  4 02:31:56 2010	El Paso, Texas 79901  	mostly cloudy	45 7	40 4	9	N	41 5	87	29.71	10
Thu Feb  4 02:31:56 2010	Los Angeles, California 90001  	clear sky	66 19	66 19	0		45 7	46	29.73	10
Thu Feb  4 02:31:57 2010	Washington, Washington D. C. 20001  	mostly cloudy	39 4	34 1	7	W	27 -3	60	30.2	10
Thu Feb  4 02:31:57 2010	Las Vegas, Nevada 89101  	clear sky	63 17	63 17	3	NE	30 -1	29	29.68	10
Thu Feb  4 02:31:57 2010	Baltimore, Maryland 21201  	normal	39 4	39 4			25 -4	56	30.17	
Thu Feb  4 02:31:58 2010	Oklahoma City, Oklahoma 73101  	clear sky	36 2	29 -2	9	E	34 1	93	30.13	7
Thu Feb  4 02:31:58 2010	Austin, Texas 73301  	light rain	48 9	43 6	12	E	46 8	93	29.91	2.5
Thu Feb  4 02:31:58 2010	San Francisco, California 94101  	clear sky	57 14	55 13	9	W	50 10	77	29.83	10
Thu Feb  4 02:31:59 2010	Nashville, Tennessee 37201  	clear sky	37 3	32 0	7	N	27 -3	65	30.27	10
Thu Feb  4 02:31:59 2010	Fort Worth, Texas 76101  	light rain	43 6	37 3	12	NE	39 4	87	30.05	5
Thu Feb  4 02:31:59 2010	Phoenix, Arizona 85001  	mostly cloudy	70 21	76 24	7	S	39 4	33	29.62	10
Thu Feb  4 02:32:00 2010	Chicago, Illinois 60601  	mostly cloudy	28 -2	25 -4	3	E	21 -6	74	30.35	10
Thu Feb  4 02:32:00 2010	Portland, Oregon 97201  	mostly cloudy	30 -1	19 -7	16	NW	25 -4	80	29.97	10
Thu Feb  4 02:32:01 2010	San Antonio, Texas 78201  	mostly cloudy	50 10	44 7	16-25	E	48 9	94	29.83	6
Thu Feb  4 02:32:01 2010	Indianapolis, Indiana 46201  	clear sky	27 -3	27 -3	0		19 -7	74	30.32	7
Thu Feb  4 02:32:02 2010	Columbus, Ohio 43085  	mostly cloudy	30 -1	25 -4	5	NW	25 -4	80	30.31	5
Thu Feb  4 02:32:02 2010	Dallas, Texas 75201  	mostly cloudy	45 7	41 5	8	E	39 4	81	30.1	10
Thu Feb  4 02:32:02 2010	Jacksonville, Florida 32099  	mostly cloudy	52 11	50 10	6	NE	45 7	76	30.17	10
Thu Feb  4 02:32:03 2010	Houston, Texas 77001  	light rain	52 11	47 8	15-24	E	46 8	82	29.95	8
Thu Feb  4 02:32:03 2010	Milwaukee, Wisconsin 53201  	clear sky	25 -4	25 -4	0		16 -9	68	30.34	10
Thu Feb  4 02:32:03 2010	Seattle, Washington 98101  	mostly cloudy	50 10	50 10	0		43 6	76	29.7	10
Thu Feb  4 02:32:04 2010	Detroit, Michigan 48201  	clear sky	30 -1	25 -4	5	NW	21 -6	69	30.29	10
Thu Feb  4 02:32:04 2010	Philadelphia, Pennsylvania 19019  	clear sky	36 2	31 -1	6	W	25 -4	64	30.14	10
Thu Feb  4 03:15:16 2010	San Jose, California 95101  	mostly cloudy	57 14	54 12	13	NW	48 9	72	29.82	10
Thu Feb  4 03:15:16 2010	Charlotte, North Carolina 28201  	clear sky	39 4	39 4	0		34 1	81	30.19	9
Thu Feb  4 03:15:17 2010	Denver, Colorado 80214  	mostly cloudy	41 5	35 2	9	SE	11-Dec	30	29.86	10
Thu Feb  4 03:15:17 2010	Memphis, Tennessee 37501  	mostly cloudy	43 6	36 2	13-20	NE	28 -2	56	30.26	10
Thu Feb  4 03:15:17 2010	San Diego, California 92101  	clear sky	61 16	60 16	8	SW	52 11	72	29.79	10
Thu Feb  4 03:15:18 2010	New York, New York 10001  	clear sky	34 1	29 -2	5	N	21 -6	59	30.12	10
Thu Feb  4 03:15:18 2010	El Paso, Texas 79901  	light rain	45 7	40 4	10	N	41 5	87	29.73	7
Thu Feb  4 03:15:18 2010	Los Angeles, California 90001  	clear sky	63 17	63 17	0		46 8	55	29.74	10
Thu Feb  4 03:15:19 2010	Washington, Washington D. C. 20001  	mostly cloudy	39 4	35 2	6	W	27 -3	60	30.23	10
Thu Feb  4 03:15:19 2010	Las Vegas, Nevada 89101  	clear sky	61 16	61 16	5	E	32 0	34	29.68	10
Thu Feb  4 03:15:19 2010	Baltimore, Maryland 21201  	normal	39 4	39 4			27 -3	60	30.19	
Thu Feb  4 03:15:20 2010	Oklahoma City, Oklahoma 73101  	clear sky	36 2	30 -1	7	E	34 1	93	30.13	6
Thu Feb  4 03:15:20 2010	Austin, Texas 73301  	mostly cloudy	48 9	42 6	14	E	46 8	93	29.88	4
Thu Feb  4 03:15:20 2010	San Francisco, California 94101  	mostly cloudy	55 13	51 11	13	W	48 9	77	29.84	10
Thu Feb  4 03:15:21 2010	Nashville, Tennessee 37201  	clear sky	37 3	32 0	6	N	27 -3	65	30.31	10
Thu Feb  4 03:15:21 2010	Fort Worth, Texas 76101  	light rain	41 5	34 1	12	E	37 3	87	30.05	9
Thu Feb  4 03:15:21 2010	Phoenix, Arizona 85001  	mostly cloudy	68 20	68 20	6	S	39 4	35	29.64	10
Thu Feb  4 03:15:22 2010	Chicago, Illinois 60601  	mostly cloudy	30 -1	25 -4	5	SE	21 -6	69	30.36	9
Thu Feb  4 03:15:22 2010	Portland, Oregon 97201  	mostly cloudy	30 -1	19 -7	15-21	NW	25 -4	80	29.98	10
Thu Feb  4 03:15:22 2010	San Antonio, Texas 78201  	mostly cloudy	50 10	45 7	25-Dec	E	48 9	94	29.88	6
Thu Feb  4 03:15:23 2010	Indianapolis, Indiana 46201  	clear sky	27 -3	24 -4	3	NW	19 -7	74	30.35	7
Thu Feb  4 03:15:23 2010	Jacksonville, Florida 32099  	clear sky	52 11	50 10	7	N	45 7	76	30.18	10
Thu Feb  4 03:15:24 2010	Columbus, Ohio 43085  	mostly cloudy	30 -1	23 -5	7	N	25 -4	80	30.33	5
Thu Feb  4 03:15:24 2010	Dallas, Texas 75201  	light rain	45 7	40 4	10	E	37 3	76	30.07	6
Thu Feb  4 03:15:24 2010	Houston, Texas 77001  	light rain	52 11	46 8	20-24	E	46 8	82	29.96	9
Thu Feb  4 03:15:25 2010	Milwaukee, Wisconsin 53201  	clear sky	25 -4	21 -6	3	S	18 -8	74	30.35	10
Thu Feb  4 03:15:25 2010	Seattle, Washington 98101  	mostly cloudy	50 10	50 10	3	NE	43 6	76	29.7	10
Thu Feb  4 03:15:26 2010	Detroit, Michigan 48201  	mostly cloudy	30 -1	24 -4	6	NW	21 -6	69	30.32	9
Thu Feb  4 03:15:26 2010	Philadelphia, Pennsylvania 19019  	mostly cloudy	36 2	34 1	3	NW	27 -3	69	30.15	10
Thu Feb  4 03:59:35 2010	San Jose, California 95101  	mostly cloudy	55 13	53 12	9	NW	50 10	82	29.84	10
Thu Feb  4 03:59:35 2010	Charlotte, North Carolina 28201  	clear sky	37 3	37 3	0		34 1	87	30.23	7
Thu Feb  4 03:59:36 2010	Denver, Colorado 80214  	mostly cloudy	39 4	32 0	12	SE	14 -10	35	29.85	10
Thu Feb  4 03:59:36 2010	Memphis, Tennessee 37501  	mostly cloudy	39 4	35 2	5	N	30 -1	70	30.26	10
Thu Feb  4 03:59:36 2010	San Diego, California 92101  	clear sky	59 15	58 14	6	SW	52 11	77	29.81	10
Thu Feb  4 03:59:37 2010	New York, New York 10001  	clear sky	34 1	28 -2	7	N	19 -7	55	30.14	10
Thu Feb  4 03:59:37 2010	El Paso, Texas 79901  	mostly cloudy	45 7	41 5	8	N	43 6	93	29.75	10
Thu Feb  4 03:59:37 2010	Los Angeles, California 90001  	clear sky	63 17	63 17	0		46 8	55	29.76	10
Thu Feb  4 03:59:38 2010	Washington, Washington D. C. 20001  	clear sky	37 3	32 0	6	NW	27 -3	65	30.24	10
Thu Feb  4 03:59:38 2010	Baltimore, Maryland 21201  	normal	37 3	37 3			27 -3	65	30.21	
Thu Feb  4 03:59:38 2010	Las Vegas, Nevada 89101  	clear sky	59 15	59 15	0		32 0	36	29.69	10
Thu Feb  4 03:59:39 2010	Austin, Texas 73301  	mostly cloudy	48 9	43 6	12	E	46 8	93	29.93	8
Thu Feb  4 03:59:39 2010	San Francisco, California 94101  	mostly cloudy	55 13	54 12	5	SW	48 9	77	29.84	10
Thu Feb  4 03:59:40 2010	Nashville, Tennessee 37201  	clear sky	37 3	32 0	6	N	27 -3	65	30.32	10
Thu Feb  4 03:59:40 2010	Oklahoma City, Oklahoma 73101  	mostly cloudy	36 2	31 -1	6	E	34 1	93	30.13	3
Thu Feb  4 03:59:40 2010	Fort Worth, Texas 76101  	light rain	43 6	38 3	8	E	37 3	81	30.06	8
Thu Feb  4 03:59:41 2010	Chicago, Illinois 60601  	mostly cloudy	28 -2	22 -6	5	SE	21 -6	74	30.37	9
Thu Feb  4 03:59:41 2010	Portland, Oregon 97201  	mostly cloudy	30 -1	19 -7	16-21	NW	23 -5	74	29.99	10
Thu Feb  4 03:59:41 2010	Phoenix, Arizona 85001  	mostly cloudy	66 19	66 19	8	NE	43 6	43	29.67	10
Thu Feb  4 03:59:42 2010	Indianapolis, Indiana 46201  	mostly cloudy	25 -4	19 -7	5	N	19 -7	80	30.36	6
Thu Feb  4 03:59:42 2010	San Antonio, Texas 78201  	light rain	50 10	45 7	20-Dec	E	48 9	94	29.87	2
Thu Feb  4 03:59:43 2010	Columbus, Ohio 43085  	mostly cloudy	30 -1	25 -4	5	N	25 -4	80	30.34	4
Thu Feb  4 03:59:43 2010	Dallas, Texas 75201  	light rain	45 7	39 4	12	E	37 3	76	30.09	7
Thu Feb  4 03:59:43 2010	Jacksonville, Florida 32099  	clear sky	52 11	49 9	8	N	45 7	76	30.21	10
Thu Feb  4 03:59:44 2010	Milwaukee, Wisconsin 53201  	clear sky	25 -4	19 -7	5	S	16 -9	68	30.36	10
Thu Feb  4 03:59:44 2010	Seattle, Washington 98101  	mostly cloudy	48 9	45 7	6	W	45 7	87	29.72	10
Thu Feb  4 03:59:44 2010	Houston, Texas 77001  	moderate rain	52 11	47 8	14-28	E	46 8	82	29.97	5
Thu Feb  4 03:59:45 2010	Detroit, Michigan 48201  	clear sky	28 -2	25 -4	3	W	21 -6	74	30.34	9
Thu Feb  4 03:59:45 2010	Philadelphia, Pennsylvania 19019  	clear sky	34 1	29 -2	6	NW	25 -4	69	30.17	10
Thu Feb  4 04:42:44 2010	San Jose, California 95101  	mostly cloudy	55 13	54 12	6	NW	48 9	77	29.84	10
Thu Feb  4 04:42:44 2010	Charlotte, North Carolina 28201  	clear sky	37 3	37 3	0		34 1	87	30.25	8
Thu Feb  4 04:42:45 2010	Denver, Colorado 80214  	mostly cloudy	39 4	33 1	8	SE	18 -8	41	29.84	10
Thu Feb  4 04:42:45 2010	Memphis, Tennessee 37501  	mostly cloudy	39 4	32 0	12	NE	28 -2	65	30.25	10
Thu Feb  4 04:42:45 2010	San Diego, California 92101  	mostly cloudy	57 14	56 13	6	SW	52 11	82	29.85	10
Thu Feb  4 04:42:46 2010	New York, New York 10001  	clear sky	34 1	29 -2	6	N	19 -7	55	30.15	10
Thu Feb  4 04:42:46 2010	El Paso, Texas 79901  	mostly cloudy	45 7	45 7	0		41 5	87	29.79	10
Thu Feb  4 04:42:46 2010	Los Angeles, California 90001  	clear sky	61 16	61 16	0		54 12	77	29.81	10
Thu Feb  4 04:42:47 2010	Washington, Washington D. C. 20001  	mostly cloudy	37 3	32 0	7	NW	27 -3	65	30.27	10
Thu Feb  4 04:42:47 2010	Las Vegas, Nevada 89101  	clear sky	57 14	57 14	3	W	34 1	41	29.71	10
Thu Feb  4 04:42:47 2010	Baltimore, Maryland 21201  	normal	37 3	37 3			27 -3	65	30.23	
Thu Feb  4 04:42:48 2010	Oklahoma City, Oklahoma 73101  	light rain	36 2	31 -1	6	NE	34 1	93	30.12	2
Thu Feb  4 04:42:48 2010	Austin, Texas 73301  	mostly cloudy	48 9	44 7	10	NE	46 8	93	29.94	8
Thu Feb  4 04:42:48 2010	San Francisco, California 94101  	mostly cloudy	55 13	54 12	6	W	48 9	77	29.84	10
Thu Feb  4 04:42:49 2010	Nashville, Tennessee 37201  	clear sky	34 1	28 -2	7	NE	27 -3	75	30.31	9
Thu Feb  4 04:42:49 2010	Fort Worth, Texas 76101  	mostly cloudy	43 6	36 2	13	E	37 3	81	30.05	10
Thu Feb  4 04:42:49 2010	Phoenix, Arizona 85001  	mostly cloudy	63 17	63 17	0		48 9	59	29.67	10
Thu Feb  4 04:42:50 2010	Chicago, Illinois 60601  	mostly cloudy	30 -1	25 -4	5	S	21 -6	69	30.4	7
Thu Feb  4 04:42:50 2010	Portland, Oregon 97201  	mostly cloudy	30 -1	19 -7	15-22	NW	21 -6	69	30.01	10
Thu Feb  4 04:42:50 2010	San Antonio, Texas 78201  	light rain	50 10	47 8	8	NE	48 9	94	29.88	2
Thu Feb  4 04:42:51 2010	Indianapolis, Indiana 46201  	clear sky	27 -3	20 -7	6	NE	21 -6	80	30.36	6
Thu Feb  4 04:42:51 2010	Jacksonville, Florida 32099  	mostly cloudy	50 10	45 7	13	N	45 7	82	30.2	10
Thu Feb  4 04:42:52 2010	Columbus, Ohio 43085  	mostly cloudy	30 -1	27 -3	3	NW	25 -4	80	30.36	4
Thu Feb  4 04:42:52 2010	Dallas, Texas 75201  	mostly cloudy	45 7	39 4	14	E	37 3	76	30.05	7
Thu Feb  4 04:42:52 2010	Houston, Texas 77001  	moderate rain	50 10	44 7	16-28	E	46 8	87	29.95	4
Thu Feb  4 04:42:53 2010	Detroit, Michigan 48201  	clear sky	28 -2	28 -2	0		21 -6	74	30.35	8
Thu Feb  4 04:42:53 2010	Milwaukee, Wisconsin 53201  	clear sky	25 -4	25 -4	0		18 -8	74	30.38	9
Thu Feb  4 04:42:53 2010	Seattle, Washington 98101  	moderate rain	46 8	46 8	0		45 7	93	29.73	4
Thu Feb  4 04:42:54 2010	Philadelphia, Pennsylvania 19019  	clear sky	36 2	30 -1	8	NW	23 -5	60	30.19	10
Thu Feb  4 05:26:06 2010	San Jose, California 95101  	mostly cloudy	55 13	54 12	6	NW	48 9	77	29.84	10
Thu Feb  4 05:26:06 2010	Charlotte, North Carolina 28201  	clear sky	37 3	37 3	0		34 1	87	30.25	8
Thu Feb  4 05:26:07 2010	Denver, Colorado 80214  	mostly cloudy	39 4	33 1	8	SE	18 -8	41	29.84	10
Thu Feb  4 05:26:07 2010	Memphis, Tennessee 37501  	mostly cloudy	39 4	32 0	12	NE	28 -2	65	30.25	10
Thu Feb  4 05:26:07 2010	San Diego, California 92101  	mostly cloudy	57 14	56 13	6	SW	52 11	82	29.85	10
Thu Feb  4 05:26:08 2010	El Paso, Texas 79901  	mostly cloudy	45 7	45 7	0		41 5	87	29.79	10
Thu Feb  4 05:26:08 2010	Los Angeles, California 90001  	clear sky	61 16	61 16	0		54 12	77	29.81	10
Thu Feb  4 05:26:09 2010	New York, New York 10001  	clear sky	34 1	29 -2	6	N	19 -7	55	30.15	10
Thu Feb  4 05:26:09 2010	Las Vegas, Nevada 89101  	clear sky	57 14	57 14	3	W	34 1	41	29.71	10
Thu Feb  4 05:26:09 2010	Baltimore, Maryland 21201  	normal	37 3	37 3			27 -3	65	30.23	
Thu Feb  4 05:26:10 2010	Washington, Washington D. C. 20001  	mostly cloudy	37 3	32 0	7	NW	27 -3	65	30.27	10
Thu Feb  4 05:26:10 2010	Austin, Texas 73301  	mostly cloudy	48 9	44 7	10	NE	46 8	93	29.94	8
Thu Feb  4 05:26:10 2010	San Francisco, California 94101  	mostly cloudy	55 13	54 12	6	W	48 9	77	29.84	10
Thu Feb  4 05:26:11 2010	Nashville, Tennessee 37201  	clear sky	34 1	28 -2	7	NE	27 -3	75	30.31	9
Thu Feb  4 05:26:11 2010	Oklahoma City, Oklahoma 73101  	light rain	36 2	31 -1	6	NE	34 1	93	30.12	2
Thu Feb  4 05:26:11 2010	Fort Worth, Texas 76101  	mostly cloudy	43 6	36 2	13	E	37 3	81	30.05	10
Thu Feb  4 05:26:12 2010	Chicago, Illinois 60601  	mostly cloudy	30 -1	25 -4	5	S	21 -6	69	30.4	7
Thu Feb  4 05:26:12 2010	Portland, Oregon 97201  	mostly cloudy	30 -1	19 -7	15-22	NW	21 -6	69	30.01	10
Thu Feb  4 05:26:12 2010	Phoenix, Arizona 85001  	mostly cloudy	63 17	63 17	0		48 9	59	29.67	10
Thu Feb  4 05:26:13 2010	Indianapolis, Indiana 46201  	clear sky	27 -3	20 -7	6	NE	21 -6	80	30.36	6
Thu Feb  4 05:26:13 2010	San Antonio, Texas 78201  	light rain	50 10	47 8	8	NE	48 9	94	29.88	2
Thu Feb  4 05:26:14 2010	Columbus, Ohio 43085  	mostly cloudy	30 -1	27 -3	3	NW	25 -4	80	30.36	4
Thu Feb  4 05:26:14 2010	Dallas, Texas 75201  	mostly cloudy	45 7	39 4	14	E	37 3	76	30.05	7
Thu Feb  4 05:26:14 2010	Jacksonville, Florida 32099  	mostly cloudy	50 10	45 7	13	N	45 7	82	30.2	10
Thu Feb  4 05:26:15 2010	Houston, Texas 77001  	moderate rain	50 10	44 7	16-28	E	46 8	87	29.95	4
Thu Feb  4 05:26:15 2010	Milwaukee, Wisconsin 53201  	clear sky	25 -4	25 -4	0		18 -8	74	30.38	9
Thu Feb  4 05:26:15 2010	Seattle, Washington 98101  	moderate rain	46 8	46 8	0		45 7	93	29.73	4
Thu Feb  4 05:26:16 2010	Philadelphia, Pennsylvania 19019  	clear sky	36 2	30 -1	8	NW	23 -5	60	30.19	10
Thu Feb  4 05:26:16 2010	Detroit, Michigan 48201  	clear sky	28 -2	28 -2	0		21 -6	74	30.35	8
Thu Feb  4 06:09:09 2010	Charlotte, North Carolina 28201  	clear sky	37 3	29 -2	12	N	30 -1	75	30.26	10
Thu Feb  4 06:09:09 2010	San Jose, California 95101  	mostly cloudy	55 13	54 12	6	NW	48 9	77	29.84	10
Thu Feb  4 06:09:09 2010	San Diego, California 92101  	mostly cloudy	57 14	57 14	0		52 11	82	29.87	10
Thu Feb  4 06:09:10 2010	Denver, Colorado 80214  	mostly cloudy	37 3	32 0	7	SW	18 -8	44	29.83	10
Thu Feb  4 06:09:10 2010	Memphis, Tennessee 37501  	mostly cloudy	39 4	32 0	12	NE	28 -2	65	30.23	10
Thu Feb  4 06:09:11 2010	New York, New York 10001  	clear sky	32 0	23 -5	24-Dec	W	19 -7	59	30.17	10
Thu Feb  4 06:09:11 2010	El Paso, Texas 79901  	light rain	45 7	45 7	0		41 5	87	29.8	10
Thu Feb  4 06:09:11 2010	Los Angeles, California 90001  	clear sky	59 15	59 15	0		52 11	77	29.83	10
Thu Feb  4 06:09:12 2010	Washington, Washington D. C. 20001  	mostly cloudy	37 3	32 0	6	W	27 -3	65	30.28	10
Thu Feb  4 06:09:12 2010	Las Vegas, Nevada 89101  	clear sky	52 11	50 10	7	W	36 2	54	29.73	10
Thu Feb  4 06:09:12 2010	Baltimore, Maryland 21201  	normal	36 2	36 2			27 -3	69	30.24	
Thu Feb  4 06:09:13 2010	Oklahoma City, Oklahoma 73101  	light rain	36 2	30 -1	8	NE	34 1	93	30.1	3
Thu Feb  4 06:09:13 2010	Austin, Texas 73301  	light rain	48 9	44 7	9	NE	46 8	93	29.94	2.5
Thu Feb  4 06:09:13 2010	San Francisco, California 94101  	mostly cloudy	55 13	55 13	0		48 9	77	29.84	10
Thu Feb  4 06:09:14 2010	Nashville, Tennessee 37201  	clear sky	34 1	29 -2	6	NE	27 -3	75	30.29	8
Thu Feb  4 06:09:14 2010	Fort Worth, Texas 76101  	light rain	43 6	36 2	14	E	37 3	81	30.04	10
Thu Feb  4 06:09:14 2010	Phoenix, Arizona 85001  	mostly cloudy	61 16	60 16	8	SE	52 11	72	29.69	10
Thu Feb  4 06:09:15 2010	Portland, Oregon 97201  	mostly cloudy	30 -1	19 -7	16	NW	21 -6	69	30	10
Thu Feb  4 06:09:15 2010	San Antonio, Texas 78201  	light rain	50 10	47 8	7	NE	48 9	94	29.9	2
Thu Feb  4 06:09:15 2010	Chicago, Illinois 60601  	mostly cloudy	30 -1	30 -1	0		19 -7	64	30.39	7
Thu Feb  4 06:09:16 2010	Indianapolis, Indiana 46201  	clear sky	27 -3	19 -7	7	E	21 -6	80	30.35	8
Thu Feb  4 06:09:16 2010	Jacksonville, Florida 32099  	mostly cloudy	50 10	45 7	12	N	45 7	82	30.22	10
Thu Feb  4 06:09:17 2010	Columbus, Ohio 43085  	clear sky	28 -2	22 -6	5	NW	25 -4	86	30.36	3
Thu Feb  4 06:09:17 2010	Dallas, Texas 75201  	light rain	45 7	38 3	16-24	E	37 3	76	30.08	7
Thu Feb  4 06:09:17 2010	Houston, Texas 77001  	moderate rain	50 10	45 7	14-26	E	46 8	87	29.96	4
Thu Feb  4 06:09:18 2010	Milwaukee, Wisconsin 53201  	clear sky	21 -6	17 -8	3	SW	18 -8	86	30.38	7
Thu Feb  4 06:09:18 2010	Seattle, Washington 98101  	mostly cloudy	46 8	45 7	3	E	45 7	93	29.73	10
Thu Feb  4 06:09:19 2010	Detroit, Michigan 48201  	mostly cloudy	28 -2	25 -4	3	NW	21 -6	74	30.37	9
Thu Feb  4 06:09:19 2010	Philadelphia, Pennsylvania 19019  	clear sky	34 1	32 0	3	W	23 -5	64	30.2	10
Thu Feb  4 06:52:07 2010	Charlotte, North Carolina 28201  	clear sky	36 2	28 -2	12	NE	28 -2	75	30.27	10
Thu Feb  4 06:52:07 2010	San Jose, California 95101  	mostly cloudy	54 12	54 12	3	NW	48 9	82	29.84	10
Thu Feb  4 06:52:07 2010	San Diego, California 92101  	clear sky	57 14	57 14	3	SE	52 11	82	29.9	10
Thu Feb  4 06:52:09 2010	Denver, Colorado 80214  	mostly cloudy	36 2	28 -2	12	S	18 -8	47	29.81	10
Thu Feb  4 06:52:09 2010	Memphis, Tennessee 37501  	mostly cloudy	39 4	32 0	10	NE	28 -2	65	30.23	10
Thu Feb  4 06:52:09 2010	Los Angeles, California 90001  	clear sky	57 14	57 14	0		52 11	82	29.83	10
Thu Feb  4 06:52:10 2010	New York, New York 10001  	clear sky	30 -1	23 -5	24-Jul	W	19 -7	64	30.17	10
Thu Feb  4 06:52:10 2010	El Paso, Texas 79901  	mostly cloudy	45 7	45 7	0		41 5	87	29.8	10
Thu Feb  4 06:52:11 2010	Washington, Washington D. C. 20001  	clear sky	37 3	32 0	7	NW	25 -4	60	30.28	10
Thu Feb  4 06:52:11 2010	Las Vegas, Nevada 89101  	clear sky	52 11	51 11	5	SW	36 2	54	29.74	10
Thu Feb  4 06:52:11 2010	Baltimore, Maryland 21201  	normal	36 2	36 2			25 -4	64	30.25	
Thu Feb  4 06:52:12 2010	Austin, Texas 73301  	light rain	48 9	44 7	8	N	46 8	93	29.92	2
Thu Feb  4 06:52:12 2010	San Francisco, California 94101  	mostly cloudy	54 12	54 12	0		48 9	82	29.84	10
Thu Feb  4 06:52:13 2010	Oklahoma City, Oklahoma 73101  	light rain	36 2	31 -1	6	NE	34 1	93	30.1	4
Thu Feb  4 06:52:14 2010	Nashville, Tennessee 37201  	mostly cloudy	34 1	28 -2	7	NE	27 -3	75	30.27	8
Thu Feb  4 06:52:14 2010	Fort Worth, Texas 76101  	light rain	43 6	36 2	15	E	37 3	81	30.01	10
Thu Feb  4 06:52:15 2010	Phoenix, Arizona 85001  	mostly cloudy	61 16	60 16	10	SE	48 9	63	29.7	10
Thu Feb  4 06:52:16 2010	Portland, Oregon 97201  	clear sky	30 -1	19 -7	14	NW	21 -6	69	30	10
Thu Feb  4 06:52:17 2010	San Antonio, Texas 78201  	light rain	50 10	47 8	7	NE	48 9	94	29.89	2
Thu Feb  4 06:52:17 2010	Chicago, Illinois 60601  	mostly cloudy	28 -2	28 -2	0		19 -7	69	30.38	7
Thu Feb  4 06:52:19 2010	Indianapolis, Indiana 46201  	clear sky	27 -3	20 -7	6	E	21 -6	80	30.35	8
Thu Feb  4 06:52:20 2010	Jacksonville, Florida 32099  	clear sky	48 9	44 7	8	NE	45 7	87	30.2	10
Thu Feb  4 06:52:21 2010	Dallas, Texas 75201  	mostly cloudy	43 6	35 2	16-24	E	37 3	81	30.03	7
Thu Feb  4 06:52:21 2010	Houston, Texas 77001  	moderate rain	50 10	45 7	13-23	NE	46 8	87	29.97	4
Thu Feb  4 06:52:21 2010	Columbus, Ohio 43085  	clear sky	27 -3	27 -3	0		25 -4	93	30.36	2.5
Thu Feb  4 06:52:21 2010	Seattle, Washington 98101  	mostly cloudy	46 8	46 8	0		45 7	93	29.73	10
Thu Feb  4 06:52:22 2010	Detroit, Michigan 48201  	clear sky	27 -3	24 -4	3	W	19 -7	74	30.38	10
Thu Feb  4 06:52:22 2010	Milwaukee, Wisconsin 53201  	clear sky	18 -8	18 -8	0		14 -10	85	30.36	5
Thu Feb  4 06:52:23 2010	Philadelphia, Pennsylvania 19019  	mostly cloudy	32 0	29 -2	3	W	25 -4	74	30.22	10
Thu Feb  4 07:35:34 2010	Charlotte, North Carolina 28201  	clear sky	36 2	28 -2	12	NE	28 -2	75	30.27	10
Thu Feb  4 07:35:34 2010	San Jose, California 95101  	mostly cloudy	54 12	54 12	3	NW	48 9	82	29.84	10
Thu Feb  4 07:35:34 2010	San Diego, California 92101  	clear sky	57 14	57 14	3	SE	52 11	82	29.9	10
Thu Feb  4 07:35:35 2010	Denver, Colorado 80214  	mostly cloudy	36 2	28 -2	12	S	18 -8	47	29.81	10
Thu Feb  4 07:35:35 2010	Memphis, Tennessee 37501  	mostly cloudy	39 4	32 0	10	NE	28 -2	65	30.23	10
Thu Feb  4 07:35:35 2010	Los Angeles, California 90001  	clear sky	57 14	57 14	0		52 11	82	29.83	10
Thu Feb  4 07:35:36 2010	New York, New York 10001  	clear sky	30 -1	23 -5	24-Jul	W	19 -7	64	30.17	10
Thu Feb  4 07:35:36 2010	Baltimore, Maryland 21201  	normal	36 2	36 2			25 -4	64	30.25	
Thu Feb  4 07:35:36 2010	El Paso, Texas 79901  	mostly cloudy	45 7	45 7	0		41 5	87	29.8	10
Thu Feb  4 07:35:37 2010	Washington, Washington D. C. 20001  	clear sky	37 3	32 0	7	NW	25 -4	60	30.28	10
Thu Feb  4 07:35:37 2010	Las Vegas, Nevada 89101  	clear sky	52 11	51 11	5	SW	36 2	54	29.74	10
Thu Feb  4 07:35:37 2010	Austin, Texas 73301  	light rain	48 9	44 7	8	N	46 8	93	29.92	2
Thu Feb  4 07:35:38 2010	Nashville, Tennessee 37201  	mostly cloudy	34 1	28 -2	7	NE	27 -3	75	30.27	8
Thu Feb  4 07:35:38 2010	Oklahoma City, Oklahoma 73101  	light rain	36 2	31 -1	6	NE	34 1	93	30.1	4
Thu Feb  4 07:35:38 2010	San Francisco, California 94101  	mostly cloudy	54 12	54 12	0		48 9	82	29.84	10
Thu Feb  4 07:35:39 2010	Portland, Oregon 97201  	clear sky	30 -1	19 -7	14	NW	21 -6	69	30	10
Thu Feb  4 07:35:39 2010	Fort Worth, Texas 76101  	light rain	43 6	36 2	15	E	37 3	81	30.01	10
Thu Feb  4 07:35:39 2010	Phoenix, Arizona 85001  	mostly cloudy	61 16	60 16	10	SE	48 9	63	29.7	10
Thu Feb  4 07:35:39 2010	Chicago, Illinois 60601  	mostly cloudy	28 -2	28 -2	0		19 -7	69	30.38	7
Thu Feb  4 07:35:40 2010	Indianapolis, Indiana 46201  	clear sky	27 -3	20 -7	6	E	21 -6	80	30.35	8
Thu Feb  4 07:35:40 2010	San Antonio, Texas 78201  	light rain	50 10	47 8	7	NE	48 9	94	29.89	2
Thu Feb  4 07:35:41 2010	Dallas, Texas 75201  	mostly cloudy	43 6	35 2	16-24	E	37 3	81	30.03	7
Thu Feb  4 07:35:41 2010	Jacksonville, Florida 32099  	clear sky	48 9	44 7	8	NE	45 7	87	30.2	10
Thu Feb  4 07:35:41 2010	Columbus, Ohio 43085  	clear sky	27 -3	27 -3	0		25 -4	93	30.36	2.5
Thu Feb  4 07:35:42 2010	Houston, Texas 77001  	moderate rain	50 10	45 7	13-23	NE	46 8	87	29.97	4
Thu Feb  4 07:35:42 2010	Milwaukee, Wisconsin 53201  	clear sky	18 -8	18 -8	0		14 -10	85	30.36	5
Thu Feb  4 07:35:42 2010	Seattle, Washington 98101  	mostly cloudy	46 8	46 8	0		45 7	93	29.73	10
Thu Feb  4 07:35:43 2010	Detroit, Michigan 48201  	clear sky	27 -3	24 -4	3	W	19 -7	74	30.38	10
Thu Feb  4 07:35:43 2010	Philadelphia, Pennsylvania 19019  	mostly cloudy	32 0	29 -2	3	W	25 -4	74	30.22	10
Thu Feb  4 08:18:04 2010	San Jose, California 95101  	clear sky	54 12	54 12	0		48 9	82	29.84	10
Thu Feb  4 08:18:05 2010	Charlotte, North Carolina 28201  	clear sky	36 2	28 -2	12	NE	27 -3	69	30.27	10
Thu Feb  4 08:18:05 2010	Denver, Colorado 80214  	light snow	32 0	26 -3	6	SE	28 -2	86	29.79	3
Thu Feb  4 08:18:05 2010	San Diego, California 92101  	clear sky	57 14	56 13	7	SE	52 11	82	29.9	10
Thu Feb  4 08:18:06 2010	Memphis, Tennessee 37501  	mostly cloudy	39 4	33 1	8	NE	28 -2	65	30.24	10
Thu Feb  4 08:18:06 2010	Los Angeles, California 90001  	mostly cloudy	57 14	56 13	5	E	52 11	82	29.86	7
Thu Feb  4 08:18:07 2010	New York, New York 10001  	clear sky	30 -1	22 -6	8	W	19 -7	64	30.18	10
Thu Feb  4 08:18:07 2010	El Paso, Texas 79901  	mostly cloudy	45 7	42 6	5	SW	41 5	87	29.8	10
Thu Feb  4 08:18:07 2010	Baltimore, Maryland 21201  	normal	36 2	36 2			21 -6	55	30.26	
Thu Feb  4 08:18:08 2010	Washington, Washington D. C. 20001  	clear sky	36 2	29 -2	9	NW	21 -6	55	30.29	10
Thu Feb  4 08:18:08 2010	Las Vegas, Nevada 89101  	clear sky	50 10	48 9	6	S	36 2	58	29.74	10
Thu Feb  4 08:18:08 2010	Austin, Texas 73301  	light rain	48 9	44 7	9	NE	46 8	93	29.9	2.5
Thu Feb  4 08:18:09 2010	Nashville, Tennessee 37201  	mostly cloudy	34 1	29 -2	6	NE	27 -3	75	30.26	8
Thu Feb  4 08:18:09 2010	Oklahoma City, Oklahoma 73101  	light rain	36 2	29 -2	10	E	34 1	93	30.09	4
Thu Feb  4 08:18:09 2010	San Francisco, California 94101  	mostly cloudy	54 12	54 12	0		46 8	77	29.84	10
Thu Feb  4 08:18:10 2010	Portland, Oregon 97201  	clear sky	30 -1	18 -8	17	NW	21 -6	69	30.01	10
Thu Feb  4 08:18:10 2010	Fort Worth, Texas 76101  	mostly cloudy	41 5	33 1	17-23	E	37 3	87	29.98	9
Thu Feb  4 08:18:10 2010	Phoenix, Arizona 85001  	clear sky	57 14	55 13	9	SE	46 8	67	29.73	10
Thu Feb  4 08:18:11 2010	Chicago, Illinois 60601  	clear sky	27 -3	21 -6	5	S	19 -7	74	30.37	6
Thu Feb  4 08:18:11 2010	San Antonio, Texas 78201  	mostly cloudy	48 9	44 7	8	NE	48 9	100	29.86	2
Thu Feb  4 08:18:12 2010	Indianapolis, Indiana 46201  	mostly cloudy	25 -4	21 -6	3	NE	21 -6	86	30.34	8
Thu Feb  4 08:18:12 2010	Jacksonville, Florida 32099  	clear sky	48 9	44 7	9	N	45 7	87	30.18	10
Thu Feb  4 08:18:13 2010	Dallas, Texas 75201  	mostly cloudy	43 6	36 2	14-20	E	39 4	87	29.99	6
Thu Feb  4 08:18:13 2010	Houston, Texas 77001  	heavy rain	48 9	42 6	15-21	E	46 8	93	29.97	4
Thu Feb  4 08:18:13 2010	Columbus, Ohio 43085  	clear sky	25 -4	25 -4	0		23 -5	93	30.36	1.5
Thu Feb  4 08:18:14 2010	Detroit, Michigan 48201  	mostly cloudy	27 -3	24 -4	3	NW	19 -7	74	30.38	8
Thu Feb  4 08:18:14 2010	Seattle, Washington 98101  	light rain	46 8	44 7	5	SE	45 7	93	29.74	10
Thu Feb  4 08:18:14 2010	Milwaukee, Wisconsin 53201  	clear sky	19 -7	19 -7	0		16 -9	86	30.37	5
Thu Feb  4 08:18:15 2010	Philadelphia, Pennsylvania 19019  	clear sky	32 0	26 -3	6	W	21 -6	64	30.22	10
Thu Feb  4 09:02:06 2010	Charlotte, North Carolina 28201  	clear sky	34 1	29 -2	6	NE	27 -3	75	30.28	10
Thu Feb  4 09:02:06 2010	San Jose, California 95101  	clear sky	52 11	52 11	0		48 9	87	29.84	10
Thu Feb  4 09:02:07 2010	Denver, Colorado 80214  	mostly cloudy	32 0	25 -4	7	S	28 -2	86	29.77	5
Thu Feb  4 09:02:07 2010	Memphis, Tennessee 37501  	mostly cloudy	39 4	33 1	9	E	28 -2	65	30.21	10
Thu Feb  4 09:02:07 2010	San Diego, California 92101  	clear sky	57 14	56 13	7	E	50 10	77	29.9	9
Thu Feb  4 09:02:08 2010	New York, New York 10001  	clear sky	30 -1	22 -6	9	W	19 -7	64	30.19	10
Thu Feb  4 09:02:08 2010	El Paso, Texas 79901  	light rain	43 6	38 3	9	S	39 4	87	29.81	10
Thu Feb  4 09:02:08 2010	Los Angeles, California 90001  	mostly cloudy	57 14	57 14	3	E	52 11	82	29.86	7
Thu Feb  4 09:02:09 2010	Washington, Washington D. C. 20001  	clear sky	36 2	29 -2	10	NW	19 -7	51	30.31	10
Thu Feb  4 09:02:09 2010	Las Vegas, Nevada 89101  	clear sky	48 9	45 7	7	S	34 1	57	29.75	10
Thu Feb  4 09:02:09 2010	Baltimore, Maryland 21201  	normal	36 2	36 2			19 -7	51	30.28	
Thu Feb  4 09:02:10 2010	Austin, Texas 73301  	light rain	48 9	43 6	12	NE	46 8	93	29.89	2.5
Thu Feb  4 09:02:10 2010	San Francisco, California 94101  	mostly cloudy	52 11	52 11	3	S	48 9	87	29.85	10
Thu Feb  4 09:02:11 2010	Nashville, Tennessee 37201  	mostly cloudy	34 1	32 0	3	NE	27 -3	75	30.28	8
Thu Feb  4 09:02:11 2010	Oklahoma City, Oklahoma 73101  	light rain	36 2	31 -1	6	E	34 1	93	30.1	4
Thu Feb  4 09:02:11 2010	Fort Worth, Texas 76101  	light rain	41 5	34 1	13-21	E	37 3	87	29.97	5
Thu Feb  4 09:02:12 2010	Chicago, Illinois 60601  	mostly cloudy	27 -3	24 -4	3	S	19 -7	74	30.34	5
Thu Feb  4 09:02:12 2010	Portland, Oregon 97201  	clear sky	30 -1	18 -8	17-24	NW	21 -6	69	30.03	10
Thu Feb  4 09:02:12 2010	Phoenix, Arizona 85001  	clear sky	55 13	52 11	10	SE	46 8	72	29.75	10
Thu Feb  4 09:02:12 2010	San Antonio, Texas 78201  	light rain	48 9	44 7	8	NE	48 9	100	29.86	2
Thu Feb  4 09:02:13 2010	Indianapolis, Indiana 46201  	mostly cloudy	25 -4	19 -7	5	NE	19 -7	80	30.32	7
Thu Feb  4 09:02:14 2010	Dallas, Texas 75201  	mostly cloudy	43 6	36 2	15-24	E	39 4	87	30	6
Thu Feb  4 09:02:14 2010	Jacksonville, Florida 32099  	mostly cloudy	48 9	45 7	7	NE	46 8	93	30.17	10
Thu Feb  4 09:02:14 2010	Columbus, Ohio 43085  	clear sky	25 -4	25 -4	0		21 -6	86	30.35	0.5
Thu Feb  4 09:02:15 2010	Houston, Texas 77001  	light rain	48 9	43 6	21-Dec	E	46 8	93	29.95	6
Thu Feb  4 09:02:15 2010	Milwaukee, Wisconsin 53201  	clear sky	18 -8	18 -8	0		11-Dec	79	30.33	5
Thu Feb  4 09:02:15 2010	Seattle, Washington 98101  	mostly cloudy	46 8	46 8	0		43 6	87	29.75	10
Thu Feb  4 09:02:16 2010	Detroit, Michigan 48201  	clear sky	25 -4	21 -6	3	N	18 -8	74	30.37	9
Thu Feb  4 09:02:16 2010	Philadelphia, Pennsylvania 19019  	clear sky	30 -1	22 -6	8	NW	18 -8	59	30.23	10
Thu Feb  4 09:45:37 2010	San Jose, California 95101  	clear sky	50 10	50 10	0		48 9	94	29.84	10
Thu Feb  4 09:45:38 2010	Charlotte, North Carolina 28201  	clear sky	32 0	27 -3	5	NE	27 -3	80	30.29	10
Thu Feb  4 09:45:38 2010	Denver, Colorado 80214  	mostly cloudy	32 0	26 -3	6	S	27 -3	80	29.74	5
Thu Feb  4 09:45:38 2010	San Diego, California 92101  	clear sky	55 13	53 12	7	E	48 9	77	29.9	9
Thu Feb  4 09:45:39 2010	Memphis, Tennessee 37501  	mostly cloudy	39 4	34 1	7	NE	28 -2	65	30.21	10
Thu Feb  4 09:45:39 2010	El Paso, Texas 79901  	light rain	43 6	40 4	5	S	39 4	87	29.81	10
Thu Feb  4 09:45:39 2010	Los Angeles, California 90001  	mostly cloudy	57 14	57 14	3	E	52 11	82	29.86	7
Thu Feb  4 09:45:40 2010	New York, New York 10001  	clear sky	30 -1	22 -6	16-Sep	W	18 -8	59	30.2	10
Thu Feb  4 09:45:40 2010	Las Vegas, Nevada 89101  	clear sky	46 8	44 7	5	S	34 1	61	29.75	10
Thu Feb  4 09:45:40 2010	Baltimore, Maryland 21201  	normal	34 1	34 1			18 -8	51	30.3	
Thu Feb  4 09:45:41 2010	Washington, Washington D. C. 20001  	clear sky	34 1	27 -3	8	N	19 -7	55	30.33	10
Thu Feb  4 09:45:41 2010	Austin, Texas 73301  	light rain	48 9	45 7	7	NE	46 8	93	29.89	1.5
Thu Feb  4 09:45:41 2010	San Francisco, California 94101  	mostly cloudy	52 11	52 11	0		46 8	82	29.84	10
Thu Feb  4 09:45:42 2010	Nashville, Tennessee 37201  	clear sky	34 1	28 -2	7	NE	27 -3	75	30.25	8
Thu Feb  4 09:45:42 2010	Oklahoma City, Oklahoma 73101  	light rain	36 2	30 -1	8	NE	34 1	93	30.07	6
Thu Feb  4 09:45:42 2010	Fort Worth, Texas 76101  	light rain	41 5	34 1	12	E	39 4	93	29.97	5
Thu Feb  4 09:45:43 2010	Chicago, Illinois 60601  	mostly cloudy	27 -3	20 -7	6	S	19 -7	74	30.36	5
Thu Feb  4 09:45:43 2010	Portland, Oregon 97201  	clear sky	28 -2	16 -9	17-24	NW	19 -7	69	30.04	10
Thu Feb  4 09:45:43 2010	Phoenix, Arizona 85001  	clear sky	55 13	53 12	7	E	48 9	77	29.78	10
Thu Feb  4 09:45:44 2010	Indianapolis, Indiana 46201  	mostly cloudy	25 -4	19 -7	5	NE	21 -6	86	30.35	7
Thu Feb  4 09:45:44 2010	San Antonio, Texas 78201  	light rain	48 9	44 7	8	NE	48 9	100	29.86	2
Thu Feb  4 09:45:45 2010	Dallas, Texas 75201  	light rain	43 6	36 2	15-24	E	39 4	87	29.97	6
Thu Feb  4 09:45:45 2010	Jacksonville, Florida 32099  	mostly cloudy	50 10	48 9	6	N	46 8	87	30.16	10
Thu Feb  4 09:45:45 2010	Columbus, Ohio 43085  	clear sky	23 -5	23 -5	0		21 -6	93	30.36	0.7
Thu Feb  4 09:45:46 2010	Houston, Texas 77001  	moderate rain	48 9	41 5	18-30	E	46 8	93	29.88	6
Thu Feb  4 09:45:46 2010	Milwaukee, Wisconsin 53201  	clear sky	16 -9	16 -9	0		12-Oct	79	30.33	5
Thu Feb  4 09:45:46 2010	Seattle, Washington 98101  	mostly cloudy	45 7	45 7	0		39 4	81	29.74	10
Thu Feb  4 09:45:47 2010	Philadelphia, Pennsylvania 19019  	clear sky	30 -1	23 -5	7	NW	18 -8	59	30.25	10
Thu Feb  4 09:45:47 2010	Detroit, Michigan 48201  	clear sky	21 -6	21 -6	0		18 -8	86	30.37	9
Thu Feb  4 10:29:37 2010	Charlotte, North Carolina 28201  	clear sky	32 0	27 -3	5	NE	27 -3	80	30.29	10
Thu Feb  4 10:29:37 2010	San Jose, California 95101  	clear sky	50 10	50 10	0		48 9	94	29.84	10
Thu Feb  4 10:29:38 2010	Denver, Colorado 80214  	mostly cloudy	32 0	26 -3	6	S	27 -3	80	29.74	5
Thu Feb  4 10:29:38 2010	San Diego, California 92101  	clear sky	55 13	53 12	7	E	48 9	77	29.9	9
Thu Feb  4 10:29:39 2010	Memphis, Tennessee 37501  	mostly cloudy	39 4	34 1	7	NE	28 -2	65	30.21	10
Thu Feb  4 10:29:39 2010	Los Angeles, California 90001  	mostly cloudy	57 14	57 14	3	E	52 11	82	29.86	7
Thu Feb  4 10:29:40 2010	New York, New York 10001  	clear sky	30 -1	22 -6	16-Sep	W	18 -8	59	30.2	10
Thu Feb  4 10:29:40 2010	El Paso, Texas 79901  	light rain	43 6	40 4	5	S	39 4	87	29.81	10
Thu Feb  4 10:29:40 2010	Baltimore, Maryland 21201  	normal	34 1	34 1			18 -8	51	30.3	
Thu Feb  4 10:29:41 2010	Washington, Washington D. C. 20001  	clear sky	34 1	27 -3	8	N	19 -7	55	30.33	10
Thu Feb  4 10:29:41 2010	Las Vegas, Nevada 89101  	clear sky	46 8	44 7	5	S	34 1	61	29.75	10
Thu Feb  4 10:29:42 2010	Austin, Texas 73301  	light rain	48 9	45 7	7	NE	46 8	93	29.89	1.5
Thu Feb  4 10:29:42 2010	San Francisco, California 94101  	mostly cloudy	52 11	52 11	0		46 8	82	29.84	10
Thu Feb  4 10:29:43 2010	Nashville, Tennessee 37201  	clear sky	34 1	28 -2	7	NE	27 -3	75	30.25	8
Thu Feb  4 10:29:43 2010	Oklahoma City, Oklahoma 73101  	light rain	36 2	30 -1	8	NE	34 1	93	30.07	6
Thu Feb  4 10:29:43 2010	Fort Worth, Texas 76101  	light rain	41 5	34 1	12	E	39 4	93	29.97	5
Thu Feb  4 10:29:44 2010	Portland, Oregon 97201  	clear sky	28 -2	16 -9	17-24	NW	19 -7	69	30.04	10
Thu Feb  4 10:29:44 2010	Phoenix, Arizona 85001  	clear sky	55 13	53 12	7	E	48 9	77	29.78	10
Thu Feb  4 10:29:45 2010	Chicago, Illinois 60601  	mostly cloudy	27 -3	20 -7	6	S	19 -7	74	30.36	5
Thu Feb  4 10:29:45 2010	Indianapolis, Indiana 46201  	mostly cloudy	25 -4	19 -7	5	NE	21 -6	86	30.35	7
Thu Feb  4 10:29:45 2010	San Antonio, Texas 78201  	light rain	48 9	44 7	8	NE	48 9	100	29.86	2
Thu Feb  4 10:29:46 2010	Jacksonville, Florida 32099  	mostly cloudy	50 10	48 9	6	N	46 8	87	30.16	10
Thu Feb  4 10:29:47 2010	Dallas, Texas 75201  	light rain	43 6	36 2	15-24	E	39 4	87	29.97	6
Thu Feb  4 10:29:47 2010	Houston, Texas 77001  	moderate rain	48 9	41 5	18-30	E	46 8	93	29.88	6
Thu Feb  4 10:29:47 2010	Columbus, Ohio 43085  	clear sky	23 -5	23 -5	0		21 -6	93	30.36	0.7
Thu Feb  4 10:29:48 2010	Milwaukee, Wisconsin 53201  	clear sky	16 -9	16 -9	0		12-Oct	79	30.33	5
Thu Feb  4 10:29:48 2010	Seattle, Washington 98101  	mostly cloudy	45 7	45 7	0		39 4	81	29.74	10
Thu Feb  4 10:29:49 2010	Philadelphia, Pennsylvania 19019  	clear sky	30 -1	23 -5	7	NW	18 -8	59	30.25	10
Thu Feb  4 10:29:49 2010	Detroit, Michigan 48201  	clear sky	21 -6	21 -6	0		18 -8	86	30.37	9
Thu Feb  4 11:15:24 2010	San Jose, California 95101  	clear sky	52 11	52 11	3	S	48 9	87	29.84	10
Thu Feb  4 11:15:25 2010	Charlotte, North Carolina 28201  	clear sky	32 0	27 -3	5	NE	27 -3	80	30.29	10
Thu Feb  4 11:15:25 2010	Denver, Colorado 80214  	mostly cloudy	30 -1	23 -5	7	S	27 -3	86	29.73	5
Thu Feb  4 11:15:25 2010	San Diego, California 92101  	clear sky	54 12	52 11	6	E	48 9	82	29.9	7
Thu Feb  4 11:15:26 2010	Memphis, Tennessee 37501  	mostly cloudy	39 4	33 1	8	NE	28 -2	65	30.21	10
Thu Feb  4 11:15:26 2010	El Paso, Texas 79901  	light rain	43 6	42 6	3	S	41 5	93	29.8	10
Thu Feb  4 11:15:26 2010	Los Angeles, California 90001  	mostly cloudy	57 14	57 14	3	E	52 11	82	29.86	9
Thu Feb  4 11:15:27 2010	New York, New York 10001  	clear sky	30 -1	21 -6	16-Oct	W	18 -8	59	30.2	10
Thu Feb  4 11:15:27 2010	Baltimore, Maryland 21201  	normal	34 1	34 1			18 -8	51	30.31	
Thu Feb  4 11:15:28 2010	Washington, Washington D. C. 20001  	clear sky	34 1	26 -3	10	N	19 -7	55	30.33	10
Thu Feb  4 11:15:28 2010	Austin, Texas 73301  	light rain	46 8	42 6	8	N	46 8	100	29.87	1
Thu Feb  4 11:15:28 2010	Las Vegas, Nevada 89101  	clear sky	46 8	46 8	0		32 0	57	29.77	10
Thu Feb  4 11:15:29 2010	Nashville, Tennessee 37201  	clear sky	34 1	29 -2	5	NE	27 -3	75	30.26	8
Thu Feb  4 11:15:29 2010	Oklahoma City, Oklahoma 73101  	light rain	36 2	30 -1	8	NE	34 1	93	30.06	5
Thu Feb  4 11:15:29 2010	San Francisco, California 94101  	mostly cloudy	52 11	52 11	0		48 9	87	29.84	10
Thu Feb  4 11:15:30 2010	Fort Worth, Texas 76101  	light rain	41 5	35 2	10	E	39 4	93	29.96	4
Thu Feb  4 11:15:30 2010	Phoenix, Arizona 85001  	clear sky	54 12	54 12	3	E	48 9	82	29.78	10
Thu Feb  4 11:15:31 2010	Chicago, Illinois 60601  	mostly cloudy	27 -3	20 -7	6	S	19 -7	74	30.38	6
Thu Feb  4 11:15:31 2010	Portland, Oregon 97201  	clear sky	28 -2	16 -9	16-24	NW	19 -7	69	30.06	10
Thu Feb  4 11:15:31 2010	San Antonio, Texas 78201  	light rain	48 9	45 7	6	NE	48 9	100	29.83	4
Thu Feb  4 11:15:32 2010	Indianapolis, Indiana 46201  	mostly cloudy	27 -3	21 -6	5	NE	21 -6	80	30.36	7
Thu Feb  4 11:15:33 2010	Dallas, Texas 75201  	light rain	43 6	36 2	14-24	E	39 4	87	29.98	5
Thu Feb  4 11:15:33 2010	Jacksonville, Florida 32099  	mostly cloudy	52 11	49 9	8	N	48 9	87	30.17	10
Thu Feb  4 11:15:33 2010	Columbus, Ohio 43085  	clear sky	23 -5	23 -5	0		21 -6	93	30.37	1.2
Thu Feb  4 11:15:34 2010	Houston, Texas 77001  	moderate rain	48 9	42 6	17-30	E	46 8	93	29.87	6
Thu Feb  4 11:15:34 2010	Milwaukee, Wisconsin 53201  	clear sky	18 -8	18 -8	0		11-Dec	79	30.35	5
Thu Feb  4 11:15:34 2010	Seattle, Washington 98101  	light rain	45 7	45 7	0		41 5	87	29.75	10
Thu Feb  4 11:15:35 2010	Philadelphia, Pennsylvania 19019  	clear sky	30 -1	23 -5	7	NW	18 -8	59	30.26	10
Thu Feb  4 11:15:35 2010	Detroit, Michigan 48201  	clear sky	21 -6	21 -6	0		18 -8	86	30.38	8
Thu Feb  4 11:58:59 2010	San Jose, California 95101  	clear sky	50 10	50 10	3	SE	46 8	87	29.83	10
Thu Feb  4 11:59:00 2010	Charlotte, North Carolina 28201  	clear sky	30 -1	23 -5	7	NE	27 -3	86	30.3	9
Thu Feb  4 11:59:00 2010	San Diego, California 92101  	mostly cloudy	54 12	54 12	3	E	48 9	82	29.9	7
Thu Feb  4 11:59:01 2010	Denver, Colorado 80214  	mostly cloudy	30 -1	25 -4	5	S	27 -3	86	29.71	10
Thu Feb  4 11:59:01 2010	Memphis, Tennessee 37501  	mostly cloudy	39 4	33 1	8	NE	28 -2	65	30.2	10
Thu Feb  4 11:59:01 2010	Los Angeles, California 90001  	mostly cloudy	57 14	57 14	0		52 11	82	29.87	9
Thu Feb  4 11:59:02 2010	New York, New York 10001  	clear sky	30 -1	19 -7	16-16	NW	16 -9	55	30.22	10
Thu Feb  4 11:59:02 2010	El Paso, Texas 79901  	mostly cloudy	45 7	42 6	6	SW	39 4	81	29.81	10
Thu Feb  4 11:59:05 2010	Baltimore, Maryland 21201  	normal	34 1	34 1			18 -8	51	30.34	
Thu Feb  4 11:59:06 2010	Washington, Washington D. C. 20001  	clear sky	32 0	24 -4	10	N	18 -8	55	30.37	10
Thu Feb  4 11:59:06 2010	Las Vegas, Nevada 89101  	clear sky	45 7	42 6	5	SW	32 0	61	29.78	10
Thu Feb  4 11:59:06 2010	Austin, Texas 73301  	light rain	46 8	41 5	9	N	46 8	100	29.85	1.5
Thu Feb  4 11:59:07 2010	Oklahoma City, Oklahoma 73101  	mostly cloudy	36 2	29 -2	10	E	34 1	93	30.02	7
Thu Feb  4 11:59:07 2010	San Francisco, California 94101  	mostly cloudy	54 12	53 12	5	SE	48 9	82	29.83	10
Thu Feb  4 11:59:08 2010	Nashville, Tennessee 37201  	mostly cloudy	34 1	29 -2	6	NE	27 -3	75	30.24	9
Thu Feb  4 11:59:08 2010	Fort Worth, Texas 76101  	light rain	41 5	36 2	8	E	39 4	93	29.96	6
Thu Feb  4 11:59:08 2010	Phoenix, Arizona 85001  	clear sky	54 12	52 11	7	E	46 8	77	29.78	10
Thu Feb  4 11:59:09 2010	Portland, Oregon 97201  	clear sky	28 -2	16 -9	16-23	NW	19 -7	69	30.07	10
Thu Feb  4 11:59:09 2010	San Antonio, Texas 78201  	light rain	48 9	45 7	6	NE	48 9	100	29.83	4
Thu Feb  4 11:59:09 2010	Chicago, Illinois 60601  	mostly cloudy	27 -3	27 -3	0		19 -7	74	30.37	6
Thu Feb  4 11:59:10 2010	Indianapolis, Indiana 46201  	mostly cloudy	25 -4	18 -8	6	NE	21 -6	86	30.34	7
Thu Feb  4 11:59:10 2010	Jacksonville, Florida 32099  	mostly cloudy	54 12	50 10	16	NE	48 9	82	30.16	10
Thu Feb  4 11:59:11 2010	Columbus, Ohio 43085  	clear sky	19 -7	15 -9	3	N	19 -7	100	30.38	2
Thu Feb  4 11:59:11 2010	Dallas, Texas 75201  	mostly cloudy	43 6	37 3	12	E	39 4	87	29.95	5
Thu Feb  4 11:59:14 2010	Houston, Texas 77001  	light rain	50 10	44 7	18-29	E	48 9	94	29.82	9
Thu Feb  4 11:59:15 2010	Milwaukee, Wisconsin 53201  	mostly cloudy	21 -6	13 -11	6	S	18 -8	86	30.38	5
Thu Feb  4 11:59:15 2010	Detroit, Michigan 48201  	mostly cloudy	19 -7	19 -7	0		18 -8	93	30.4	7
Thu Feb  4 11:59:15 2010	Seattle, Washington 98101  	mostly cloudy	45 7	45 7	0		41 5	87	29.75	10
Thu Feb  4 11:59:16 2010	Philadelphia, Pennsylvania 19019  	clear sky	30 -1	25 -4	5	W	16 -9	55	30.29	10
Thu Feb  4 12:41:53 2010	San Jose, California 95101  	clear sky	52 11	50 10	6	SE	46 8	82	29.82	10
Thu Feb  4 12:41:54 2010	Charlotte, North Carolina 28201  	clear sky	32 0	25 -4	7	NE	27 -3	80	30.33	10
Thu Feb  4 12:41:54 2010	Denver, Colorado 80214  	mostly cloudy	30 -1	27 -3	3	S	27 -3	86	29.69	10
Thu Feb  4 12:41:54 2010	San Diego, California 92101  	mostly cloudy	55 13	53 12	7	SE	46 8	72	29.9	6
Thu Feb  4 12:41:55 2010	Memphis, Tennessee 37501  	mostly cloudy	39 4	33 1	8	NE	28 -2	65	30.19	9
Thu Feb  4 12:41:55 2010	Los Angeles, California 90001  	mostly cloudy	57 14	56 13	5	E	50 10	77	29.88	8
Thu Feb  4 12:41:55 2010	El Paso, Texas 79901  	mostly cloudy	45 7	45 7	0		41 5	87	29.81	10
Thu Feb  4 12:41:56 2010	New York, New York 10001  	clear sky	28 -2	19 -7	23-Sep	W	16 -9	59	30.28	10
Thu Feb  4 12:41:56 2010	Las Vegas, Nevada 89101  	clear sky	45 7	44 7	3	W	32 0	61	29.78	10
Thu Feb  4 12:41:56 2010	Baltimore, Maryland 21201  	normal	32 0	32 0			18 -8	55	30.37	
Thu Feb  4 12:41:57 2010	Washington, Washington D. C. 20001  	clear sky	32 0	24 -4	9	N	18 -8	55	30.39	10
Thu Feb  4 12:41:57 2010	Austin, Texas 73301  	light rain	46 8	41 5	9	N	46 8	100	29.86	1
Thu Feb  4 12:41:57 2010	San Francisco, California 94101  	mostly cloudy	52 11	52 11	0		48 9	87	29.83	10
Thu Feb  4 12:41:58 2010	Nashville, Tennessee 37201  	mostly cloudy	34 1	29 -2	6	NE	27 -3	75	30.24	10
Thu Feb  4 12:41:58 2010	Oklahoma City, Oklahoma 73101  	mostly cloudy	36 2	29 -2	10	E	34 1	93	30.01	4
Thu Feb  4 12:41:59 2010	Portland, Oregon 97201  	clear sky	28 -2	15 -9	20-24	NW	19 -7	69	30.08	10
Thu Feb  4 12:41:59 2010	Fort Worth, Texas 76101  	light rain	41 5	36 2	8	E	37 3	87	29.95	6
Thu Feb  4 12:41:59 2010	Phoenix, Arizona 85001  	clear sky	52 11	50 10	6	E	46 8	82	29.8	10
Thu Feb  4 12:42:00 2010	Indianapolis, Indiana 46201  	mostly cloudy	25 -4	19 -7	5	NE	21 -6	86	30.35	7
Thu Feb  4 12:42:00 2010	San Antonio, Texas 78201  	light rain	48 9	45 7	6	NE	48 9	100	29.83	2
Thu Feb  4 12:42:00 2010	Chicago, Illinois 60601  	mostly cloudy	25 -4	25 -4	0		19 -7	80	30.39	6
Thu Feb  4 12:42:01 2010	Jacksonville, Florida 32099  	mostly cloudy	55 13	51 11	13	NE	48 9	77	30.18	10
Thu Feb  4 12:42:01 2010	Columbus, Ohio 43085  	clear sky	21 -6	21 -6	0		19 -7	93	30.37	1.7
Thu Feb  4 12:42:02 2010	Dallas, Texas 75201  	light rain	43 6	39 4	6	E	39 4	87	29.96	4
Thu Feb  4 12:42:02 2010	Houston, Texas 77001  	mostly cloudy	55 13	51 11	13-17	E	50 10	82	29.86	10
Thu Feb  4 12:42:02 2010	Seattle, Washington 98101  	mostly cloudy	43 6	43 6	0		39 4	87	29.75	10
Thu Feb  4 12:42:03 2010	Philadelphia, Pennsylvania 19019  	clear sky	28 -2	22 -6	5	NW	14 -10	54	30.32	10
Thu Feb  4 12:42:03 2010	Detroit, Michigan 48201  	clear sky	21 -6	21 -6	0		18 -8	86	30.42	7
Thu Feb  4 12:42:03 2010	Milwaukee, Wisconsin 53201  	mostly cloudy	18 -8	18 -8	0		14 -10	85	30.36	4
Thu Feb  4 13:26:17 2010	Charlotte, North Carolina 28201  	clear sky	32 0	25 -4	7	NE	27 -3	80	30.33	10
Thu Feb  4 13:26:17 2010	San Jose, California 95101  	clear sky	52 11	50 10	6	SE	46 8	82	29.82	10
Thu Feb  4 13:26:18 2010	Denver, Colorado 80214  	mostly cloudy	30 -1	27 -3	3	S	27 -3	86	29.69	10
Thu Feb  4 13:26:18 2010	Memphis, Tennessee 37501  	mostly cloudy	39 4	33 1	8	NE	28 -2	65	30.19	9
Thu Feb  4 13:26:18 2010	San Diego, California 92101  	mostly cloudy	55 13	53 12	7	SE	46 8	72	29.9	6
Thu Feb  4 13:26:19 2010	Los Angeles, California 90001  	mostly cloudy	57 14	56 13	5	E	50 10	77	29.88	8
Thu Feb  4 13:26:19 2010	El Paso, Texas 79901  	mostly cloudy	45 7	45 7	0		41 5	87	29.81	10
Thu Feb  4 13:26:20 2010	New York, New York 10001  	clear sky	28 -2	19 -7	23-Sep	W	16 -9	59	30.28	10
Thu Feb  4 13:26:20 2010	Las Vegas, Nevada 89101  	clear sky	45 7	44 7	3	W	32 0	61	29.78	10
Thu Feb  4 13:26:20 2010	Baltimore, Maryland 21201  	normal	32 0	32 0			18 -8	55	30.37	
Thu Feb  4 13:26:21 2010	Washington, Washington D. C. 20001  	clear sky	32 0	24 -4	9	N	18 -8	55	30.39	10
Thu Feb  4 13:26:21 2010	Austin, Texas 73301  	light rain	46 8	41 5	9	N	46 8	100	29.86	1
Thu Feb  4 13:26:21 2010	San Francisco, California 94101  	mostly cloudy	52 11	52 11	0		48 9	87	29.83	10
Thu Feb  4 13:26:22 2010	Nashville, Tennessee 37201  	mostly cloudy	34 1	29 -2	6	NE	27 -3	75	30.24	10
Thu Feb  4 13:26:22 2010	Oklahoma City, Oklahoma 73101  	mostly cloudy	36 2	29 -2	10	E	34 1	93	30.01	4
Thu Feb  4 13:26:22 2010	Fort Worth, Texas 76101  	light rain	41 5	36 2	8	E	37 3	87	29.95	6
Thu Feb  4 13:26:23 2010	Portland, Oregon 97201  	clear sky	28 -2	15 -9	20-24	NW	19 -7	69	30.08	10
Thu Feb  4 13:26:23 2010	Phoenix, Arizona 85001  	clear sky	52 11	50 10	6	E	46 8	82	29.8	10
Thu Feb  4 13:26:23 2010	Chicago, Illinois 60601  	mostly cloudy	25 -4	25 -4	0		19 -7	80	30.39	6
Thu Feb  4 13:26:24 2010	Indianapolis, Indiana 46201  	mostly cloudy	25 -4	19 -7	5	NE	21 -6	86	30.35	7
Thu Feb  4 13:26:24 2010	San Antonio, Texas 78201  	light rain	48 9	45 7	6	NE	48 9	100	29.83	2
Thu Feb  4 13:26:25 2010	Dallas, Texas 75201  	light rain	43 6	39 4	6	E	39 4	87	29.96	4
Thu Feb  4 13:26:25 2010	Jacksonville, Florida 32099  	mostly cloudy	55 13	51 11	13	NE	48 9	77	30.18	10
Thu Feb  4 13:26:25 2010	Columbus, Ohio 43085  	clear sky	21 -6	21 -6	0		19 -7	93	30.37	1.7
Thu Feb  4 13:26:26 2010	Houston, Texas 77001  	mostly cloudy	55 13	51 11	13-17	E	50 10	82	29.86	10
Thu Feb  4 13:26:26 2010	Milwaukee, Wisconsin 53201  	mostly cloudy	18 -8	18 -8	0		14 -10	85	30.36	4
Thu Feb  4 13:26:26 2010	Seattle, Washington 98101  	mostly cloudy	43 6	43 6	0		39 4	87	29.75	10
Thu Feb  4 13:26:27 2010	Philadelphia, Pennsylvania 19019  	clear sky	28 -2	22 -6	5	NW	14 -10	54	30.32	10
Thu Feb  4 13:26:27 2010	Detroit, Michigan 48201  	clear sky	21 -6	21 -6	0		18 -8	86	30.42	7
Thu Feb  4 14:10:48 2010	Charlotte, North Carolina 28201  	clear sky	32 0	26 -3	6	NE	27 -3	80	30.35	10
Thu Feb  4 14:10:48 2010	San Diego, California 92101  	mostly cloudy	54 12	52 11	8	E	46 8	77	29.9	6
Thu Feb  4 14:10:48 2010	San Jose, California 95101  	clear sky	50 10	50 10	3	SE	46 8	87	29.84	10
Thu Feb  4 14:10:49 2010	Denver, Colorado 80214  	mostly cloudy	28 -2	22 -6	5	S	25 -4	86	29.68	10
Thu Feb  4 14:10:49 2010	Memphis, Tennessee 37501  	light rain	37 3	31 -1	8	NE	28 -2	70	30.19	9
Thu Feb  4 14:10:49 2010	Los Angeles, California 90001  	mostly cloudy	57 14	57 14	3	E	50 10	77	29.88	8
Thu Feb  4 14:10:50 2010	New York, New York 10001  	clear sky	28 -2	21 -6	18-Jul	N	11-Dec	50	30.31	10
Thu Feb  4 14:10:50 2010	El Paso, Texas 79901  	mostly cloudy	45 7	42 6	5	S	39 4	81	29.82	10
Thu Feb  4 14:10:51 2010	Washington, Washington D. C. 20001  	clear sky	32 0	23 -5	12	N	18 -8	55	30.4	10
Thu Feb  4 14:10:51 2010	Baltimore, Maryland 21201  	normal	32 0	32 0			18 -8	55	30.38	
Thu Feb  4 14:10:51 2010	Las Vegas, Nevada 89101  	clear sky	43 6	43 6	0		30 -1	61	29.78	10
Thu Feb  4 14:10:52 2010	Oklahoma City, Oklahoma 73101  	mostly cloudy	36 2	29 -2	9	E	34 1	93	30.01	4
Thu Feb  4 14:10:52 2010	Austin, Texas 73301  	mostly cloudy	46 8	42 6	7	N	46 8	100	29.87	1
Thu Feb  4 14:10:52 2010	San Francisco, California 94101  	mostly cloudy	52 11	52 11	0		46 8	82	29.83	10
Thu Feb  4 14:10:53 2010	Nashville, Tennessee 37201  	mostly cloudy	34 1	28 -2	7	NE	27 -3	75	30.24	10
Thu Feb  4 14:10:53 2010	Fort Worth, Texas 76101  	light rain	39 4	33 1	8	E	39 4	100	29.95	9
Thu Feb  4 14:10:53 2010	Phoenix, Arizona 85001  	clear sky	52 11	50 10	6	E	46 8	82	29.82	10
Thu Feb  4 14:10:54 2010	Chicago, Illinois 60601  	mostly cloudy	27 -3	21 -6	5	S	19 -7	74	30.38	6
Thu Feb  4 14:10:54 2010	Portland, Oregon 97201  	clear sky	28 -2	16 -9	16-25	NW	19 -7	69	30.12	10
Thu Feb  4 14:10:54 2010	San Antonio, Texas 78201  	light rain	48 9	45 7	6	NE	48 9	100	29.83	2
Thu Feb  4 14:10:55 2010	Indianapolis, Indiana 46201  	mostly cloudy	27 -3	24 -4	3	E	21 -6	80	30.36	6
Thu Feb  4 14:10:56 2010	Jacksonville, Florida 32099  	mostly cloudy	55 13	52 11	10	NE	48 9	77	30.19	10
Thu Feb  4 14:10:56 2010	Columbus, Ohio 43085  	normal	21 -6	21 -6	0		19 -7	93	30.4	0.7
Thu Feb  4 14:10:57 2010	Dallas, Texas 75201  	light rain	43 6	42 6	3	NE	39 4	87	29.98	5
Thu Feb  4 14:10:57 2010	Houston, Texas 77001  	mostly cloudy	54 12	51 11	Oct-32	E	48 9	82	29.88	10
Thu Feb  4 14:10:58 2010	Milwaukee, Wisconsin 53201  	mostly cloudy	21 -6	13 -11	6	S	18 -8	86	30.38	4
Thu Feb  4 14:10:58 2010	Seattle, Washington 98101  	mostly cloudy	39 4	39 4	0		37 3	93	29.75	10
Thu Feb  4 14:10:59 2010	Philadelphia, Pennsylvania 19019  	clear sky	28 -2	21 -6	7	NW	11-Dec	50	30.36	10
Thu Feb  4 14:10:59 2010	Detroit, Michigan 48201  	clear sky	19 -7	19 -7	0		16 -9	86	30.41	6
Thu Feb  4 15:03:51 2010	San Jose, California 95101  	clear sky	52 11	50 10	7	SE	48 9	87	29.83	10
Thu Feb  4 15:03:52 2010	Charlotte, North Carolina 28201  	clear sky	34 1	27 -3	8	NE	25 -4	69	30.36	10
Thu Feb  4 15:03:52 2010	Denver, Colorado 80214  	mostly cloudy	28 -2	22 -6	5	SW	25 -4	86	29.67	10
Thu Feb  4 15:03:52 2010	San Diego, California 92101  	mostly cloudy	54 12	52 11	6	E	46 8	77	29.92	6
Thu Feb  4 15:03:53 2010	Memphis, Tennessee 37501  	light rain	37 3	32 0	7	NE	30 -1	75	30.2	8
Thu Feb  4 15:03:53 2010	Los Angeles, California 90001  	mostly cloudy	57 14	56 13	5	E	48 9	72	29.88	8
Thu Feb  4 15:03:53 2010	El Paso, Texas 79901  	mostly cloudy	45 7	45 7	0		39 4	81	29.84	10
Thu Feb  4 15:03:54 2010	New York, New York 10001  	clear sky	28 -2	19 -7	17-Sep	W	12-Oct	46	30.34	10
Thu Feb  4 15:03:54 2010	Baltimore, Maryland 21201  	normal	32 0	32 0			16 -9	51	30.39	
Thu Feb  4 15:03:55 2010	Washington, Washington D. C. 20001  	clear sky	32 0	25 -4	8	N	18 -8	55	30.41	10
Thu Feb  4 15:03:55 2010	Las Vegas, Nevada 89101  	clear sky	43 6	42 6	3	W	30 -1	61	29.8	10
Thu Feb  4 15:03:55 2010	Austin, Texas 73301  	mostly cloudy	46 8	41 5	10	N	46 8	100	29.88	2
Thu Feb  4 15:03:56 2010	Nashville, Tennessee 37201  	mostly cloudy	34 1	27 -3	8	NE	27 -3	75	30.25	7
Thu Feb  4 15:03:56 2010	Oklahoma City, Oklahoma 73101  	light rain	36 2	30 -1	8	E	34 1	93	30.01	2.5
Thu Feb  4 15:03:56 2010	San Francisco, California 94101  	mostly cloudy	52 11	51 11	5	E	48 9	87	29.81	10
Thu Feb  4 15:03:57 2010	Portland, Oregon 97201  	clear sky	28 -2	15 -9	20-26	NW	18 -8	63	30.15	10
Thu Feb  4 15:03:57 2010	Fort Worth, Texas 76101  	light rain	39 4	33 1	9	NE	39 4	100	29.95	10
Thu Feb  4 15:03:57 2010	Phoenix, Arizona 85001  	clear sky	50 10	48 9	5	E	45 7	82	29.84	10
Thu Feb  4 15:03:58 2010	Chicago, Illinois 60601  	mostly cloudy	27 -3	21 -6	5	N	19 -7	74	30.4	5
Thu Feb  4 15:03:58 2010	Indianapolis, Indiana 46201  	mostly cloudy	27 -3	19 -7	8	E	21 -6	80	30.36	4
Thu Feb  4 15:03:58 2010	San Antonio, Texas 78201  	mostly cloudy	48 9	45 7	7	N	48 9	100	29.84	1.5
Thu Feb  4 15:03:59 2010	Jacksonville, Florida 32099  	mostly cloudy	55 13	52 11	10	NE	50 10	82	30.22	10
Thu Feb  4 15:03:59 2010	Columbus, Ohio 43085  	clear sky	23 -5	23 -5	0		21 -6	93	30.4	1.2
Thu Feb  4 15:04:00 2010	Dallas, Texas 75201  	light rain	43 6	40 4	5	NE	39 4	87	29.97	6
Thu Feb  4 15:04:00 2010	Houston, Texas 77001  	light rain	52 11	47 8	16-24	E	46 8	82	29.86	10
Thu Feb  4 15:04:00 2010	Seattle, Washington 98101  	mostly cloudy	43 6	43 6	0		39 4	87	29.74	10
Thu Feb  4 15:04:01 2010	Detroit, Michigan 48201  	clear sky	19 -7	19 -7	0		16 -9	86	30.43	5
Thu Feb  4 15:04:01 2010	Milwaukee, Wisconsin 53201  	mostly cloudy	23 -5	23 -5	0		18 -8	79	30.37	4
Thu Feb  4 15:04:02 2010	Philadelphia, Pennsylvania 19019  	clear sky	28 -2	21 -6	7	N	16 -9	59	30.38	10
Thu Jan 28 15:43:40 2010	San Jose, California 95101  	mostly cloudy	46 8	46 8	0		45 7	93	30.07	5
Thu Jan 28 15:43:41 2010	Charlotte, North Carolina 28201  	clear sky	37 3	30 -1	10	SW	28 -2	70	30.23	10
Thu Jan 28 15:43:41 2010	San Diego, California 92101  	clear sky	50 10	50 10	0		45 7	82	29.99	10
Thu Jan 28 15:43:42 2010	Denver, Colorado 80214  	clear sky	25 -4	16 -9	8	SW	18 -8	74	30.17	10
Thu Jan 28 15:43:42 2010	Memphis, Tennessee 37501  	mostly cloudy	45 7	39 4	13-16	N	34 1	66	30.34	10
Thu Jan 28 15:43:42 2010	Los Angeles, California 90001  	clear sky	52 11	52 11	3	E	41 5	66	29.97	10
Thu Jan 28 15:43:43 2010	New York, New York 10001  	moderate snow	30 -1	22 -6	9	SW	28 -2	93	30.07	0.2
Thu Jan 28 15:43:43 2010	El Paso, Texas 79901  	mostly cloudy	45 7	44 7	3	N	43 6	93	29.89	10
Thu Jan 28 15:43:43 2010	Baltimore, Maryland 21201  	normal	37 3	37 3			25 -4	60	30.05	
Thu Jan 28 15:43:44 2010	Washington, Washington D. C. 20001  	mostly cloudy	39 4	32 0	12	SW	25 -4	56	30.08	10
Thu Jan 28 15:43:44 2010	Las Vegas, Nevada 89101  	mostly cloudy	48 9	43 6	13-22	N	34 1	57	30.01	10
Thu Jan 28 15:43:44 2010	Austin, Texas 73301  	light rain	63 17	62 17	10	SE	59 15	88	30.05	10
Thu Jan 28 15:43:45 2010	Oklahoma City, Oklahoma 73101  	mostly cloudy	30 -1	17 -8	21-26	NE	19 -7	64	30.34	10
Thu Jan 28 15:43:45 2010	Nashville, Tennessee 37201  	mostly cloudy	43 6	37 3	18-Dec	N	30 -1	61	30.33	10
Thu Jan 28 15:43:45 2010	San Francisco, California 94101  	clear sky	46 8	43 6	6	SE	45 7	93	30.07	9
Thu Jan 28 15:43:46 2010	Portland, Oregon 97201  	clear sky	37 3	29 -2	13	SW	27 -3	65	30.08	10
Thu Jan 28 15:43:46 2010	Phoenix, Arizona 85001  	mostly cloudy	52 11	50 10	7	SE	50 10	94	29.88	6
Thu Jan 28 15:43:46 2010	Fort Worth, Texas 76101  	mostly cloudy	55 13	52 11	12	E	52 11	88	30.12	10
Thu Jan 28 15:43:47 2010	Chicago, Illinois 60601  	clear sky	13-Sep	-7 -22	13	NW	-2 -19	61	30.37	10
Thu Jan 28 15:43:47 2010	San Antonio, Texas 78201  	light rain	63 17	60 16	22-25	SE	63 17	100	30.01	3
Thu Jan 28 15:43:47 2010	Indianapolis, Indiana 46201  	clear sky	14 -10	-3 -19	18-25	W	14-Jul	72	30.34	10
Thu Jan 28 15:43:48 2010	Columbus, Ohio 43085  	clear sky	21 -6	15-May	21-29	W	16 -9	79	30.19	7
Thu Jan 28 15:43:48 2010	Jacksonville, Florida 32099  	clear sky	46 8	45 7	3	N	41 5	81	30.35	9
Thu Jan 28 15:43:49 2010	Dallas, Texas 75201  	light rain	55 13	51 11	15	SE	52 11	88	30.15	8
Thu Jan 28 15:43:49 2010	Houston, Texas 77001  	mostly cloudy	61 16	59 15	12	E	55 13	82	30.15	10
Thu Jan 28 15:43:49 2010	Seattle, Washington 98101  	mostly cloudy	43 6	43 6	0		39 4	87	30.07	10
Thu Jan 28 15:43:50 2010	Milwaukee, Wisconsin 53201  	clear sky	14-Jul	-12 -24	18-24	NW	-6 -21	55	30.33	10
Thu Jan 28 15:43:50 2010	Detroit, Michigan 48201  	light snow	14 -10	-1 -18	15-26	NW	14-Jul	72	30.15	1.7
Thu Jan 28 15:43:51 2010	Philadelphia, Pennsylvania 19019  	mostly cloudy	36 2	36 2	0		23 -5	60	30.04	10
Thu Jan 28 16:04:57 2010	San Jose, California 95101  	mostly cloudy	46 8	46 8	0		45 7	93	30.07	5
Thu Jan 28 16:04:58 2010	Denver, Colorado 80214  	clear sky	25 -4	16 -9	8	SW	18 -8	74	30.17	10
Thu Jan 28 16:04:58 2010	Charlotte, North Carolina 28201  	clear sky	37 3	30 -1	10	SW	28 -2	70	30.23	10
Thu Jan 28 16:04:58 2010	San Diego, California 92101  	clear sky	50 10	50 10	0		45 7	82	29.99	10
Thu Jan 28 16:04:59 2010	Memphis, Tennessee 37501  	mostly cloudy	45 7	39 4	13-16	N	34 1	66	30.34	10
Thu Jan 28 16:04:59 2010	Los Angeles, California 90001  	clear sky	52 11	52 11	3	E	41 5	66	29.97	10
Thu Jan 28 16:05:00 2010	New York, New York 10001  	moderate snow	30 -1	22 -6	9	SW	28 -2	93	30.07	0.2
Thu Jan 28 16:05:00 2010	El Paso, Texas 79901  	mostly cloudy	45 7	44 7	3	N	43 6	93	29.89	10
Thu Jan 28 16:05:00 2010	Baltimore, Maryland 21201  	normal	37 3	37 3			25 -4	60	30.05	
Thu Jan 28 16:05:01 2010	Washington, Washington D. C. 20001  	mostly cloudy	39 4	32 0	12	SW	25 -4	56	30.08	10
Thu Jan 28 16:05:01 2010	Las Vegas, Nevada 89101  	mostly cloudy	48 9	43 6	13-22	N	34 1	57	30.01	10
Thu Jan 28 16:05:01 2010	Austin, Texas 73301  	light rain	63 17	62 17	10	SE	59 15	88	30.05	10
Thu Jan 28 16:05:02 2010	Oklahoma City, Oklahoma 73101  	mostly cloudy	30 -1	17 -8	21-26	NE	19 -7	64	30.34	10
Thu Jan 28 16:05:02 2010	San Francisco, California 94101  	clear sky	46 8	43 6	6	SE	45 7	93	30.07	9
Thu Jan 28 16:05:03 2010	Nashville, Tennessee 37201  	mostly cloudy	43 6	37 3	18-Dec	N	30 -1	61	30.33	10
Thu Jan 28 16:05:03 2010	Phoenix, Arizona 85001  	mostly cloudy	52 11	50 10	7	SE	50 10	94	29.88	6
Thu Jan 28 16:05:03 2010	Fort Worth, Texas 76101  	mostly cloudy	55 13	52 11	12	E	52 11	88	30.12	10
Thu Jan 28 16:05:04 2010	Chicago, Illinois 60601  	clear sky	13-Sep	-7 -22	13	NW	-2 -19	61	30.37	10
Thu Jan 28 16:05:04 2010	Portland, Oregon 97201  	clear sky	37 3	29 -2	13	SW	27 -3	65	30.08	10
Thu Jan 28 16:05:04 2010	San Antonio, Texas 78201  	light rain	63 17	60 16	22-25	SE	63 17	100	30.01	3
Thu Jan 28 16:05:05 2010	Jacksonville, Florida 32099  	clear sky	46 8	45 7	3	N	41 5	81	30.35	9
Thu Jan 28 16:05:05 2010	Indianapolis, Indiana 46201  	clear sky	14 -10	-3 -19	18-25	W	14-Jul	72	30.34	10
Thu Jan 28 16:05:06 2010	Columbus, Ohio 43085  	clear sky	21 -6	15-May	21-29	W	16 -9	79	30.19	7
Thu Jan 28 16:05:06 2010	Dallas, Texas 75201  	light rain	55 13	51 11	15	SE	52 11	88	30.15	8
Thu Jan 28 16:05:07 2010	Houston, Texas 77001  	mostly cloudy	61 16	59 15	12	E	55 13	82	30.15	10
Thu Jan 28 16:05:07 2010	Milwaukee, Wisconsin 53201  	clear sky	14-Jul	-12 -24	18-24	NW	-6 -21	55	30.33	10
Thu Jan 28 16:05:07 2010	Seattle, Washington 98101  	mostly cloudy	43 6	43 6	0		39 4	87	30.07	10
Thu Jan 28 16:05:08 2010	Detroit, Michigan 48201  	light snow	14 -10	-1 -18	15-26	NW	14-Jul	72	30.15	1.7
Thu Jan 28 16:05:08 2010	Philadelphia, Pennsylvania 19019  	mostly cloudy	36 2	36 2	0		23 -5	60	30.04	10
Thu Jan 28 16:53:47 2010	San Jose, California 95101  	clear sky	45 7	44 7	3	S	45 7	100	30.08	5
Thu Jan 28 16:53:48 2010	Charlotte, North Carolina 28201  	clear sky	43 6	38 3	8	SW	28 -2	56	30.22	10
Thu Jan 28 16:53:48 2010	San Diego, California 92101  	clear sky	52 11	52 11	0		45 7	76	30.01	10
Thu Jan 28 16:53:49 2010	Denver, Colorado 80214  	normal	25 -4	21 -6	3	N	21 -6	86	30.17	0.1
Thu Jan 28 16:53:49 2010	Memphis, Tennessee 37501  	mostly cloudy	43 6	37 3	10	N	34 1	70	30.39	10
Thu Jan 28 16:53:49 2010	Los Angeles, California 90001  	clear sky	52 11	52 11	0		43 6	71	29.99	10
Thu Jan 28 16:53:50 2010	El Paso, Texas 79901  	light rain	46 8	43 6	6	N	43 6	87	29.94	10
Thu Jan 28 16:53:50 2010	New York, New York 10001  	mostly cloudy	36 2	36 2	0		32 0	87	30	8
Thu Jan 28 16:53:51 2010	Washington, Washington D. C. 20001  	mostly cloudy	39 4	31 -1	13-18	SW	25 -4	56	30.06	10
Thu Jan 28 16:53:51 2010	Las Vegas, Nevada 89101  	clear sky	46 8	41 5	22-Sep	NE	34 1	61	30.02	10
Thu Jan 28 16:53:51 2010	Baltimore, Maryland 21201  	normal	39 4	39 4			25 -4	56	30.04	
Thu Jan 28 16:53:52 2010	Oklahoma City, Oklahoma 73101  	mostly cloudy	28 -2	15 -9	20-30	NE	21 -6	74	30.34	6
Thu Jan 28 16:53:52 2010	San Francisco, California 94101  	clear sky	46 8	45 7	3	SE	45 7	93	30.08	7
Thu Jan 28 16:53:52 2010	Austin, Texas 73301  	mostly cloudy	63 17	61 16	16	SE	59 15	88	30.05	10
Thu Jan 28 16:53:53 2010	Nashville, Tennessee 37201  	mostly cloudy	39 4	30 -1	17	NW	30 -1	70	30.37	10
Thu Jan 28 16:53:53 2010	Fort Worth, Texas 76101  	mostly cloudy	55 13	52 11	12	E	52 11	88	30.11	10
Thu Jan 28 16:53:54 2010	Chicago, Illinois 60601  	clear sky	13-Sep	-5 -21	21-Oct	NW	-2 -19	61	30.39	10
Thu Jan 28 16:53:54 2010	Portland, Oregon 97201  	mostly cloudy	39 4	32 0	12	SW	28 -2	65	30.06	10
Thu Jan 28 16:53:54 2010	Phoenix, Arizona 85001  	mostly cloudy	52 11	52 11	3	S	48 9	87	29.9	10
Thu Jan 28 16:53:55 2010	San Antonio, Texas 78201  	light rain	64 18	61 16	28-31	SE	63 17	94	30	1.5
Thu Jan 28 16:53:55 2010	Indianapolis, Indiana 46201  	clear sky	14 -10	-3 -19	18-25	W	14-Jul	72	30.37	10
Thu Jan 28 16:53:56 2010	Columbus, Ohio 43085  	mostly cloudy	19 -7	17-Feb	24-26	W	12-Oct	67	30.23	10
Thu Jan 28 16:53:56 2010	Jacksonville, Florida 32099  	clear sky	52 11	52 11	3	NE	43 6	71	30.36	10
Thu Jan 28 16:53:56 2010	Dallas, Texas 75201  	mostly cloudy	55 13	52 11	12	E	52 11	88	30.14	10
Thu Jan 28 16:53:57 2010	Houston, Texas 77001  	mostly cloudy	61 16	59 15	13	E	55 13	82	30.16	10
Thu Jan 28 16:53:57 2010	Milwaukee, Wisconsin 53201  	clear sky	14-Jul	-12 -24	18-28	NW	-6 -21	55	30.35	10
Thu Jan 28 16:53:57 2010	Seattle, Washington 98101  	mostly cloudy	43 6	43 6	0		39 4	87	30.06	10
Thu Jan 28 16:53:58 2010	Detroit, Michigan 48201  	mostly cloudy	14 -10	-3 -19	18-25	NW	17-Jan	56	30.19	8
Thu Jan 28 16:53:58 2010	Philadelphia, Pennsylvania 19019  	mostly cloudy	36 2	32 0	5	SW	23 -5	60	30.05	10
Thu Jan 28 17:18:14 2010	Charlotte, North Carolina 28201  	clear sky	43 6	38 3	8	SW	28 -2	56	30.22	10
Thu Jan 28 17:18:14 2010	San Jose, California 95101  	clear sky	45 7	44 7	3	S	45 7	100	30.08	5
Thu Jan 28 17:18:14 2010	San Diego, California 92101  	clear sky	52 11	52 11	0		45 7	76	30.01	10
Thu Jan 28 17:18:15 2010	Denver, Colorado 80214  	normal	25 -4	21 -6	3	N	21 -6	86	30.17	0.1
Thu Jan 28 17:18:15 2010	Memphis, Tennessee 37501  	mostly cloudy	43 6	37 3	10	N	34 1	70	30.39	10
Thu Jan 28 17:18:15 2010	Los Angeles, California 90001  	clear sky	52 11	52 11	0		43 6	71	29.99	10
Thu Jan 28 17:18:16 2010	El Paso, Texas 79901  	light rain	46 8	43 6	6	N	43 6	87	29.94	10
Thu Jan 28 17:18:16 2010	Baltimore, Maryland 21201  	normal	39 4	39 4			25 -4	56	30.04	
Thu Jan 28 17:18:16 2010	New York, New York 10001  	mostly cloudy	36 2	36 2	0		32 0	87	30	8
Thu Jan 28 17:18:17 2010	Washington, Washington D. C. 20001  	mostly cloudy	39 4	31 -1	13-18	SW	25 -4	56	30.06	10
Thu Jan 28 17:18:17 2010	Las Vegas, Nevada 89101  	clear sky	46 8	41 5	22-Sep	NE	34 1	61	30.02	10
Thu Jan 28 17:18:17 2010	Austin, Texas 73301  	mostly cloudy	63 17	61 16	16	SE	59 15	88	30.05	10
Thu Jan 28 17:18:18 2010	Oklahoma City, Oklahoma 73101  	mostly cloudy	28 -2	15 -9	20-30	NE	21 -6	74	30.34	6
Thu Jan 28 17:18:18 2010	Nashville, Tennessee 37201  	mostly cloudy	39 4	30 -1	17	NW	30 -1	70	30.37	10
Thu Jan 28 17:18:18 2010	San Francisco, California 94101  	clear sky	46 8	45 7	3	SE	45 7	93	30.08	7
Thu Jan 28 17:18:19 2010	Portland, Oregon 97201  	mostly cloudy	39 4	32 0	12	SW	28 -2	65	30.06	10
Thu Jan 28 17:18:19 2010	Phoenix, Arizona 85001  	mostly cloudy	52 11	52 11	3	S	48 9	87	29.9	10
Thu Jan 28 17:18:19 2010	Fort Worth, Texas 76101  	mostly cloudy	55 13	52 11	12	E	52 11	88	30.11	10
Thu Jan 28 17:18:20 2010	Chicago, Illinois 60601  	clear sky	13-Sep	-5 -21	21-Oct	NW	-2 -19	61	30.39	10
Thu Jan 28 17:18:20 2010	San Antonio, Texas 78201  	light rain	64 18	61 16	28-31	SE	63 17	94	30	1.5
Thu Jan 28 17:18:20 2010	Indianapolis, Indiana 46201  	clear sky	14 -10	-3 -19	18-25	W	14-Jul	72	30.37	10
Thu Jan 28 17:18:21 2010	Columbus, Ohio 43085  	mostly cloudy	19 -7	17-Feb	24-26	W	12-Oct	67	30.23	10
Thu Jan 28 17:18:21 2010	Jacksonville, Florida 32099  	clear sky	52 11	52 11	3	NE	43 6	71	30.36	10
Thu Jan 28 17:18:22 2010	Dallas, Texas 75201  	mostly cloudy	55 13	52 11	12	E	52 11	88	30.14	10
Thu Jan 28 17:18:22 2010	Houston, Texas 77001  	mostly cloudy	61 16	59 15	13	E	55 13	82	30.16	10
Thu Jan 28 17:18:22 2010	Seattle, Washington 98101  	mostly cloudy	43 6	43 6	0		39 4	87	30.06	10
Thu Jan 28 17:18:23 2010	Detroit, Michigan 48201  	mostly cloudy	14 -10	-3 -19	18-25	NW	17-Jan	56	30.19	8
Thu Jan 28 17:18:23 2010	Philadelphia, Pennsylvania 19019  	mostly cloudy	36 2	32 0	5	SW	23 -5	60	30.05	10
Thu Jan 28 17:18:23 2010	Milwaukee, Wisconsin 53201  	clear sky	14-Jul	-12 -24	18-28	NW	-6 -21	55	30.35	10
Thu Jan 28 17:34:05 2010	Charlotte, North Carolina 28201  	clear sky	43 6	38 3	8	SW	28 -2	56	30.22	10
Thu Jan 28 17:34:05 2010	San Jose, California 95101  	clear sky	45 7	44 7	3	S	45 7	100	30.08	5
Thu Jan 28 17:34:06 2010	Denver, Colorado 80214  	normal	25 -4	21 -6	3	N	21 -6	86	30.17	0.1
Thu Jan 28 17:34:06 2010	Memphis, Tennessee 37501  	mostly cloudy	43 6	37 3	10	N	34 1	70	30.39	10
Thu Jan 28 17:34:06 2010	San Diego, California 92101  	clear sky	52 11	52 11	0		45 7	76	30.01	10
Thu Jan 28 17:34:07 2010	El Paso, Texas 79901  	light rain	46 8	43 6	6	N	43 6	87	29.94	10
Thu Jan 28 17:34:07 2010	Los Angeles, California 90001  	clear sky	52 11	52 11	0		43 6	71	29.99	10
Thu Jan 28 17:34:07 2010	New York, New York 10001  	mostly cloudy	36 2	36 2	0		32 0	87	30	8
Thu Jan 28 17:34:08 2010	Washington, Washington D. C. 20001  	mostly cloudy	39 4	31 -1	13-18	SW	25 -4	56	30.06	10
Thu Jan 28 17:34:08 2010	Las Vegas, Nevada 89101  	clear sky	46 8	41 5	22-Sep	NE	34 1	61	30.02	10
Thu Jan 28 17:34:08 2010	Baltimore, Maryland 21201  	normal	39 4	39 4			25 -4	56	30.04	
Thu Jan 28 17:34:09 2010	Oklahoma City, Oklahoma 73101  	mostly cloudy	28 -2	15 -9	20-30	NE	21 -6	74	30.34	6
Thu Jan 28 17:34:09 2010	San Francisco, California 94101  	clear sky	46 8	45 7	3	SE	45 7	93	30.08	7
Thu Jan 28 17:34:09 2010	Austin, Texas 73301  	mostly cloudy	63 17	61 16	16	SE	59 15	88	30.05	10
Thu Jan 28 17:34:10 2010	Nashville, Tennessee 37201  	mostly cloudy	39 4	30 -1	17	NW	30 -1	70	30.37	10
Thu Jan 28 17:34:10 2010	Phoenix, Arizona 85001  	mostly cloudy	52 11	52 11	3	S	48 9	87	29.9	10
Thu Jan 28 17:34:10 2010	Fort Worth, Texas 76101  	mostly cloudy	55 13	52 11	12	E	52 11	88	30.11	10
Thu Jan 28 17:34:11 2010	Chicago, Illinois 60601  	clear sky	13-Sep	-5 -21	21-Oct	NW	-2 -19	61	30.39	10
Thu Jan 28 17:34:11 2010	Portland, Oregon 97201  	mostly cloudy	39 4	32 0	12	SW	28 -2	65	30.06	10
Thu Jan 28 17:34:12 2010	Jacksonville, Florida 32099  	clear sky	52 11	52 11	3	NE	43 6	71	30.36	10
Thu Jan 28 17:34:12 2010	San Antonio, Texas 78201  	light rain	64 18	61 16	28-31	SE	63 17	94	30	1.5
Thu Jan 28 17:34:12 2010	Indianapolis, Indiana 46201  	clear sky	14 -10	-3 -19	18-25	W	14-Jul	72	30.37	10
Thu Jan 28 17:34:13 2010	Columbus, Ohio 43085  	mostly cloudy	19 -7	17-Feb	24-26	W	12-Oct	67	30.23	10
Thu Jan 28 17:34:13 2010	Dallas, Texas 75201  	mostly cloudy	55 13	52 11	12	E	52 11	88	30.14	10
Thu Jan 28 17:34:13 2010	Houston, Texas 77001  	mostly cloudy	61 16	59 15	13	E	55 13	82	30.16	10
Thu Jan 28 17:34:14 2010	Detroit, Michigan 48201  	mostly cloudy	14 -10	-3 -19	18-25	NW	17-Jan	56	30.19	8
Thu Jan 28 17:34:14 2010	Milwaukee, Wisconsin 53201  	clear sky	14-Jul	-12 -24	18-28	NW	-6 -21	55	30.35	10
Thu Jan 28 17:34:14 2010	Seattle, Washington 98101  	mostly cloudy	43 6	43 6	0		39 4	87	30.06	10
Thu Jan 28 17:34:15 2010	Philadelphia, Pennsylvania 19019  	mostly cloudy	36 2	32 0	5	SW	23 -5	60	30.05	10
Tue Feb  2 00:33:27 2010	San Jose, California 95101  	mostly cloudy	63 17	63 17	6	S	43 6	48	29.87	10
Tue Feb  2 00:33:27 2010	Charlotte, North Carolina 28201  	clear sky	48 9	48 9	0		21 -6	34	30.25	10
Tue Feb  2 00:33:28 2010	Memphis, Tennessee 37501  	mostly cloudy	46 8	45 7	3	SE	30 -1	53	30.13	10
Tue Feb  2 00:33:28 2010	Denver, Colorado 80214  	clear sky	45 7	40 4	17-Sep	N	14-Jul	21	29.83	10
Tue Feb  2 00:33:28 2010	San Diego, California 92101  	mostly cloudy	61 16	61 16	0		50 10	68	29.9	9
Tue Feb  2 00:33:29 2010	New York, New York 10001  	clear sky	34 1	29 -2	6	N	12-Oct	37	30.23	10
Tue Feb  2 00:33:29 2010	El Paso, Texas 79901  	mostly cloudy	63 17	62 17	9	W	30 -1	29	29.91	10
Tue Feb  2 00:33:29 2010	Los Angeles, California 90001  	clear sky	68 20	68 20	0		45 7	43	29.88	6
Tue Feb  2 00:33:30 2010	Washington, Washington D. C. 20001  	mostly cloudy	39 4	35 2	6	W	11-Dec	33	30.31	10
Tue Feb  2 00:33:30 2010	Baltimore, Maryland 21201  	normal	36 2	36 2			11-Dec	37	30.29	
Tue Feb  2 00:33:30 2010	Las Vegas, Nevada 89101  	mostly cloudy	55 13	55 13	0		27 -3	33	29.92	10
Tue Feb  2 00:33:31 2010	Oklahoma City, Oklahoma 73101  	mostly cloudy	32 0	25 -4	7	SW	30 -1	93	30.01	2
Tue Feb  2 00:33:31 2010	Austin, Texas 73301  	mostly cloudy	45 7	45 7	0		41 5	87	30.04	2
Tue Feb  2 00:33:31 2010	San Francisco, California 94101  	mostly cloudy	55 13	55 13	0		45 7	67	29.9	10
Tue Feb  2 00:33:32 2010	Nashville, Tennessee 37201  	mostly cloudy	39 4	35 2	5	SE	28 -2	65	30.19	10
Tue Feb  2 00:33:32 2010	Fort Worth, Texas 76101  	mostly cloudy	43 6	39 4	7	S	36 2	75	30.01	9
Tue Feb  2 00:33:32 2010	Phoenix, Arizona 85001  	mostly cloudy	64 18	64 18	0		36 2	34	29.9	10
Tue Feb  2 00:33:33 2010	Chicago, Illinois 60601  	mostly cloudy	30 -1	27 -3	3	SE	16 -9	55	30.21	6
Tue Feb  2 00:33:33 2010	Portland, Oregon 97201  	clear sky	30 -1	19 -7	16	W	16 -9	55	30.15	10
Tue Feb  2 00:33:33 2010	San Antonio, Texas 78201  	mostly cloudy	45 7	44 7	3	NE	45 7	100	30.04	1.5
Tue Feb  2 00:33:34 2010	Indianapolis, Indiana 46201  	mostly cloudy	36 2	34 1	3	SE	14 -10	41	30.18	10
Tue Feb  2 00:33:34 2010	Jacksonville, Florida 32099  	mostly cloudy	57 14	55 13	10	NE	52 11	82	30.14	10
Tue Feb  2 00:33:35 2010	Dallas, Texas 75201  	mostly cloudy	46 8	44 7	5	W	37 3	71	30.02	10
Tue Feb  2 00:33:35 2010	Houston, Texas 77001  	mostly cloudy	50 10	48 9	6	E	46 8	87	30.06	5
Tue Feb  2 00:33:35 2010	Columbus, Ohio 43085  	clear sky	32 0	32 0	0		16 -9	51	30.24	10
Tue Feb  2 00:33:36 2010	Detroit, Michigan 48201  	mostly cloudy	27 -3	20 -7	6	W	11-Dec	54	30.26	10
Tue Feb  2 00:33:36 2010	Milwaukee, Wisconsin 53201  	mostly cloudy	27 -3	19 -7	7	E	11-Dec	54	30.21	9
Tue Feb  2 00:33:36 2010	Seattle, Washington 98101  	mostly cloudy	48 9	48 9	0		39 4	71	29.84	10
Tue Feb  2 00:33:37 2010	Philadelphia, Pennsylvania 19019  	clear sky	34 1	26 -3	21-Oct	W	12-Oct	37	30.26	10
Tue Feb  2 01:18:41 2010	San Jose, California 95101  	mostly cloudy	63 17	63 17	6	S	45 7	52	29.87	10
Tue Feb  2 01:18:41 2010	Charlotte, North Carolina 28201  	clear sky	43 6	43 6	0		23 -5	45	30.26	10
Tue Feb  2 01:18:42 2010	San Diego, California 92101  	mostly cloudy	61 16	61 16	3	N	52 11	72	29.89	8
Tue Feb  2 01:18:42 2010	Denver, Colorado 80214  	clear sky	43 6	36 2	13-17	N	13-Sep	24	29.86	10
Tue Feb  2 01:18:43 2010	Memphis, Tennessee 37501  	mostly cloudy	45 7	44 7	3	S	30 -1	57	30.13	10
Tue Feb  2 01:18:43 2010	Los Angeles, California 90001  	clear sky	66 19	66 19	5	N	52 11	60	29.87	8
Tue Feb  2 01:18:44 2010	New York, New York 10001  	clear sky	34 1	32 0	3	N	12-Oct	37	30.23	10
Tue Feb  2 01:18:44 2010	El Paso, Texas 79901  	mostly cloudy	61 16	60 16	8	W	30 -1	31	29.91	10
Tue Feb  2 01:18:44 2010	Baltimore, Maryland 21201  	normal	34 1	34 1			11-Dec	40	30.29	
Tue Feb  2 01:18:45 2010	Washington, Washington D. C. 20001  	mostly cloudy	37 3	33 1	5	W	11-Dec	35	30.3	10
Tue Feb  2 01:18:45 2010	Las Vegas, Nevada 89101  	mostly cloudy	57 14	57 14	3	NE	27 -3	31	29.91	10
Tue Feb  2 01:18:45 2010	Austin, Texas 73301  	mostly cloudy	45 7	45 7	0		41 5	87	30.05	3
Tue Feb  2 01:18:46 2010	Nashville, Tennessee 37201  	mostly cloudy	39 4	35 2	5	SE	28 -2	65	30.19	10
Tue Feb  2 01:18:46 2010	Oklahoma City, Oklahoma 73101  	mostly cloudy	32 0	26 -3	6	SW	30 -1	93	30.01	2
Tue Feb  2 01:18:46 2010	San Francisco, California 94101  	mostly cloudy	55 13	55 13	0		45 7	67	29.89	10
Tue Feb  2 01:18:47 2010	Portland, Oregon 97201  	clear sky	30 -1	17 -8	21-24	W	16 -9	55	30.17	10
Tue Feb  2 01:18:47 2010	Fort Worth, Texas 76101  	mostly cloudy	43 6	42 6	3	S	36 2	75	30.02	9
Tue Feb  2 01:18:47 2010	Phoenix, Arizona 85001  	mostly cloudy	66 19	66 19	5	W	36 2	32	29.89	10
Tue Feb  2 01:18:48 2010	Indianapolis, Indiana 46201  	mostly cloudy	36 2	30 -1	7	SE	16 -9	44	30.17	10
Tue Feb  2 01:18:48 2010	Chicago, Illinois 60601  	mostly cloudy	30 -1	22 -6	8	SE	18 -8	59	30.19	6
Tue Feb  2 01:18:48 2010	San Antonio, Texas 78201  	mostly cloudy	45 7	45 7	0		45 7	100	30.04	1
Tue Feb  2 01:18:49 2010	Jacksonville, Florida 32099  	mostly cloudy	57 14	55 13	10	NE	52 11	82	30.14	10
Tue Feb  2 01:18:49 2010	Columbus, Ohio 43085  	clear sky	32 0	32 0	0		16 -9	51	30.23	10
Tue Feb  2 01:18:50 2010	Dallas, Texas 75201  	mostly cloudy	46 8	41 5	10	S	37 3	71	30.03	10
Tue Feb  2 01:18:50 2010	Houston, Texas 77001  	mostly cloudy	50 10	48 9	6	E	46 8	87	30.07	5
Tue Feb  2 01:18:50 2010	Seattle, Washington 98101  	mostly cloudy	50 10	50 10	0		39 4	66	29.84	10
Tue Feb  2 01:18:51 2010	Philadelphia, Pennsylvania 19019  	clear sky	32 0	24 -4	9	W	12-Oct	40	30.27	10
Tue Feb  2 01:18:51 2010	Detroit, Michigan 48201  	mostly cloudy	27 -3	19 -7	8	SW	11-Dec	54	30.26	10
Tue Feb  2 01:18:51 2010	Milwaukee, Wisconsin 53201  	mostly cloudy	27 -3	20 -7	6	SE	14 -10	58	30.2	8
Tue Feb  2 02:01:40 2010	San Jose, California 95101  	mostly cloudy	59 15	58 14	8	NW	46 8	63	29.88	10
Tue Feb  2 02:01:40 2010	Charlotte, North Carolina 28201  	clear sky	39 4	39 4	0		21 -6	48	30.26	10
Tue Feb  2 02:01:41 2010	Memphis, Tennessee 37501  	mostly cloudy	45 7	44 7	3	SE	30 -1	57	30.13	10
Tue Feb  2 02:01:41 2010	San Diego, California 92101  	mostly cloudy	63 17	62 17	9	NW	50 10	63	29.9	7
Tue Feb  2 02:01:41 2010	Denver, Colorado 80214  	clear sky	41 5	36 2	8	N	13-Sep	26	29.89	10
Tue Feb  2 02:01:42 2010	New York, New York 10001  	mostly cloudy	34 1	29 -2	5	N	12-Oct	37	30.24	10
Tue Feb  2 02:01:42 2010	El Paso, Texas 79901  	mostly cloudy	61 16	60 16	10	W	30 -1	31	29.92	10
Tue Feb  2 02:01:42 2010	Los Angeles, California 90001  	clear sky	64 18	64 18	3	N	52 11	64	29.88	8
Tue Feb  2 02:01:43 2010	Las Vegas, Nevada 89101  	mostly cloudy	57 14	57 14	3	NE	27 -3	31	29.91	10
Tue Feb  2 02:01:43 2010	Baltimore, Maryland 21201  	normal	34 1	34 1			16 -9	47	30.29	
Tue Feb  2 02:01:44 2010	Washington, Washington D. C. 20001  	clear sky	36 2	32 0	5	N	18 -8	47	30.3	10
Tue Feb  2 02:01:44 2010	Austin, Texas 73301  	mostly cloudy	45 7	44 7	3	E	43 6	93	30.04	4
Tue Feb  2 02:01:44 2010	San Francisco, California 94101  	mostly cloudy	57 14	57 14	3	W	45 7	63	29.9	10
Tue Feb  2 02:01:45 2010	Oklahoma City, Oklahoma 73101  	mostly cloudy	32 0	27 -3	5	SW	30 -1	93	30.02	2
Tue Feb  2 02:01:45 2010	Nashville, Tennessee 37201  	mostly cloudy	37 3	37 3	0		28 -2	70	30.18	10
Tue Feb  2 02:01:46 2010	Portland, Oregon 97201  	clear sky	30 -1	19 -7	14-24	W	18 -8	59	30.16	10
Tue Feb  2 02:01:46 2010	Fort Worth, Texas 76101  	mostly cloudy	43 6	42 6	3	S	37 3	81	30.02	8
Tue Feb  2 02:01:46 2010	Phoenix, Arizona 85001  	mostly cloudy	66 19	66 19	0		36 2	32	29.89	10
Tue Feb  2 02:01:47 2010	Chicago, Illinois 60601  	mostly cloudy	28 -2	21 -6	7	E	18 -8	63	30.19	6
Tue Feb  2 02:01:47 2010	Indianapolis, Indiana 46201  	mostly cloudy	34 1	29 -2	5	E	19 -7	55	30.17	10
Tue Feb  2 02:01:47 2010	San Antonio, Texas 78201  	mostly cloudy	46 8	44 7	5	E	45 7	93	30.04	1
Tue Feb  2 02:01:48 2010	Jacksonville, Florida 32099  	mostly cloudy	57 14	55 13	10	N	52 11	82	30.13	10
Tue Feb  2 02:01:49 2010	Dallas, Texas 75201  	mostly cloudy	46 8	42 6	8	S	37 3	71	30.04	10
Tue Feb  2 02:01:49 2010	Houston, Texas 77001  	mostly cloudy	50 10	47 8	7	E	46 8	87	30.06	5
Tue Feb  2 02:01:49 2010	Columbus, Ohio 43085  	clear sky	30 -1	30 -1	0		16 -9	55	30.22	10
Tue Feb  2 02:01:49 2010	Seattle, Washington 98101  	light rain	48 9	48 9	0		39 4	71	29.84	10
Tue Feb  2 02:01:50 2010	Detroit, Michigan 48201  	mostly cloudy	25 -4	17 -8	7	SW	16 -9	68	30.26	10
Tue Feb  2 02:01:50 2010	Milwaukee, Wisconsin 53201  	mostly cloudy	25 -4	19 -7	5	SE	16 -9	68	30.2	9
Tue Feb  2 02:01:51 2010	Philadelphia, Pennsylvania 19019  	clear sky	30 -1	23 -5	7	W	11-Dec	47	30.28	10
Tue Feb  2 02:45:47 2010	San Jose, California 95101  	mostly cloudy	55 13	53 12	9	NW	45 7	67	29.9	10
Tue Feb  2 02:45:47 2010	Charlotte, North Carolina 28201  	clear sky	37 3	37 3	0		21 -6	52	30.26	10
Tue Feb  2 02:45:48 2010	San Diego, California 92101  	mostly cloudy	61 16	61 16	6	W	52 11	72	29.9	8
Tue Feb  2 02:45:48 2010	Denver, Colorado 80214  	clear sky	37 3	30 -1	9	N	13-Sep	30	29.91	10
Tue Feb  2 02:45:49 2010	El Paso, Texas 79901  	mostly cloudy	57 14	55 13	10	W	32 0	38	29.94	10
Tue Feb  2 02:45:49 2010	Los Angeles, California 90001  	clear sky	63 17	63 17	0		52 11	68	29.89	8
Tue Feb  2 02:45:49 2010	Memphis, Tennessee 37501  	mostly cloudy	43 6	43 6	0		32 0	65	30.14	10
Tue Feb  2 02:45:50 2010	New York, New York 10001  	clear sky	32 0	26 -3	21-Jun	N	12-Oct	40	30.25	10
Tue Feb  2 02:45:50 2010	Baltimore, Maryland 21201  	normal	34 1	34 1			16 -9	47	30.29	
Tue Feb  2 02:45:51 2010	Washington, Washington D. C. 20001  	mostly cloudy	34 1	32 0	3	S	19 -7	55	30.3	10
Tue Feb  2 02:45:51 2010	Las Vegas, Nevada 89101  	mostly cloudy	55 13	55 13	3	E	27 -3	33	29.91	10
Tue Feb  2 02:45:51 2010	Austin, Texas 73301  	mostly cloudy	45 7	45 7	0		43 6	93	30.04	4
Tue Feb  2 02:45:52 2010	Oklahoma City, Oklahoma 73101  	mostly cloudy	32 0	29 -2	3	S	30 -1	93	30.03	2
Tue Feb  2 02:45:52 2010	San Francisco, California 94101  	mostly cloudy	55 13	54 12	6	NW	46 8	72	29.91	10
Tue Feb  2 02:45:53 2010	Fort Worth, Texas 76101  	mostly cloudy	43 6	40 4	5	S	37 3	81	30.04	9
Tue Feb  2 02:45:53 2010	Phoenix, Arizona 85001  	mostly cloudy	64 18	64 18	5	S	37 3	37	29.89	10
Tue Feb  2 02:45:53 2010	Nashville, Tennessee 37201  	mostly cloudy	37 3	37 3	0		30 -1	75	30.16	10
Tue Feb  2 02:45:54 2010	Portland, Oregon 97201  	clear sky	30 -1	19 -7	14-23	W	16 -9	55	30.17	10
Tue Feb  2 02:45:54 2010	Chicago, Illinois 60601  	mostly cloudy	28 -2	21 -6	7	E	19 -7	69	30.19	7
Tue Feb  2 02:45:54 2010	San Antonio, Texas 78201  	mostly cloudy	45 7	44 7	3	E	45 7	100	30.04	1
Tue Feb  2 02:45:55 2010	Indianapolis, Indiana 46201  	mostly cloudy	34 1	32 0	3	E	19 -7	55	30.16	10
Tue Feb  2 02:45:56 2010	Columbus, Ohio 43085  	clear sky	27 -3	24 -4	3	E	16 -9	63	30.21	9
Tue Feb  2 02:45:56 2010	Dallas, Texas 75201  	mostly cloudy	45 7	42 6	6	S	37 3	76	30.05	10
Tue Feb  2 02:45:56 2010	Jacksonville, Florida 32099  	mostly cloudy	57 14	56 13	5	NE	54 12	88	30.14	10
Tue Feb  2 02:45:57 2010	Milwaukee, Wisconsin 53201  	mostly cloudy	25 -4	19 -7	5	E	18 -8	74	30.19	9
Tue Feb  2 02:45:57 2010	Houston, Texas 77001  	mostly cloudy	50 10	47 8	8	E	46 8	87	30.07	6
Tue Feb  2 02:45:57 2010	Seattle, Washington 98101  	light rain	48 9	48 9	0		43 6	81	29.84	10
Tue Feb  2 02:45:58 2010	Philadelphia, Pennsylvania 19019  	clear sky	28 -2	21 -6	6	W	11-Dec	50	30.28	10
Tue Feb  2 02:45:58 2010	Detroit, Michigan 48201  	mostly cloudy	25 -4	21 -6	3	SW	16 -9	68	30.24	10
Tue Feb  2 03:29:08 2010	San Jose, California 95101  	mostly cloudy	55 13	53 12	9	NW	45 7	67	29.9	10
Tue Feb  2 03:29:08 2010	Charlotte, North Carolina 28201  	clear sky	37 3	37 3	0		21 -6	52	30.26	10
Tue Feb  2 03:29:09 2010	San Diego, California 92101  	mostly cloudy	61 16	61 16	6	W	52 11	72	29.9	8
Tue Feb  2 03:29:09 2010	Denver, Colorado 80214  	clear sky	37 3	30 -1	9	N	13-Sep	30	29.91	10
Tue Feb  2 03:29:10 2010	El Paso, Texas 79901  	mostly cloudy	57 14	55 13	10	W	32 0	38	29.94	10
Tue Feb  2 03:29:10 2010	Los Angeles, California 90001  	clear sky	63 17	63 17	0		52 11	68	29.89	8
Tue Feb  2 03:29:10 2010	Memphis, Tennessee 37501  	mostly cloudy	43 6	43 6	0		32 0	65	30.14	10
Tue Feb  2 03:29:11 2010	New York, New York 10001  	clear sky	32 0	26 -3	21-Jun	N	12-Oct	40	30.25	10
Tue Feb  2 03:29:11 2010	Baltimore, Maryland 21201  	normal	34 1	34 1			16 -9	47	30.29	
Tue Feb  2 03:29:12 2010	Washington, Washington D. C. 20001  	mostly cloudy	34 1	32 0	3	S	19 -7	55	30.3	10
Tue Feb  2 03:29:12 2010	Las Vegas, Nevada 89101  	mostly cloudy	55 13	55 13	3	E	27 -3	33	29.91	10
Tue Feb  2 03:29:12 2010	Austin, Texas 73301  	mostly cloudy	45 7	45 7	0		43 6	93	30.04	4
Tue Feb  2 03:29:13 2010	Oklahoma City, Oklahoma 73101  	mostly cloudy	32 0	29 -2	3	S	30 -1	93	30.03	2
Tue Feb  2 03:29:13 2010	San Francisco, California 94101  	mostly cloudy	55 13	54 12	6	NW	46 8	72	29.91	10
Tue Feb  2 03:29:13 2010	Nashville, Tennessee 37201  	mostly cloudy	37 3	37 3	0		30 -1	75	30.16	10
Tue Feb  2 03:29:14 2010	Portland, Oregon 97201  	clear sky	30 -1	19 -7	14-23	W	16 -9	55	30.17	10
Tue Feb  2 03:29:14 2010	Fort Worth, Texas 76101  	mostly cloudy	43 6	40 4	5	S	37 3	81	30.04	9
Tue Feb  2 03:29:14 2010	Phoenix, Arizona 85001  	mostly cloudy	64 18	64 18	5	S	37 3	37	29.89	10
Tue Feb  2 03:29:15 2010	Chicago, Illinois 60601  	mostly cloudy	28 -2	21 -6	7	E	19 -7	69	30.19	7
Tue Feb  2 03:29:15 2010	Indianapolis, Indiana 46201  	mostly cloudy	34 1	32 0	3	E	19 -7	55	30.16	10
Tue Feb  2 03:29:15 2010	San Antonio, Texas 78201  	mostly cloudy	45 7	44 7	3	E	45 7	100	30.04	1
Tue Feb  2 03:29:16 2010	Columbus, Ohio 43085  	clear sky	27 -3	24 -4	3	E	16 -9	63	30.21	9
Tue Feb  2 03:29:16 2010	Jacksonville, Florida 32099  	mostly cloudy	57 14	56 13	5	NE	54 12	88	30.14	10
Tue Feb  2 03:29:17 2010	Dallas, Texas 75201  	mostly cloudy	45 7	42 6	6	S	37 3	76	30.05	10
Tue Feb  2 03:29:17 2010	Houston, Texas 77001  	mostly cloudy	50 10	47 8	8	E	46 8	87	30.07	6
Tue Feb  2 03:29:17 2010	Seattle, Washington 98101  	light rain	48 9	48 9	0		43 6	81	29.84	10
Tue Feb  2 03:29:18 2010	Philadelphia, Pennsylvania 19019  	clear sky	28 -2	21 -6	6	W	11-Dec	50	30.28	10
Tue Feb  2 03:29:18 2010	Detroit, Michigan 48201  	mostly cloudy	25 -4	21 -6	3	SW	16 -9	68	30.24	10
Tue Feb  2 03:29:18 2010	Milwaukee, Wisconsin 53201  	mostly cloudy	25 -4	19 -7	5	E	18 -8	74	30.19	9
Tue Feb  2 04:12:53 2010	San Jose, California 95101  	mostly cloudy	54 12	51 11	9	W	45 7	71	29.9	10
Tue Feb  2 04:12:53 2010	San Diego, California 92101  	mostly cloudy	57 14	56 13	6	W	52 11	82	29.92	8
Tue Feb  2 04:12:53 2010	Charlotte, North Carolina 28201  	clear sky	36 2	36 2	0		21 -6	55	30.25	10
Tue Feb  2 04:12:54 2010	Denver, Colorado 80214  	clear sky	32 0	26 -3	6	S	12-Oct	40	29.93	10
Tue Feb  2 04:12:54 2010	Los Angeles, California 90001  	clear sky	61 16	61 16	3	W	50 10	68	29.89	9
Tue Feb  2 04:12:54 2010	Memphis, Tennessee 37501  	mostly cloudy	39 4	39 4	0		32 0	75	30.13	10
Tue Feb  2 04:12:55 2010	New York, New York 10001  	clear sky	32 0	25 -4	21-Aug	W	12-Oct	40	30.24	10
Tue Feb  2 04:12:55 2010	El Paso, Texas 79901  	mostly cloudy	57 14	56 13	5	NW	32 0	38	29.95	10
Tue Feb  2 04:12:55 2010	Baltimore, Maryland 21201  	normal	34 1	34 1			18 -8	51	30.3	
Tue Feb  2 04:12:56 2010	Austin, Texas 73301  	mostly cloudy	45 7	45 7	0		43 6	93	30.05	5
Tue Feb  2 04:12:56 2010	Las Vegas, Nevada 89101  	mostly cloudy	54 12	54 12	0		28 -2	38	29.92	10
Tue Feb  2 04:12:56 2010	Washington, Washington D. C. 20001  	mostly cloudy	34 1	34 1	0		19 -7	55	30.31	10
Tue Feb  2 04:12:57 2010	Oklahoma City, Oklahoma 73101  	mostly cloudy	32 0	29 -2	3	SW	30 -1	93	30.05	2
Tue Feb  2 04:12:57 2010	San Francisco, California 94101  	mostly cloudy	54 12	52 11	7	NW	45 7	71	29.91	10
Tue Feb  2 04:12:57 2010	Nashville, Tennessee 37201  	mostly cloudy	36 2	36 2	0		30 -1	80	30.15	10
Tue Feb  2 04:12:58 2010	Fort Worth, Texas 76101  	mostly cloudy	43 6	39 4	6	SE	37 3	81	30.04	8
Tue Feb  2 04:12:58 2010	Phoenix, Arizona 85001  	mostly cloudy	63 17	63 17	3	SW	39 4	42	29.9	10
Tue Feb  2 04:12:59 2010	Portland, Oregon 97201  	clear sky	32 0	20 -7	20-23	W	18 -8	55	30.17	10
Tue Feb  2 04:12:59 2010	Chicago, Illinois 60601  	mostly cloudy	28 -2	22 -6	5	E	21 -6	74	30.18	8
Tue Feb  2 04:12:59 2010	San Antonio, Texas 78201  	mostly cloudy	45 7	44 7	3	E	45 7	100	30.05	1
Tue Feb  2 04:13:00 2010	Indianapolis, Indiana 46201  	mostly cloudy	34 1	32 0	3	E	19 -7	55	30.16	10
Tue Feb  2 04:13:01 2010	Columbus, Ohio 43085  	clear sky	27 -3	24 -4	3	E	18 -8	68	30.19	9
Tue Feb  2 04:13:01 2010	Dallas, Texas 75201  	mostly cloudy	45 7	41 5	7	S	39 4	81	30.06	10
Tue Feb  2 04:13:01 2010	Jacksonville, Florida 32099  	mostly cloudy	57 14	56 13	7	NE	54 12	88	30.12	10
Tue Feb  2 04:13:02 2010	Houston, Texas 77001  	mostly cloudy	50 10	48 9	6	NE	46 8	87	30.06	6
Tue Feb  2 04:13:02 2010	Milwaukee, Wisconsin 53201  	mostly cloudy	25 -4	25 -4	0		18 -8	74	30.18	7
Tue Feb  2 04:13:02 2010	Seattle, Washington 98101  	light rain	48 9	48 9	0		43 6	81	29.85	10
Tue Feb  2 04:13:03 2010	Philadelphia, Pennsylvania 19019  	clear sky	30 -1	27 -3	3	SW	14 -10	50	30.28	10
Tue Feb  2 04:13:03 2010	Detroit, Michigan 48201  	mostly cloudy	23 -5	19 -7	3	SW	16 -9	73	30.24	10
Tue Feb  2 04:56:29 2010	San Jose, California 95101  	mostly cloudy	54 12	53 12	5	W	46 8	77	29.91	10
Tue Feb  2 04:56:30 2010	San Diego, California 92101  	mostly cloudy	57 14	56 13	5	NW	52 11	82	29.92	10
Tue Feb  2 04:56:30 2010	Charlotte, North Carolina 28201  	clear sky	34 1	34 1	0		25 -4	69	30.23	10
Tue Feb  2 04:56:31 2010	Denver, Colorado 80214  	clear sky	30 -1	22 -6	8	S	12-Oct	43	29.95	10
Tue Feb  2 04:56:31 2010	Los Angeles, California 90001  	clear sky	59 15	59 15	3	W	52 11	77	29.9	9
Tue Feb  2 04:56:31 2010	Memphis, Tennessee 37501  	mostly cloudy	39 4	39 4	0		32 0	75	30.12	10
Tue Feb  2 04:56:32 2010	New York, New York 10001  	clear sky	30 -1	24 -4	6	N	11-Dec	47	30.24	10
Tue Feb  2 04:56:32 2010	El Paso, Texas 79901  	mostly cloudy	54 12	52 11	6	N	34 1	47	29.96	10
Tue Feb  2 04:56:32 2010	Baltimore, Maryland 21201  	normal	32 0	32 0			16 -9	51	30.29	
Tue Feb  2 04:56:33 2010	Washington, Washington D. C. 20001  	mostly cloudy	32 0	29 -2	3	S	19 -7	59	30.31	10
Tue Feb  2 04:56:33 2010	Las Vegas, Nevada 89101  	mostly cloudy	54 12	53 12	5	N	30 -1	41	29.92	10
Tue Feb  2 04:56:33 2010	Austin, Texas 73301  	mostly cloudy	45 7	45 7	0		43 6	93	30.06	4
Tue Feb  2 04:56:34 2010	Oklahoma City, Oklahoma 73101  	mostly cloudy	32 0	29 -2	3	SW	30 -1	93	30.06	2
Tue Feb  2 04:56:34 2010	San Francisco, California 94101  	mostly cloudy	54 12	52 11	7	NW	45 7	71	29.91	10
Tue Feb  2 04:56:34 2010	Nashville, Tennessee 37201  	mostly cloudy	36 2	36 2	0		30 -1	80	30.14	10
Tue Feb  2 04:56:35 2010	Portland, Oregon 97201  	mostly cloudy	32 0	22 -6	13-26	W	18 -8	55	30.17	10
Tue Feb  2 04:56:35 2010	Fort Worth, Texas 76101  	mostly cloudy	43 6	42 6	3	SE	37 3	81	30.06	8
Tue Feb  2 04:56:35 2010	Phoenix, Arizona 85001  	mostly cloudy	63 17	63 17	0		39 4	42	29.9	10
Tue Feb  2 04:56:36 2010	Chicago, Illinois 60601  	mostly cloudy	30 -1	24 -4	6	SE	19 -7	64	30.18	8
Tue Feb  2 04:56:36 2010	Indianapolis, Indiana 46201  	mostly cloudy	34 1	29 -2	5	E	19 -7	55	30.14	10
Tue Feb  2 04:56:36 2010	San Antonio, Texas 78201  	mostly cloudy	45 7	45 7	0		45 7	100	30.05	1
Tue Feb  2 04:56:37 2010	Jacksonville, Florida 32099  	light rain	55 13	53 12	7	NE	54 12	94	30.09	7
Tue Feb  2 04:56:37 2010	Columbus, Ohio 43085  	clear sky	25 -4	25 -4	0		18 -8	74	30.19	8
Tue Feb  2 04:56:38 2010	Seattle, Washington 98101  	mostly cloudy	46 8	43 6	6	S	43 6	87	29.85	10
Tue Feb  2 04:56:38 2010	Houston, Texas 77001  	mostly cloudy	48 9	45 7	7	NE	46 8	93	30.05	5
Tue Feb  2 04:56:38 2010	Dallas, Texas 75201  	mostly cloudy	45 7	45 7	0		39 4	81	30.07	7
Tue Feb  2 04:56:39 2010	Detroit, Michigan 48201  	mostly cloudy	23 -5	19 -7	3	SW	16 -9	73	30.23	10
Tue Feb  2 04:56:39 2010	Philadelphia, Pennsylvania 19019  	clear sky	28 -2	21 -6	7	W	16 -9	59	30.28	10
Tue Feb  2 04:56:39 2010	Milwaukee, Wisconsin 53201  	light snow	28 -2	28 -2	0		23 -5	80	30.16	2.5
Tue Feb  2 05:39:49 2010	San Jose, California 95101  	mostly cloudy	54 12	53 12	5	W	46 8	77	29.91	10
Tue Feb  2 05:39:49 2010	Charlotte, North Carolina 28201  	clear sky	34 1	34 1	0		25 -4	69	30.23	10
Tue Feb  2 05:39:50 2010	Denver, Colorado 80214  	clear sky	30 -1	22 -6	8	S	12-Oct	43	29.95	10
Tue Feb  2 05:39:50 2010	San Diego, California 92101  	mostly cloudy	57 14	56 13	5	NW	52 11	82	29.92	10
Tue Feb  2 05:39:50 2010	Memphis, Tennessee 37501  	mostly cloudy	39 4	39 4	0		32 0	75	30.12	10
Tue Feb  2 05:39:51 2010	New York, New York 10001  	clear sky	30 -1	24 -4	6	N	11-Dec	47	30.24	10
Tue Feb  2 05:39:51 2010	El Paso, Texas 79901  	mostly cloudy	54 12	52 11	6	N	34 1	47	29.96	10
Tue Feb  2 05:39:51 2010	Los Angeles, California 90001  	clear sky	59 15	59 15	3	W	52 11	77	29.9	9
Tue Feb  2 05:39:52 2010	Washington, Washington D. C. 20001  	mostly cloudy	32 0	29 -2	3	S	19 -7	59	30.31	10
Tue Feb  2 05:39:52 2010	Las Vegas, Nevada 89101  	mostly cloudy	54 12	53 12	5	N	30 -1	41	29.92	10
Tue Feb  2 05:39:52 2010	Baltimore, Maryland 21201  	normal	32 0	32 0			16 -9	51	30.29	
Tue Feb  2 05:39:53 2010	Oklahoma City, Oklahoma 73101  	mostly cloudy	32 0	29 -2	3	SW	30 -1	93	30.06	2
Tue Feb  2 05:39:53 2010	San Francisco, California 94101  	mostly cloudy	54 12	52 11	7	NW	45 7	71	29.91	10
Tue Feb  2 05:39:53 2010	Austin, Texas 73301  	mostly cloudy	45 7	45 7	0		43 6	93	30.06	4
Tue Feb  2 05:39:54 2010	Portland, Oregon 97201  	mostly cloudy	32 0	22 -6	13-26	W	18 -8	55	30.17	10
Tue Feb  2 05:39:54 2010	Fort Worth, Texas 76101  	mostly cloudy	43 6	42 6	3	SE	37 3	81	30.06	8
Tue Feb  2 05:39:54 2010	Nashville, Tennessee 37201  	mostly cloudy	36 2	36 2	0		30 -1	80	30.14	10
Tue Feb  2 05:39:54 2010	Phoenix, Arizona 85001  	mostly cloudy	63 17	63 17	0		39 4	42	29.9	10
Tue Feb  2 05:39:55 2010	Chicago, Illinois 60601  	mostly cloudy	30 -1	24 -4	6	SE	19 -7	64	30.18	8
Tue Feb  2 05:39:55 2010	Indianapolis, Indiana 46201  	mostly cloudy	34 1	29 -2	5	E	19 -7	55	30.14	10
Tue Feb  2 05:39:55 2010	San Antonio, Texas 78201  	mostly cloudy	45 7	45 7	0		45 7	100	30.05	1
Tue Feb  2 05:39:56 2010	Jacksonville, Florida 32099  	light rain	55 13	53 12	7	NE	54 12	94	30.09	7
Tue Feb  2 05:39:56 2010	Columbus, Ohio 43085  	clear sky	25 -4	25 -4	0		18 -8	74	30.19	8
Tue Feb  2 05:39:57 2010	Seattle, Washington 98101  	mostly cloudy	46 8	43 6	6	S	43 6	87	29.85	10
Tue Feb  2 05:39:57 2010	Houston, Texas 77001  	mostly cloudy	48 9	45 7	7	NE	46 8	93	30.05	5
Tue Feb  2 05:39:57 2010	Dallas, Texas 75201  	mostly cloudy	45 7	45 7	0		39 4	81	30.07	7
Tue Feb  2 05:39:58 2010	Detroit, Michigan 48201  	mostly cloudy	23 -5	19 -7	3	SW	16 -9	73	30.23	10
Tue Feb  2 05:39:58 2010	Philadelphia, Pennsylvania 19019  	clear sky	28 -2	21 -6	7	W	16 -9	59	30.28	10
Tue Feb  2 05:39:58 2010	Milwaukee, Wisconsin 53201  	light snow	28 -2	28 -2	0		23 -5	80	30.16	2.5
Tue Feb  2 06:26:33 2010	San Jose, California 95101  	clear sky	52 11	51 11	5	W	46 8	82	29.91	10
Tue Feb  2 06:26:34 2010	Denver, Colorado 80214  	clear sky	28 -2	21 -6	7	S	12-Oct	46	29.96	10
Tue Feb  2 06:26:34 2010	Charlotte, North Carolina 28201  	clear sky	32 0	32 0	0		23 -5	69	30.21	10
Tue Feb  2 06:26:34 2010	San Diego, California 92101  	mostly cloudy	57 14	57 14	0		52 11	82	29.92	8
Tue Feb  2 06:26:35 2010	El Paso, Texas 79901  	mostly cloudy	54 12	54 12	3	NW	34 1	47	29.96	10
Tue Feb  2 06:26:35 2010	Memphis, Tennessee 37501  	mostly cloudy	41 5	38 3	5	SE	34 1	75	30.11	10
Tue Feb  2 06:26:35 2010	Los Angeles, California 90001  	clear sky	57 14	57 14	0		52 11	82	29.89	7
Tue Feb  2 06:26:36 2010	New York, New York 10001  	clear sky	30 -1	24 -4	6	N	11-Dec	47	30.25	10
Tue Feb  2 06:26:36 2010	Baltimore, Maryland 21201  	normal	30 -1	30 -1			18 -8	59	30.29	
Tue Feb  2 06:26:37 2010	Las Vegas, Nevada 89101  	mostly cloudy	54 12	54 12	3	N	30 -1	41	29.92	10
Tue Feb  2 06:26:37 2010	Austin, Texas 73301  	mostly cloudy	45 7	45 7	0		43 6	93	30.05	2
Tue Feb  2 06:26:37 2010	Washington, Washington D. C. 20001  	mostly cloudy	30 -1	30 -1	0		21 -6	69	30.3	10
Tue Feb  2 06:26:38 2010	Nashville, Tennessee 37201  	mostly cloudy	36 2	36 2	0		30 -1	80	30.15	9
Tue Feb  2 06:26:38 2010	Oklahoma City, Oklahoma 73101  	mostly cloudy	32 0	32 0	0		30 -1	93	30.06	2
Tue Feb  2 06:26:38 2010	San Francisco, California 94101  	mostly cloudy	54 12	54 12	0		43 6	67	29.92	10
Tue Feb  2 06:26:39 2010	Portland, Oregon 97201  	mostly cloudy	30 -1	19 -7	14	W	11-Dec	47	30.18	10
Tue Feb  2 06:26:39 2010	Fort Worth, Texas 76101  	mostly cloudy	41 5	37 3	6	N	36 2	81	30.09	8
Tue Feb  2 06:26:39 2010	Phoenix, Arizona 85001  	mostly cloudy	63 17	63 17	6	N	36 2	36	29.89	10
Tue Feb  2 06:26:40 2010	Chicago, Illinois 60601  	mostly cloudy	30 -1	22 -6	8	SE	19 -7	64	30.15	9
Tue Feb  2 06:26:40 2010	Indianapolis, Indiana 46201  	mostly cloudy	34 1	29 -2	6	E	19 -7	55	30.11	10
Tue Feb  2 06:26:40 2010	San Antonio, Texas 78201  	mostly cloudy	45 7	44 7	3	N	45 7	100	30.06	1
Tue Feb  2 06:26:41 2010	Columbus, Ohio 43085  	clear sky	25 -4	21 -6	3	E	18 -8	74	30.18	8
Tue Feb  2 06:26:41 2010	Jacksonville, Florida 32099  	moderate rain	55 13	54 12	5	NE	55 13	100	30.07	2.5
Tue Feb  2 06:26:42 2010	Houston, Texas 77001  	mostly cloudy	48 9	46 8	5	E	46 8	93	30.05	5
Tue Feb  2 06:26:42 2010	Dallas, Texas 75201  	mostly cloudy	45 7	45 7	0		39 4	81	30.08	5
Tue Feb  2 06:26:42 2010	Seattle, Washington 98101  	mostly cloudy	46 8	46 8	0		43 6	87	29.84	10
Tue Feb  2 06:26:43 2010	Philadelphia, Pennsylvania 19019  	clear sky	27 -3	19 -7	7	W	16 -9	63	30.29	10
Tue Feb  2 06:26:43 2010	Milwaukee, Wisconsin 53201  	light snow	27 -3	21 -6	5	S	23 -5	86	30.15	1.7
Tue Feb  2 06:26:43 2010	Detroit, Michigan 48201  	mostly cloudy	23 -5	23 -5	0		16 -9	73	30.22	10
Tue Feb  2 07:10:30 2010	San Jose, California 95101  	clear sky	54 12	54 12	3	SW	46 8	77	29.91	10
Tue Feb  2 07:10:30 2010	Charlotte, North Carolina 28201  	clear sky	36 2	36 2	0		21 -6	55	30.2	10
Tue Feb  2 07:10:31 2010	Denver, Colorado 80214  	clear sky	27 -3	20 -7	6	S	12-Oct	50	29.97	10
Tue Feb  2 07:10:31 2010	Memphis, Tennessee 37501  	mostly cloudy	41 5	37 3	6	S	34 1	75	30.11	10
Tue Feb  2 07:10:31 2010	San Diego, California 92101  	clear sky	57 14	57 14	0		52 11	82	29.91	6
Tue Feb  2 07:10:32 2010	El Paso, Texas 79901  	mostly cloudy	46 8	44 7	5	NE	36 2	66	29.96	10
Tue Feb  2 07:10:32 2010	Los Angeles, California 90001  	clear sky	57 14	57 14	0		52 11	82	29.89	5
Tue Feb  2 07:10:33 2010	New York, New York 10001  	clear sky	30 -1	23 -5	7	N	11-Dec	47	30.26	10
Tue Feb  2 07:10:33 2010	Baltimore, Maryland 21201  	normal	30 -1	30 -1			18 -8	59	30.28	
Tue Feb  2 07:10:33 2010	Las Vegas, Nevada 89101  	mostly cloudy	52 11	52 11	0		32 0	47	29.92	10
Tue Feb  2 07:10:34 2010	Austin, Texas 73301  	light rain	45 7	45 7	0		45 7	100	30.07	1.5
Tue Feb  2 07:10:34 2010	San Francisco, California 94101  	mostly cloudy	54 12	54 12	0		50 10	88	29.92	10
Tue Feb  2 07:10:34 2010	Washington, Washington D. C. 20001  	mostly cloudy	30 -1	30 -1	0		21 -6	69	30.29	10
Tue Feb  2 07:10:35 2010	Fort Worth, Texas 76101  	mostly cloudy	39 4	35 2	5	N	36 2	87	30.09	7
Tue Feb  2 07:10:35 2010	Nashville, Tennessee 37201  	light rain	36 2	36 2	0		30 -1	80	30.14	6
Tue Feb  2 07:10:35 2010	Oklahoma City, Oklahoma 73101  	mostly cloudy	32 0	32 0	0		30 -1	93	30.08	2
Tue Feb  2 07:10:36 2010	Portland, Oregon 97201  	mostly cloudy	30 -1	20 -7	12	NW	16 -9	55	30.19	10
Tue Feb  2 07:10:36 2010	Chicago, Illinois 60601  	mostly cloudy	30 -1	24 -4	6	SE	19 -7	64	30.13	9
Tue Feb  2 07:10:36 2010	Phoenix, Arizona 85001  	mostly cloudy	57 14	57 14	0		43 6	59	29.89	10
Tue Feb  2 07:10:37 2010	Indianapolis, Indiana 46201  	mostly cloudy	34 1	29 -2	6	E	19 -7	55	30.11	10
Tue Feb  2 07:10:37 2010	San Antonio, Texas 78201  	mostly cloudy	46 8	46 8	0		45 7	93	30.05	0.2
Tue Feb  2 07:10:38 2010	Columbus, Ohio 43085  	mostly cloudy	27 -3	24 -4	3	E	18 -8	68	30.17	9
Tue Feb  2 07:10:38 2010	Jacksonville, Florida 32099  	moderate rain	55 13	54 12	6	N	55 13	100	30.05	3
Tue Feb  2 07:10:38 2010	Dallas, Texas 75201  	mostly cloudy	45 7	45 7	0		39 4	81	30.09	6
Tue Feb  2 07:10:39 2010	Milwaukee, Wisconsin 53201  	light snow	27 -3	24 -4	3	S	23 -5	86	30.15	1.2
Tue Feb  2 07:10:39 2010	Houston, Texas 77001  	mostly cloudy	48 9	46 8	5	E	46 8	93	30.06	5
Tue Feb  2 07:10:39 2010	Seattle, Washington 98101  	mostly cloudy	46 8	46 8	0		43 6	87	29.85	10
Tue Feb  2 07:10:40 2010	Philadelphia, Pennsylvania 19019  	clear sky	27 -3	21 -6	5	W	16 -9	63	30.29	10
Tue Feb  2 07:10:40 2010	Detroit, Michigan 48201  	mostly cloudy	21 -6	21 -6	0		16 -9	79	30.21	10
Tue Feb  2 07:53:18 2010	Charlotte, North Carolina 28201  	mostly cloudy	36 2	36 2	0		25 -4	64	30.19	10
Tue Feb  2 07:53:18 2010	San Jose, California 95101  	clear sky	52 11	52 11	0		45 7	76	29.91	10
Tue Feb  2 07:53:19 2010	Denver, Colorado 80214  	clear sky	27 -3	18 -8	10	SE	12-Oct	50	29.98	10
Tue Feb  2 07:53:19 2010	Memphis, Tennessee 37501  	mostly cloudy	41 5	37 3	6	SE	34 1	75	30.09	10
Tue Feb  2 07:53:19 2010	San Diego, California 92101  	clear sky	57 14	57 14	0		50 10	77	29.91	8
Tue Feb  2 07:53:20 2010	New York, New York 10001  	clear sky	30 -1	27 -3	3	N	11-Dec	47	30.26	10
Tue Feb  2 07:53:20 2010	El Paso, Texas 79901  	mostly cloudy	46 8	46 8	0		36 2	66	29.98	10
Tue Feb  2 07:53:20 2010	Los Angeles, California 90001  	mostly cloudy	57 14	57 14	0		52 11	82	29.88	4
Tue Feb  2 07:53:21 2010	Las Vegas, Nevada 89101  	mostly cloudy	50 10	48 9	5	W	34 1	54	29.92	10
Tue Feb  2 07:53:21 2010	Baltimore, Maryland 21201  	normal	30 -1	30 -1			19 -7	64	30.27	
Tue Feb  2 07:53:22 2010	Washington, Washington D. C. 20001  	mostly cloudy	28 -2	22 -6	5	NE	19 -7	69	30.27	10
Tue Feb  2 07:53:22 2010	Austin, Texas 73301  	mostly cloudy	45 7	42 6	6	N	45 7	100	30.07	1.2
Tue Feb  2 07:53:22 2010	San Francisco, California 94101  	mostly cloudy	52 11	52 11	0		45 7	76	29.92	10
Tue Feb  2 07:53:23 2010	Oklahoma City, Oklahoma 73101  	mostly cloudy	32 0	27 -3	5	SW	30 -1	93	30.1	2
Tue Feb  2 07:53:23 2010	Fort Worth, Texas 76101  	mostly cloudy	39 4	35 2	6	NE	36 2	87	30.09	7
Tue Feb  2 07:53:23 2010	Nashville, Tennessee 37201  	light rain	34 1	34 1	0		34 1	100	30.13	4
Tue Feb  2 07:53:24 2010	Portland, Oregon 97201  	mostly cloudy	30 -1	21 -6	10	NW	14 -10	50	30.2	10
Tue Feb  2 07:53:24 2010	Chicago, Illinois 60601  	light snow	28 -2	21 -6	6	S	21 -6	74	30.12	3
Tue Feb  2 07:53:24 2010	Phoenix, Arizona 85001  	mostly cloudy	57 14	57 14	0		39 4	51	29.9	10
Tue Feb  2 07:53:25 2010	Indianapolis, Indiana 46201  	mostly cloudy	32 0	26 -3	6	SE	21 -6	64	30.11	10
Tue Feb  2 07:53:25 2010	San Antonio, Texas 78201  	mostly cloudy	46 8	46 8	0		45 7	93	30.06	0.2
Tue Feb  2 07:53:26 2010	Columbus, Ohio 43085  	mostly cloudy	27 -3	24 -4	3	SE	19 -7	74	30.16	9
Tue Feb  2 07:53:26 2010	Dallas, Texas 75201  	mostly cloudy	43 6	39 4	6	N	37 3	81	30.1	6
Tue Feb  2 07:53:26 2010	Jacksonville, Florida 32099  	light rain	57 14	56 13	7	NE	57 14	100	30.01	4
Tue Feb  2 07:53:27 2010	Houston, Texas 77001  	mostly cloudy	48 9	46 8	5	E	46 8	93	30.07	5
Tue Feb  2 07:53:27 2010	Milwaukee, Wisconsin 53201  	light snow	27 -3	27 -3	0		25 -4	93	30.13	1.5
Tue Feb  2 07:53:27 2010	Seattle, Washington 98101  	light rain	46 8	46 8	0		43 6	87	29.85	10
Tue Feb  2 07:53:28 2010	Detroit, Michigan 48201  	clear sky	19 -7	19 -7	0		16 -9	86	30.21	10
Tue Feb  2 07:53:28 2010	Philadelphia, Pennsylvania 19019  	clear sky	27 -3	27 -3	0		16 -9	63	30.28	10
Tue Feb  2 08:36:43 2010	San Jose, California 95101  	clear sky	52 11	52 11	0		45 7	76	29.91	10
Tue Feb  2 08:36:44 2010	Denver, Colorado 80214  	clear sky	27 -3	18 -8	10	SE	12-Oct	50	29.98	10
Tue Feb  2 08:36:44 2010	Charlotte, North Carolina 28201  	mostly cloudy	36 2	36 2	0		25 -4	64	30.19	10
Tue Feb  2 08:36:44 2010	San Diego, California 92101  	clear sky	57 14	57 14	0		50 10	77	29.91	8
Tue Feb  2 08:36:45 2010	Memphis, Tennessee 37501  	mostly cloudy	41 5	37 3	6	SE	34 1	75	30.09	10
Tue Feb  2 08:36:45 2010	El Paso, Texas 79901  	mostly cloudy	46 8	46 8	0		36 2	66	29.98	10
Tue Feb  2 08:36:45 2010	Los Angeles, California 90001  	mostly cloudy	57 14	57 14	0		52 11	82	29.88	4
Tue Feb  2 08:36:46 2010	New York, New York 10001  	clear sky	30 -1	27 -3	3	N	11-Dec	47	30.26	10
Tue Feb  2 08:36:46 2010	Washington, Washington D. C. 20001  	mostly cloudy	28 -2	22 -6	5	NE	19 -7	69	30.27	10
Tue Feb  2 08:36:46 2010	Las Vegas, Nevada 89101  	mostly cloudy	50 10	48 9	5	W	34 1	54	29.92	10
Tue Feb  2 08:36:46 2010	Baltimore, Maryland 21201  	normal	30 -1	30 -1			19 -7	64	30.27	
Tue Feb  2 08:36:47 2010	Oklahoma City, Oklahoma 73101  	mostly cloudy	32 0	27 -3	5	SW	30 -1	93	30.1	2
Tue Feb  2 08:36:47 2010	Austin, Texas 73301  	mostly cloudy	45 7	42 6	6	N	45 7	100	30.07	1.2
Tue Feb  2 08:36:47 2010	San Francisco, California 94101  	mostly cloudy	52 11	52 11	0		45 7	76	29.92	10
Tue Feb  2 08:36:48 2010	Fort Worth, Texas 76101  	mostly cloudy	39 4	35 2	6	NE	36 2	87	30.09	7
Tue Feb  2 08:36:48 2010	Nashville, Tennessee 37201  	light rain	34 1	34 1	0		34 1	100	30.13	4
Tue Feb  2 08:36:48 2010	Phoenix, Arizona 85001  	mostly cloudy	57 14	57 14	0		39 4	51	29.9	10
Tue Feb  2 08:36:49 2010	Portland, Oregon 97201  	mostly cloudy	30 -1	21 -6	10	NW	14 -10	50	30.2	10
Tue Feb  2 08:36:49 2010	Chicago, Illinois 60601  	light snow	28 -2	21 -6	6	S	21 -6	74	30.12	3
Tue Feb  2 08:36:49 2010	San Antonio, Texas 78201  	mostly cloudy	46 8	46 8	0		45 7	93	30.06	0.2
Tue Feb  2 08:36:50 2010	Indianapolis, Indiana 46201  	mostly cloudy	32 0	26 -3	6	SE	21 -6	64	30.11	10
Tue Feb  2 08:36:50 2010	Jacksonville, Florida 32099  	light rain	57 14	56 13	7	NE	57 14	100	30.01	4
Tue Feb  2 08:36:51 2010	Columbus, Ohio 43085  	mostly cloudy	27 -3	24 -4	3	SE	19 -7	74	30.16	9
Tue Feb  2 08:36:51 2010	Dallas, Texas 75201  	mostly cloudy	43 6	39 4	6	N	37 3	81	30.1	6
Tue Feb  2 08:36:51 2010	Houston, Texas 77001  	mostly cloudy	48 9	46 8	5	E	46 8	93	30.07	5
Tue Feb  2 08:36:52 2010	Detroit, Michigan 48201  	clear sky	19 -7	19 -7	0		16 -9	86	30.21	10
Tue Feb  2 08:36:52 2010	Milwaukee, Wisconsin 53201  	light snow	27 -3	27 -3	0		25 -4	93	30.13	1.5
Tue Feb  2 08:36:52 2010	Seattle, Washington 98101  	light rain	46 8	46 8	0		43 6	87	29.85	10
Tue Feb  2 08:36:53 2010	Philadelphia, Pennsylvania 19019  	clear sky	27 -3	27 -3	0		16 -9	63	30.28	10
Tue Feb  2 09:19:58 2010	San Jose, California 95101  	mostly cloudy	52 11	52 11	0		45 7	76	29.91	10
Tue Feb  2 09:19:59 2010	Charlotte, North Carolina 28201  	mostly cloudy	37 3	32 0	7	NE	25 -4	60	30.19	10
Tue Feb  2 09:19:59 2010	San Diego, California 92101  	clear sky	55 13	55 13	0		50 10	82	29.91	5
Tue Feb  2 09:20:00 2010	Denver, Colorado 80214  	clear sky	28 -2	18 -8	12	S	11-Dec	50	29.98	10
Tue Feb  2 09:20:00 2010	Los Angeles, California 90001  	clear sky	57 14	57 14	0		52 11	82	29.89	4
Tue Feb  2 09:20:00 2010	Memphis, Tennessee 37501  	mostly cloudy	41 5	41 5	0		36 2	81	30.1	10
Tue Feb  2 09:20:01 2010	New York, New York 10001  	clear sky	30 -1	27 -3	3	W	11-Dec	47	30.27	10
Tue Feb  2 09:20:01 2010	El Paso, Texas 79901  	mostly cloudy	45 7	42 6	5	E	34 1	66	29.98	10
Tue Feb  2 09:20:01 2010	Baltimore, Maryland 21201  	normal	28 -2	28 -2			19 -7	69	30.26	
Tue Feb  2 09:20:02 2010	Washington, Washington D. C. 20001  	mostly cloudy	28 -2	22 -6	5	NE	19 -7	69	30.26	10
Tue Feb  2 09:20:02 2010	Austin, Texas 73301  	mostly cloudy	45 7	42 6	6	N	45 7	100	30.08	1
Tue Feb  2 09:20:02 2010	Las Vegas, Nevada 89101  	mostly cloudy	48 9	48 9	0		34 1	57	29.92	10
Tue Feb  2 09:20:03 2010	Oklahoma City, Oklahoma 73101  	mostly cloudy	32 0	29 -2	3	W	30 -1	93	30.1	2
Tue Feb  2 09:20:03 2010	San Francisco, California 94101  	mostly cloudy	54 12	54 12	3	E	48 9	82	29.91	10
Tue Feb  2 09:20:03 2010	Nashville, Tennessee 37201  	light rain	36 2	36 2	0		34 1	93	30.12	3
Tue Feb  2 09:20:04 2010	Portland, Oregon 97201  	mostly cloudy	28 -2	19 -7	10	NW	12-Oct	46	30.21	10
Tue Feb  2 09:20:04 2010	Fort Worth, Texas 76101  	mostly cloudy	39 4	34 1	7	NE	36 2	87	30.11	8
Tue Feb  2 09:20:04 2010	Phoenix, Arizona 85001  	mostly cloudy	55 13	55 13	0		43 6	62	29.9	10
Tue Feb  2 09:20:05 2010	Chicago, Illinois 60601  	light snow	27 -3	21 -6	5	SE	25 -4	93	30.12	0.7
Tue Feb  2 09:20:05 2010	San Antonio, Texas 78201  	mostly cloudy	46 8	46 8	0		45 7	93	30.06	0.2
Tue Feb  2 09:20:06 2010	Indianapolis, Indiana 46201  	mostly cloudy	34 1	28 -2	7	S	21 -6	59	30.1	10
Tue Feb  2 09:20:06 2010	Jacksonville, Florida 32099  	light rain	61 16	60 16	7	E	61 16	100	30	5
Tue Feb  2 09:20:07 2010	Columbus, Ohio 43085  	mostly cloudy	28 -2	22 -6	5	SE	19 -7	69	30.15	10
Tue Feb  2 09:20:07 2010	Dallas, Texas 75201  	mostly cloudy	43 6	38 3	8	N	37 3	81	30.12	5
Tue Feb  2 09:20:07 2010	Houston, Texas 77001  	mostly cloudy	48 9	45 7	7	E	46 8	93	30.07	5
Tue Feb  2 09:20:08 2010	Seattle, Washington 98101  	light rain	46 8	44 7	5	SE	43 6	87	29.87	7
Tue Feb  2 09:20:08 2010	Detroit, Michigan 48201  	clear sky	19 -7	19 -7	0		16 -9	86	30.21	9
Tue Feb  2 09:20:08 2010	Milwaukee, Wisconsin 53201  	light snow	27 -3	27 -3	0		25 -4	93	30.13	1.5
Tue Feb  2 09:20:09 2010	Philadelphia, Pennsylvania 19019  	clear sky	27 -3	21 -6	5	NW	16 -9	63	30.29	10
Tue Feb  2 10:03:40 2010	Charlotte, North Carolina 28201  	light rain	36 2	30 -1	7	NE	25 -4	64	30.18	10
Tue Feb  2 10:03:40 2010	San Jose, California 95101  	mostly cloudy	50 10	50 10	3	SE	45 7	82	29.91	10
Tue Feb  2 10:03:41 2010	Denver, Colorado 80214  	clear sky	25 -4	16 -9	8	S	12-Oct	54	29.99	10
Tue Feb  2 10:03:41 2010	San Diego, California 92101  	mostly cloudy	55 13	55 13	0		50 10	82	29.91	5
Tue Feb  2 10:03:42 2010	El Paso, Texas 79901  	mostly cloudy	45 7	44 7	3	NE	34 1	66	29.97	10
Tue Feb  2 10:03:42 2010	Los Angeles, California 90001  	mostly cloudy	55 13	55 13	0		52 11	88	29.89	3
Tue Feb  2 10:03:42 2010	Memphis, Tennessee 37501  	mostly cloudy	39 4	39 4	0		34 1	81	30.11	10
Tue Feb  2 10:03:43 2010	New York, New York 10001  	clear sky	30 -1	24 -4	6	W	11-Dec	47	30.28	10
Tue Feb  2 10:03:43 2010	Baltimore, Maryland 21201  	normal	28 -2	28 -2			21 -6	74	30.25	
Tue Feb  2 10:03:44 2010	Washington, Washington D. C. 20001  	mostly cloudy	28 -2	22 -6	5	E	18 -8	63	30.26	10
Tue Feb  2 10:03:44 2010	Las Vegas, Nevada 89101  	mostly cloudy	48 9	47 8	3	SW	36 2	62	29.91	10
Tue Feb  2 10:03:44 2010	Austin, Texas 73301  	mostly cloudy	45 7	42 6	5	NE	45 7	100	30.08	1
Tue Feb  2 10:03:45 2010	Oklahoma City, Oklahoma 73101  	mostly cloudy	32 0	26 -3	6	W	30 -1	93	30.11	2
Tue Feb  2 10:03:45 2010	Nashville, Tennessee 37201  	light rain	36 2	34 1	3	S	34 1	93	30.11	3
Tue Feb  2 10:03:45 2010	San Francisco, California 94101  	mostly cloudy	52 11	48 9	12	NE	48 9	87	29.91	10
Tue Feb  2 10:03:46 2010	Portland, Oregon 97201  	clear sky	27 -3	18 -8	9	NW	12-Oct	50	30.22	10
Tue Feb  2 10:03:46 2010	Fort Worth, Texas 76101  	mostly cloudy	39 4	33 1	8	N	36 2	87	30.11	8
Tue Feb  2 10:03:46 2010	Phoenix, Arizona 85001  	mostly cloudy	55 13	55 13	3	E	43 6	62	29.89	10
Tue Feb  2 10:03:47 2010	Chicago, Illinois 60601  	light snow	27 -3	21 -6	5	SE	25 -4	93	30.11	1.5
Tue Feb  2 10:03:47 2010	San Antonio, Texas 78201  	mostly cloudy	46 8	45 7	3	N	46 8	100	30.07	0.2
Tue Feb  2 10:03:48 2010	Indianapolis, Indiana 46201  	light snow	34 1	29 -2	6	SE	21 -6	59	30.09	10
Tue Feb  2 10:03:48 2010	Jacksonville, Florida 32099  	light rain	61 16	60 16	7	NE	61 16	100	29.96	6
Tue Feb  2 10:03:49 2010	Columbus, Ohio 43085  	mostly cloudy	28 -2	25 -4	3	E	21 -6	74	30.15	9
Tue Feb  2 10:03:49 2010	Dallas, Texas 75201  	mostly cloudy	41 5	37 3	6	N	36 2	81	30.12	5
Tue Feb  2 10:03:49 2010	Houston, Texas 77001  	mostly cloudy	48 9	45 7	6	E	45 7	87	30.07	5
Tue Feb  2 10:03:50 2010	Milwaukee, Wisconsin 53201  	light snow	27 -3	24 -4	3	E	25 -4	93	30.1	1.5
Tue Feb  2 10:03:50 2010	Seattle, Washington 98101  	light rain	46 8	43 6	6	SE	43 6	87	29.86	7
Tue Feb  2 10:03:51 2010	Detroit, Michigan 48201  	mostly cloudy	19 -7	15 -9	3	NE	16 -9	86	30.2	9
Tue Feb  2 10:03:51 2010	Philadelphia, Pennsylvania 19019  	clear sky	25 -4	21 -6	3	N	16 -9	68	30.28	10
Tue Feb  2 10:47:08 2010	San Jose, California 95101  	mostly cloudy	50 10	50 10	0		45 7	82	29.9	10
Tue Feb  2 10:47:09 2010	Charlotte, North Carolina 28201  	light rain	36 2	30 -1	7	NE	27 -3	69	30.15	9
Tue Feb  2 10:47:09 2010	San Diego, California 92101  	mostly cloudy	55 13	55 13	0		50 10	82	29.91	5
Tue Feb  2 10:47:10 2010	Denver, Colorado 80214  	clear sky	25 -4	16 -9	8	SE	12-Oct	54	29.99	10
Tue Feb  2 10:47:10 2010	Memphis, Tennessee 37501  	mostly cloudy	39 4	39 4	0		34 1	81	30.1	10
Tue Feb  2 10:47:11 2010	El Paso, Texas 79901  	mostly cloudy	45 7	45 7	0		34 1	66	29.98	10
Tue Feb  2 10:47:11 2010	Los Angeles, California 90001  	clear sky	54 12	54 12	0		50 10	88	29.88	2.5
Tue Feb  2 10:47:12 2010	New York, New York 10001  	clear sky	28 -2	25 -4	3	W	12-Oct	46	30.27	10
Tue Feb  2 10:47:12 2010	Baltimore, Maryland 21201  	normal	28 -2	28 -2			19 -7	69	30.26	
Tue Feb  2 10:47:13 2010	Washington, Washington D. C. 20001  	mostly cloudy	27 -3	24 -4	3	NE	19 -7	74	30.27	10
Tue Feb  2 10:47:13 2010	Las Vegas, Nevada 89101  	mostly cloudy	46 8	45 7	3	S	36 2	66	29.91	10
Tue Feb  2 10:47:14 2010	Oklahoma City, Oklahoma 73101  	mostly cloudy	34 1	29 -2	5	NW	30 -1	86	30.12	2
Tue Feb  2 10:47:14 2010	Austin, Texas 73301  	light rain	45 7	41 5	8	N	45 7	100	30.09	1
Tue Feb  2 10:47:14 2010	San Francisco, California 94101  	mostly cloudy	52 11	49 9	8	E	48 9	87	29.9	10
Tue Feb  2 10:47:15 2010	Fort Worth, Texas 76101  	mostly cloudy	39 4	35 2	5	N	36 2	87	30.12	9
Tue Feb  2 10:47:15 2010	Nashville, Tennessee 37201  	mostly cloudy	36 2	36 2	0		34 1	93	30.11	1.7
Tue Feb  2 10:47:16 2010	Portland, Oregon 97201  	clear sky	28 -2	17 -8	14	NW	12-Oct	46	30.23	10
Tue Feb  2 10:47:16 2010	Phoenix, Arizona 85001  	mostly cloudy	54 12	54 12	0		43 6	67	29.89	10
Tue Feb  2 10:47:17 2010	Chicago, Illinois 60601  	light snow	27 -3	21 -6	5	SE	25 -4	93	30.11	1.2
Tue Feb  2 10:47:17 2010	San Antonio, Texas 78201  	mostly cloudy	46 8	44 7	5	N	46 8	100	30.06	0.2
Tue Feb  2 10:47:18 2010	Indianapolis, Indiana 46201  	light snow	32 0	26 -3	6	E	23 -5	69	30.07	9
Tue Feb  2 10:47:19 2010	Dallas, Texas 75201  	mostly cloudy	43 6	42 6	3	N	37 3	81	30.13	5
Tue Feb  2 10:47:19 2010	Columbus, Ohio 43085  	mostly cloudy	28 -2	28 -2	0		21 -6	74	30.14	9
Tue Feb  2 10:47:19 2010	Jacksonville, Florida 32099  	light rain	61 16	61 16	0		61 16	100	29.95	4
Tue Feb  2 10:47:20 2010	Seattle, Washington 98101  	light rain	45 7	42 6	5	SE	43 6	93	29.87	6
Tue Feb  2 10:47:20 2010	Houston, Texas 77001  	mostly cloudy	48 9	44 7	9	E	45 7	87	30.07	7
Tue Feb  2 10:47:21 2010	Detroit, Michigan 48201  	mostly cloudy	21 -6	17 -8	3	E	16 -9	79	30.18	9
Tue Feb  2 10:47:21 2010	Milwaukee, Wisconsin 53201  	light snow	27 -3	27 -3	0		25 -4	93	30.09	2
Tue Feb  2 10:47:22 2010	Philadelphia, Pennsylvania 19019  	clear sky	25 -4	19 -7	5	NW	16 -9	68	30.27	10
Tue Feb  2 11:31:17 2010	Charlotte, North Carolina 28201  	light rain	36 2	30 -1	7	NE	27 -3	69	30.15	9
Tue Feb  2 11:31:17 2010	San Diego, California 92101  	mostly cloudy	55 13	55 13	0		50 10	82	29.91	5
Tue Feb  2 11:31:17 2010	San Jose, California 95101  	mostly cloudy	50 10	50 10	0		45 7	82	29.9	10
Tue Feb  2 11:31:18 2010	Denver, Colorado 80214  	clear sky	25 -4	16 -9	8	SE	12-Oct	54	29.99	10
Tue Feb  2 11:31:18 2010	Los Angeles, California 90001  	clear sky	54 12	54 12	0		50 10	88	29.88	2.5
Tue Feb  2 11:31:18 2010	Memphis, Tennessee 37501  	mostly cloudy	39 4	39 4	0		34 1	81	30.1	10
Tue Feb  2 11:31:19 2010	New York, New York 10001  	clear sky	28 -2	25 -4	3	W	12-Oct	46	30.27	10
Tue Feb  2 11:31:19 2010	El Paso, Texas 79901  	mostly cloudy	45 7	45 7	0		34 1	66	29.98	10
Tue Feb  2 11:31:20 2010	Washington, Washington D. C. 20001  	mostly cloudy	27 -3	24 -4	3	NE	19 -7	74	30.27	10
Tue Feb  2 11:31:20 2010	Las Vegas, Nevada 89101  	mostly cloudy	46 8	45 7	3	S	36 2	66	29.91	10
Tue Feb  2 11:31:20 2010	Baltimore, Maryland 21201  	normal	28 -2	28 -2			19 -7	69	30.26	
Tue Feb  2 11:31:21 2010	Oklahoma City, Oklahoma 73101  	mostly cloudy	34 1	29 -2	5	NW	30 -1	86	30.12	2
Tue Feb  2 11:31:21 2010	Austin, Texas 73301  	light rain	45 7	41 5	8	N	45 7	100	30.09	1
Tue Feb  2 11:31:21 2010	San Francisco, California 94101  	mostly cloudy	52 11	49 9	8	E	48 9	87	29.9	10
Tue Feb  2 11:31:22 2010	Fort Worth, Texas 76101  	mostly cloudy	39 4	35 2	5	N	36 2	87	30.12	9
Tue Feb  2 11:31:22 2010	Nashville, Tennessee 37201  	mostly cloudy	36 2	36 2	0		34 1	93	30.11	1.7
Tue Feb  2 11:31:23 2010	Portland, Oregon 97201  	clear sky	28 -2	17 -8	14	NW	12-Oct	46	30.23	10
Tue Feb  2 11:31:23 2010	Chicago, Illinois 60601  	light snow	27 -3	21 -6	5	SE	25 -4	93	30.11	1.2
Tue Feb  2 11:31:23 2010	Phoenix, Arizona 85001  	mostly cloudy	54 12	54 12	0		43 6	67	29.89	10
Tue Feb  2 11:31:24 2010	Indianapolis, Indiana 46201  	light snow	32 0	26 -3	6	E	23 -5	69	30.07	9
Tue Feb  2 11:31:24 2010	San Antonio, Texas 78201  	mostly cloudy	46 8	44 7	5	N	46 8	100	30.06	0.2
Tue Feb  2 11:31:25 2010	Dallas, Texas 75201  	mostly cloudy	43 6	42 6	3	N	37 3	81	30.13	5
Tue Feb  2 11:31:25 2010	Columbus, Ohio 43085  	mostly cloudy	28 -2	28 -2	0		21 -6	74	30.14	9
Tue Feb  2 11:31:25 2010	Jacksonville, Florida 32099  	light rain	61 16	61 16	0		61 16	100	29.95	4
Tue Feb  2 11:31:26 2010	Seattle, Washington 98101  	light rain	45 7	42 6	5	SE	43 6	93	29.87	6
Tue Feb  2 11:31:26 2010	Houston, Texas 77001  	mostly cloudy	48 9	44 7	9	E	45 7	87	30.07	7
Tue Feb  2 11:31:26 2010	Milwaukee, Wisconsin 53201  	light snow	27 -3	27 -3	0		25 -4	93	30.09	2
Tue Feb  2 11:31:27 2010	Detroit, Michigan 48201  	mostly cloudy	21 -6	17 -8	3	E	16 -9	79	30.18	9
Tue Feb  2 11:31:27 2010	Philadelphia, Pennsylvania 19019  	clear sky	25 -4	19 -7	5	NW	16 -9	68	30.27	10
Tue Feb  2 12:15:15 2010	San Jose, California 95101  	mostly cloudy	50 10	50 10	0		45 7	82	29.89	10
Tue Feb  2 12:15:16 2010	Charlotte, North Carolina 28201  	mostly cloudy	36 2	31 -1	6	E	27 -3	69	30.12	10
Tue Feb  2 12:15:16 2010	Denver, Colorado 80214  	clear sky	21 -6	12-Nov	9	SE	13-Sep	58	29.98	10
Tue Feb  2 12:15:16 2010	San Diego, California 92101  	mostly cloudy	55 13	55 13	0		50 10	82	29.91	5
Tue Feb  2 12:15:17 2010	El Paso, Texas 79901  	mostly cloudy	43 6	38 3	8	N	34 1	70	29.99	10
Tue Feb  2 12:15:17 2010	Los Angeles, California 90001  	mostly cloudy	54 12	54 12	0		50 10	88	29.88	2.5
Tue Feb  2 12:15:17 2010	Memphis, Tennessee 37501  	mostly cloudy	37 3	37 3	0		34 1	87	30.09	10
Tue Feb  2 12:15:18 2010	New York, New York 10001  	clear sky	28 -2	25 -4	3	N	11-Dec	50	30.28	10
Tue Feb  2 12:15:18 2010	Baltimore, Maryland 21201  	normal	28 -2	28 -2			19 -7	69	30.26	
Tue Feb  2 12:15:19 2010	Washington, Washington D. C. 20001  	mostly cloudy	27 -3	19 -7	7	NE	19 -7	74	30.26	10
Tue Feb  2 12:15:19 2010	Austin, Texas 73301  	mostly cloudy	45 7	40 4	9	N	45 7	100	30.09	1
Tue Feb  2 12:15:19 2010	Las Vegas, Nevada 89101  	mostly cloudy	46 8	46 8	0		34 1	61	29.9	10
Tue Feb  2 12:15:20 2010	Oklahoma City, Oklahoma 73101  	mostly cloudy	34 1	29 -2	5	NW	30 -1	86	30.13	2
Tue Feb  2 12:15:20 2010	Nashville, Tennessee 37201  	mostly cloudy	36 2	36 2	0		34 1	93	30.09	1.2
Tue Feb  2 12:15:20 2010	San Francisco, California 94101  	mostly cloudy	50 10	50 10	0		46 8	87	29.89	10
Tue Feb  2 12:15:21 2010	Portland, Oregon 97201  	clear sky	27 -3	16 -9	12	NW	12-Oct	50	30.22	10
Tue Feb  2 12:15:21 2010	Fort Worth, Texas 76101  	mostly cloudy	39 4	37 3	3	N	36 2	87	30.12	7
Tue Feb  2 12:15:21 2010	Phoenix, Arizona 85001  	mostly cloudy	52 11	51 11	5	E	43 6	71	29.88	10
Tue Feb  2 12:15:22 2010	Chicago, Illinois 60601  	light snow	27 -3	19 -7	7	E	25 -4	93	30.06	3
Tue Feb  2 12:15:22 2010	San Antonio, Texas 78201  	mostly cloudy	46 8	45 7	3	N	46 8	100	30.07	0.2
Tue Feb  2 12:15:22 2010	Indianapolis, Indiana 46201  	mostly cloudy	30 -1	30 -1	0		25 -4	80	30.05	10
Tue Feb  2 12:15:23 2010	Columbus, Ohio 43085  	light snow	27 -3	27 -3	0		25 -4	93	30.12	0.7
Tue Feb  2 12:15:23 2010	Jacksonville, Florida 32099  	moderate rain	61 16	61 16	0		61 16	100	29.94	2.5
Tue Feb  2 12:15:24 2010	Dallas, Texas 75201  	mostly cloudy	43 6	40 4	5	N	37 3	81	30.13	6
Tue Feb  2 12:15:24 2010	Seattle, Washington 98101  	light rain	45 7	42 6	6	SE	43 6	93	29.87	5
Tue Feb  2 12:15:24 2010	Houston, Texas 77001  	mostly cloudy	48 9	45 7	7	NE	46 8	93	30.07	5
Tue Feb  2 12:15:25 2010	Milwaukee, Wisconsin 53201  	light snow	27 -3	24 -4	3	E	25 -4	93	30.07	1.5
Tue Feb  2 12:15:25 2010	Detroit, Michigan 48201  	mostly cloudy	21 -6	21 -6	0		18 -8	86	30.18	9
Tue Feb  2 12:15:25 2010	Philadelphia, Pennsylvania 19019  	clear sky	23 -5	23 -5	0		14 -10	68	30.28	10
Tue Feb  2 12:59:10 2010	Charlotte, North Carolina 28201  	mostly cloudy	36 2	28 -2	12	NE	28 -2	75	30.09	9
Tue Feb  2 12:59:10 2010	San Jose, California 95101  	clear sky	48 9	47 8	3	E	43 6	81	29.88	10
Tue Feb  2 12:59:10 2010	San Diego, California 92101  	mostly cloudy	57 14	57 14	0		48 9	72	29.89	7
Tue Feb  2 12:59:11 2010	Memphis, Tennessee 37501  	clear sky	36 2	32 0	5	W	32 0	87	30.11	10
Tue Feb  2 12:59:11 2010	Denver, Colorado 80214  	clear sky	19 -7	12-Nov	6	SE	13-Sep	62	29.98	10
Tue Feb  2 12:59:11 2010	Los Angeles, California 90001  	mostly cloudy	54 12	54 12	0		50 10	88	29.88	3
Tue Feb  2 12:59:12 2010	El Paso, Texas 79901  	mostly cloudy	43 6	38 3	9	N	34 1	70	29.99	10
Tue Feb  2 12:59:12 2010	New York, New York 10001  	clear sky	28 -2	19 -7	9	N	13-Sep	43	30.28	10
Tue Feb  2 12:59:12 2010	Baltimore, Maryland 21201  	normal	28 -2	28 -2			19 -7	69	30.24	
Tue Feb  2 12:59:13 2010	Washington, Washington D. C. 20001  	mostly cloudy	28 -2	21 -6	6	NE	19 -7	69	30.24	10
Tue Feb  2 12:59:13 2010	Las Vegas, Nevada 89101  	mostly cloudy	46 8	45 7	3	W	34 1	61	29.89	10
Tue Feb  2 12:59:13 2010	Austin, Texas 73301  	mostly cloudy	45 7	41 5	7	N	45 7	100	30.1	1
Tue Feb  2 12:59:14 2010	Oklahoma City, Oklahoma 73101  	mostly cloudy	34 1	29 -2	5	NW	30 -1	86	30.15	2
Tue Feb  2 12:59:14 2010	San Francisco, California 94101  	mostly cloudy	50 10	48 9	5	SE	46 8	87	29.89	10
Tue Feb  2 12:59:15 2010	Fort Worth, Texas 76101  	mostly cloudy	39 4	35 2	5	N	36 2	87	30.13	7
Tue Feb  2 12:59:15 2010	Nashville, Tennessee 37201  	mostly cloudy	36 2	36 2	0		34 1	93	30.08	1.5
Tue Feb  2 12:59:15 2010	Phoenix, Arizona 85001  	mostly cloudy	54 12	54 12	0		43 6	67	29.87	10
Tue Feb  2 12:59:16 2010	Portland, Oregon 97201  	clear sky	27 -3	18 -8	9	NW	11-Dec	54	30.23	10
Tue Feb  2 12:59:16 2010	Chicago, Illinois 60601  	light snow	27 -3	19 -7	7	E	25 -4	93	30.06	3
Tue Feb  2 12:59:16 2010	San Antonio, Texas 78201  	mostly cloudy	48 9	48 9	0		46 8	93	30.08	0.2
Tue Feb  2 12:59:17 2010	Indianapolis, Indiana 46201  	mostly cloudy	32 0	26 -3	6	E	25 -4	74	30.04	10
Tue Feb  2 12:59:17 2010	Jacksonville, Florida 32099  	moderate rain	61 16	61 16	5	NW	59 15	94	29.95	3
Tue Feb  2 12:59:18 2010	Dallas, Texas 75201  	mostly cloudy	43 6	42 6	3	N	37 3	81	30.14	7
Tue Feb  2 12:59:18 2010	Houston, Texas 77001  	light rain	48 9	44 7	8	NE	46 8	93	30.08	4
Tue Feb  2 12:59:18 2010	Columbus, Ohio 43085  	light snow	27 -3	27 -3	0		25 -4	93	30.11	1
Tue Feb  2 12:59:19 2010	Detroit, Michigan 48201  	mostly cloudy	23 -5	19 -7	3	SE	18 -8	79	30.17	8
Tue Feb  2 12:59:19 2010	Seattle, Washington 98101  	mostly cloudy	45 7	41 5	7	SE	43 6	93	29.87	10
Tue Feb  2 12:59:19 2010	Milwaukee, Wisconsin 53201  	light snow	27 -3	27 -3	0		25 -4	93	30.06	1.5
Tue Feb  2 12:59:20 2010	Philadelphia, Pennsylvania 19019  	clear sky	23 -5	23 -5	0		14 -10	68	30.29	10
Tue Feb  2 13:42:29 2010	Charlotte, North Carolina 28201  	light rain	34 1	29 -2	6	NE	30 -1	86	30.09	5
Tue Feb  2 13:42:29 2010	San Diego, California 92101  	mostly cloudy	55 13	54 12	5	N	48 9	77	29.88	5
Tue Feb  2 13:42:29 2010	San Jose, California 95101  	clear sky	48 9	48 9	0		45 7	87	29.87	10
Tue Feb  2 13:42:30 2010	Denver, Colorado 80214  	clear sky	23 -5	13 -11	10	S	13-Sep	53	29.98	10
Tue Feb  2 13:42:30 2010	Los Angeles, California 90001  	mostly cloudy	55 13	55 13	0		52 11	88	29.87	3
Tue Feb  2 13:42:30 2010	Memphis, Tennessee 37501  	mostly cloudy	36 2	36 2	0		34 1	93	30.11	9
Tue Feb  2 13:42:31 2010	El Paso, Texas 79901  	mostly cloudy	41 5	36 2	8	N	34 1	75	30	10
Tue Feb  2 13:42:31 2010	Baltimore, Maryland 21201  	normal	28 -2	28 -2			21 -6	74	30.23	
Tue Feb  2 13:42:31 2010	New York, New York 10001  	clear sky	28 -2	28 -2	0		13-Sep	43	30.29	10
Tue Feb  2 13:42:32 2010	Austin, Texas 73301  	mostly cloudy	45 7	41 5	8	N	45 7	100	30.1	1
Tue Feb  2 13:42:32 2010	Las Vegas, Nevada 89101  	mostly cloudy	46 8	46 8	0		34 1	61	29.89	10
Tue Feb  2 13:42:32 2010	Washington, Washington D. C. 20001  	mostly cloudy	28 -2	28 -2	0		21 -6	74	30.24	10
Tue Feb  2 13:42:33 2010	Oklahoma City, Oklahoma 73101  	mostly cloudy	34 1	32 0	3	NW	30 -1	86	30.17	2
Tue Feb  2 13:42:33 2010	Nashville, Tennessee 37201  	mostly cloudy	34 1	32 0	3	S	34 1	100	30.09	1.2
Tue Feb  2 13:42:33 2010	San Francisco, California 94101  	mostly cloudy	50 10	50 10	0		46 8	87	29.88	10
Tue Feb  2 13:42:34 2010	Portland, Oregon 97201  	clear sky	27 -3	18 -8	9	NW	11-Dec	54	30.25	10
Tue Feb  2 13:42:34 2010	Fort Worth, Texas 76101  	mostly cloudy	39 4	39 4	0		36 2	87	30.15	8
Tue Feb  2 13:42:34 2010	Phoenix, Arizona 85001  	mostly cloudy	52 11	52 11	0		41 5	66	29.87	10
Tue Feb  2 13:42:35 2010	Chicago, Illinois 60601  	light snow	28 -2	19 -7	9	E	25 -4	86	30.04	2.5
Tue Feb  2 13:42:35 2010	Indianapolis, Indiana 46201  	mostly cloudy	30 -1	25 -4	5	E	25 -4	80	30.05	9
Tue Feb  2 13:42:35 2010	San Antonio, Texas 78201  	mostly cloudy	48 9	46 8	5	NE	46 8	93	30.08	0.2
Tue Feb  2 13:42:36 2010	Columbus, Ohio 43085  	light snow	27 -3	24 -4	3	NE	27 -3	100	30.1	2
Tue Feb  2 13:42:36 2010	Jacksonville, Florida 32099  	mostly cloudy	59 15	59 15	3	W	57 14	94	29.96	10
Tue Feb  2 13:42:37 2010	Dallas, Texas 75201  	mostly cloudy	43 6	42 6	3	N	37 3	81	30.16	7
Tue Feb  2 13:42:37 2010	Seattle, Washington 98101  	mostly cloudy	45 7	41 5	7	SE	43 6	93	29.87	10
Tue Feb  2 13:42:37 2010	Houston, Texas 77001  	light rain	48 9	44 7	8	NE	46 8	93	30.1	5
Tue Feb  2 13:42:37 2010	Milwaukee, Wisconsin 53201  	light snow	28 -2	28 -2	0		27 -3	93	30.04	3
Tue Feb  2 13:42:38 2010	Detroit, Michigan 48201  	mostly cloudy	25 -4	21 -6	3	E	18 -8	74	30.15	9
Tue Feb  2 13:42:38 2010	Philadelphia, Pennsylvania 19019  	clear sky	21 -6	21 -6	0		14 -10	73	30.29	10
Tue Feb  2 14:26:11 2010	San Jose, California 95101  	clear sky	48 9	48 9	0		45 7	87	29.87	10
Tue Feb  2 14:26:12 2010	Charlotte, North Carolina 28201  	light rain	34 1	29 -2	6	NE	30 -1	86	30.09	5
Tue Feb  2 14:26:12 2010	San Diego, California 92101  	mostly cloudy	55 13	54 12	5	N	48 9	77	29.88	5
Tue Feb  2 14:26:12 2010	Denver, Colorado 80214  	clear sky	23 -5	13 -11	10	S	13-Sep	53	29.98	10
Tue Feb  2 14:26:13 2010	El Paso, Texas 79901  	mostly cloudy	41 5	36 2	8	N	34 1	75	30	10
Tue Feb  2 14:26:13 2010	Los Angeles, California 90001  	mostly cloudy	55 13	55 13	0		52 11	88	29.87	3
Tue Feb  2 14:26:13 2010	Memphis, Tennessee 37501  	mostly cloudy	36 2	36 2	0		34 1	93	30.11	9
Tue Feb  2 14:26:14 2010	Baltimore, Maryland 21201  	normal	28 -2	28 -2			21 -6	74	30.23	
Tue Feb  2 14:26:14 2010	Las Vegas, Nevada 89101  	mostly cloudy	46 8	46 8	0		34 1	61	29.89	10
Tue Feb  2 14:26:14 2010	New York, New York 10001  	clear sky	28 -2	28 -2	0		13-Sep	43	30.29	10
Tue Feb  2 14:26:15 2010	Austin, Texas 73301  	mostly cloudy	45 7	41 5	8	N	45 7	100	30.1	1
Tue Feb  2 14:26:15 2010	San Francisco, California 94101  	mostly cloudy	50 10	50 10	0		46 8	87	29.88	10
Tue Feb  2 14:26:15 2010	Washington, Washington D. C. 20001  	mostly cloudy	28 -2	28 -2	0		21 -6	74	30.24	10
Tue Feb  2 14:26:16 2010	Oklahoma City, Oklahoma 73101  	mostly cloudy	34 1	32 0	3	NW	30 -1	86	30.17	2
Tue Feb  2 14:26:16 2010	Nashville, Tennessee 37201  	mostly cloudy	34 1	32 0	3	S	34 1	100	30.09	1.2
Tue Feb  2 14:26:16 2010	Fort Worth, Texas 76101  	mostly cloudy	39 4	39 4	0		36 2	87	30.15	8
Tue Feb  2 14:26:17 2010	Portland, Oregon 97201  	clear sky	27 -3	18 -8	9	NW	11-Dec	54	30.25	10
Tue Feb  2 14:26:17 2010	Chicago, Illinois 60601  	light snow	28 -2	19 -7	9	E	25 -4	86	30.04	2.5
Tue Feb  2 14:26:17 2010	Phoenix, Arizona 85001  	mostly cloudy	52 11	52 11	0		41 5	66	29.87	10
Tue Feb  2 14:26:18 2010	Indianapolis, Indiana 46201  	mostly cloudy	30 -1	25 -4	5	E	25 -4	80	30.05	9
Tue Feb  2 14:26:18 2010	San Antonio, Texas 78201  	mostly cloudy	48 9	46 8	5	NE	46 8	93	30.08	0.2
Tue Feb  2 14:26:19 2010	Columbus, Ohio 43085  	light snow	27 -3	24 -4	3	NE	27 -3	100	30.1	2
Tue Feb  2 14:26:19 2010	Dallas, Texas 75201  	mostly cloudy	43 6	42 6	3	N	37 3	81	30.16	7
Tue Feb  2 14:26:19 2010	Jacksonville, Florida 32099  	mostly cloudy	59 15	59 15	3	W	57 14	94	29.96	10
Tue Feb  2 14:26:20 2010	Seattle, Washington 98101  	mostly cloudy	45 7	41 5	7	SE	43 6	93	29.87	10
Tue Feb  2 14:26:20 2010	Houston, Texas 77001  	light rain	48 9	44 7	8	NE	46 8	93	30.1	5
Tue Feb  2 14:26:20 2010	Milwaukee, Wisconsin 53201  	light snow	28 -2	28 -2	0		27 -3	93	30.04	3
Tue Feb  2 14:26:21 2010	Detroit, Michigan 48201  	mostly cloudy	25 -4	21 -6	3	E	18 -8	74	30.15	9
Tue Feb  2 14:26:21 2010	Philadelphia, Pennsylvania 19019  	clear sky	21 -6	21 -6	0		14 -10	73	30.29	10
Tue Feb  2 15:10:32 2010	Charlotte, North Carolina 28201  	light rain	34 1	28 -2	7	E	32 0	93	30.07	3
Tue Feb  2 15:10:32 2010	San Jose, California 95101  	mostly cloudy	46 8	46 8	0		43 6	87	29.86	10
Tue Feb  2 15:10:33 2010	San Diego, California 92101  	mostly cloudy	54 12	54 12	3	N	48 9	82	29.87	5
Tue Feb  2 15:10:33 2010	Denver, Colorado 80214  	clear sky	27 -3	16 -9	13	S	13-Sep	46	29.97	10
Tue Feb  2 15:10:34 2010	El Paso, Texas 79901  	mostly cloudy	41 5	35 2	10	N	30 -1	65	30.01	10
Tue Feb  2 15:10:34 2010	Los Angeles, California 90001  	mostly cloudy	55 13	55 13	0		52 11	88	29.86	3
Tue Feb  2 15:10:34 2010	Memphis, Tennessee 37501  	mostly cloudy	37 3	37 3	0		34 1	87	30.11	9
Tue Feb  2 15:10:35 2010	Baltimore, Maryland 21201  	normal	30 -1	30 -1			21 -6	69	30.26	
Tue Feb  2 15:10:35 2010	Las Vegas, Nevada 89101  	mostly cloudy	45 7	45 7	0		34 1	66	29.89	10
Tue Feb  2 15:10:35 2010	New York, New York 10001  	clear sky	28 -2	28 -2	0		13-Sep	43	30.29	10
Tue Feb  2 15:10:36 2010	Austin, Texas 73301  	mostly cloudy	45 7	41 5	7	NE	45 7	100	30.12	1
Tue Feb  2 15:10:36 2010	San Francisco, California 94101  	mostly cloudy	48 9	48 9	0		46 8	93	29.87	10
Tue Feb  2 15:10:36 2010	Washington, Washington D. C. 20001  	mostly cloudy	30 -1	30 -1	0		21 -6	69	30.25	10
Tue Feb  2 15:10:37 2010	Oklahoma City, Oklahoma 73101  	mostly cloudy	34 1	29 -2	6	NW	30 -1	86	30.17	9
Tue Feb  2 15:10:37 2010	Fort Worth, Texas 76101  	mostly cloudy	39 4	35 2	5	N	36 2	87	30.17	9
Tue Feb  2 15:10:37 2010	Nashville, Tennessee 37201  	mostly cloudy	36 2	36 2	0		36 2	100	30.1	0.7
Tue Feb  2 15:10:38 2010	Portland, Oregon 97201  	clear sky	28 -2	19 -7	9	N	11-Dec	50	30.27	10
Tue Feb  2 15:10:38 2010	Chicago, Illinois 60601  	light snow	28 -2	21 -6	7	SE	27 -3	93	30.03	1.2
Tue Feb  2 15:10:38 2010	Phoenix, Arizona 85001  	clear sky	52 11	52 11	3	SE	45 7	76	29.87	10
Tue Feb  2 15:10:39 2010	Indianapolis, Indiana 46201  	mostly cloudy	30 -1	27 -3	3	E	25 -4	80	30.04	10
Tue Feb  2 15:10:39 2010	San Antonio, Texas 78201  	mostly cloudy	48 9	46 8	5	NE	46 8	93	30.1	0.2
Tue Feb  2 15:10:40 2010	Columbus, Ohio 43085  	mostly cloudy	28 -2	22 -6	5	E	27 -3	93	30.08	2
Tue Feb  2 15:10:40 2010	Dallas, Texas 75201  	mostly cloudy	43 6	38 3	8	N	36 2	75	30.18	7
Tue Feb  2 15:10:40 2010	Jacksonville, Florida 32099  	mostly cloudy	57 14	57 14	0		57 14	100	29.97	7
Tue Feb  2 15:10:41 2010	Seattle, Washington 98101  	mostly cloudy	43 6	39 4	6	SE	39 4	87	29.86	10
Tue Feb  2 15:10:41 2010	Houston, Texas 77001  	mostly cloudy	48 9	44 7	9	N	45 7	87	30.12	5
Tue Feb  2 15:10:41 2010	Milwaukee, Wisconsin 53201  	light snow	28 -2	28 -2	0		27 -3	93	30.02	2
Tue Feb  2 15:10:42 2010	Detroit, Michigan 48201  	mostly cloudy	25 -4	19 -7	5	E	18 -8	74	30.15	10
Tue Feb  2 15:10:42 2010	Philadelphia, Pennsylvania 19019  	clear sky	21 -6	21 -6	0		16 -9	79	30.29	10
Tue Feb  2 15:57:03 2010	Charlotte, North Carolina 28201  	light rain	36 2	29 -2	9	N	32 0	87	30.08	3
Tue Feb  2 15:57:03 2010	San Jose, California 95101  	mostly cloudy	46 8	46 8	0		43 6	87	29.86	10
Tue Feb  2 15:57:04 2010	Denver, Colorado 80214  	clear sky	25 -4	21 -6	3	N	13-Sep	49	29.96	10
Tue Feb  2 15:57:04 2010	Memphis, Tennessee 37501  	mostly cloudy	39 4	39 4	0		34 1	81	30.12	9
Tue Feb  2 15:57:04 2010	San Diego, California 92101  	mostly cloudy	54 12	54 12	0		48 9	82	29.87	5
Tue Feb  2 15:57:05 2010	New York, New York 10001  	mostly cloudy	28 -2	25 -4	3	N	12-Oct	46	30.3	10
Tue Feb  2 15:57:05 2010	El Paso, Texas 79901  	mostly cloudy	41 5	35 2	10	N	30 -1	65	30.02	10
Tue Feb  2 15:57:05 2010	Los Angeles, California 90001  	mostly cloudy	55 13	55 13	0		50 10	82	29.86	3
Tue Feb  2 15:57:06 2010	Washington, Washington D. C. 20001  	mostly cloudy	30 -1	24 -4	6	NE	25 -4	80	30.25	10
Tue Feb  2 15:57:06 2010	Baltimore, Maryland 21201  	normal	30 -1	30 -1			21 -6	69	30.25	
Tue Feb  2 15:57:06 2010	Las Vegas, Nevada 89101  	mostly cloudy	46 8	46 8	0		34 1	61	29.89	10
Tue Feb  2 15:57:07 2010	Oklahoma City, Oklahoma 73101  	mostly cloudy	34 1	29 -2	6	N	30 -1	86	30.18	7
Tue Feb  2 15:57:07 2010	Austin, Texas 73301  	mostly cloudy	46 8	42 6	7	N	45 7	93	30.14	1
Tue Feb  2 15:57:07 2010	San Francisco, California 94101  	mostly cloudy	48 9	48 9	0		45 7	87	29.87	10
Tue Feb  2 15:57:08 2010	Fort Worth, Texas 76101  	mostly cloudy	41 5	36 2	8	N	36 2	81	30.18	10
Tue Feb  2 15:57:08 2010	Nashville, Tennessee 37201  	normal	36 2	32 0	5	NW	36 2	100	30.11	0.5
Tue Feb  2 15:57:08 2010	Phoenix, Arizona 85001  	mostly cloudy	54 12	54 12	0		39 4	58	29.87	10
Tue Feb  2 15:57:09 2010	Portland, Oregon 97201  	clear sky	30 -1	21 -6	10	N	11-Dec	47	30.28	10
Tue Feb  2 15:57:09 2010	Chicago, Illinois 60601  	light snow	28 -2	20 -7	8	SE	25 -4	86	30.03	2.5
Tue Feb  2 15:57:09 2010	San Antonio, Texas 78201  	mostly cloudy	48 9	44 7	8	NE	46 8	93	30.11	0.5
Tue Feb  2 15:57:10 2010	Indianapolis, Indiana 46201  	mostly cloudy	32 0	26 -3	6	E	25 -4	74	30.05	10
Tue Feb  2 15:57:11 2010	Dallas, Texas 75201  	mostly cloudy	43 6	38 3	9	N	36 2	75	30.2	9
Tue Feb  2 15:57:11 2010	Jacksonville, Florida 32099  	light rain	59 15	59 15	3	SW	57 14	94	29.98	6
Tue Feb  2 15:57:11 2010	Columbus, Ohio 43085  	mostly cloudy	28 -2	28 -2	0		27 -3	93	30.08	3
Tue Feb  2 15:57:12 2010	Milwaukee, Wisconsin 53201  	moderate snow	28 -2	22 -6	5	S	27 -3	93	30.02	0.5
Tue Feb  2 15:57:12 2010	Seattle, Washington 98101  	mostly cloudy	43 6	39 4	6	SE	41 5	93	29.87	10
Tue Feb  2 15:57:12 2010	Houston, Texas 77001  	mostly cloudy	50 10	47 8	8	NE	45 7	82	30.12	5
Tue Feb  2 15:57:13 2010	Philadelphia, Pennsylvania 19019  	mostly cloudy	27 -3	18 -8	9	NE	14 -10	58	30.29	10
Tue Feb  2 15:57:13 2010	Detroit, Michigan 48201  	mostly cloudy	25 -4	17 -8	7	SE	19 -7	80	30.15	4
Tue Feb  2 16:49:23 2010	San Jose, California 95101  	mostly cloudy	46 8	46 8	0		43 6	87	29.87	10
Tue Feb  2 16:49:24 2010	Charlotte, North Carolina 28201  	light rain	36 2	29 -2	9	N	34 1	93	30.08	4
Tue Feb  2 16:49:24 2010	San Diego, California 92101  	mostly cloudy	54 12	54 12	3	NE	48 9	82	29.86	4
Tue Feb  2 16:49:25 2010	Denver, Colorado 80214  	clear sky	27 -3	19 -7	8	S	12-Oct	50	29.97	10
Tue Feb  2 16:49:25 2010	Memphis, Tennessee 37501  	mostly cloudy	39 4	35 2	5	W	34 1	81	30.14	8
Tue Feb  2 16:49:25 2010	Los Angeles, California 90001  	mostly cloudy	55 13	55 13	0		50 10	82	29.86	2.5
Tue Feb  2 16:49:26 2010	El Paso, Texas 79901  	clear sky	45 7	40 4	10	N	28 -2	53	30.02	10
Tue Feb  2 16:49:27 2010	Baltimore, Maryland 21201  	normal	34 1	34 1			23 -5	64	30.23	
Tue Feb  2 16:49:27 2010	Las Vegas, Nevada 89101  	mostly cloudy	46 8	46 8	0		30 -1	53	29.9	10
Tue Feb  2 16:49:27 2010	New York, New York 10001  	clear sky	28 -2	28 -2	0		12-Oct	46	30.29	10
Tue Feb  2 16:49:28 2010	Washington, Washington D. C. 20001  	mostly cloudy	34 1	29 -2	5	NE	25 -4	69	30.22	9
Tue Feb  2 16:49:28 2010	Austin, Texas 73301  	mostly cloudy	46 8	42 6	7	NE	45 7	93	30.15	1
Tue Feb  2 16:49:29 2010	Oklahoma City, Oklahoma 73101  	mostly cloudy	34 1	29 -2	5	N	28 -2	80	30.19	7
Tue Feb  2 16:49:29 2010	Nashville, Tennessee 37201  	normal	37 3	37 3	0		36 2	93	30.12	0.5
Tue Feb  2 16:49:29 2010	San Francisco, California 94101  	mostly cloudy	48 9	48 9	0		45 7	87	29.88	10
Tue Feb  2 16:49:30 2010	Fort Worth, Texas 76101  	mostly cloudy	41 5	36 2	8	NE	36 2	81	30.21	10
Tue Feb  2 16:49:30 2010	Phoenix, Arizona 85001  	mostly cloudy	54 12	52 11	6	E	39 4	58	29.87	10
Tue Feb  2 16:49:31 2010	Portland, Oregon 97201  	clear sky	30 -1	22 -6	8	N	11-Dec	47	30.28	10
Tue Feb  2 16:49:32 2010	Chicago, Illinois 60601  	light snow	28 -2	20 -7	8	SE	25 -4	86	30.02	2.5
Tue Feb  2 16:49:32 2010	San Antonio, Texas 78201  	mostly cloudy	48 9	45 7	7	NE	46 8	93	30.14	1.2
Tue Feb  2 16:49:33 2010	Indianapolis, Indiana 46201  	mostly cloudy	34 1	29 -2	6	SE	23 -5	64	30.04	10
Tue Feb  2 16:49:33 2010	Jacksonville, Florida 32099  	moderate rain	59 15	59 15	3	W	57 14	94	29.98	4
Tue Feb  2 16:49:34 2010	Columbus, Ohio 43085  	mostly cloudy	30 -1	24 -4	6	E	27 -3	86	30.08	5
Tue Feb  2 16:49:34 2010	Dallas, Texas 75201  	mostly cloudy	43 6	38 3	9	N	34 1	70	30.22	10
Tue Feb  2 16:49:35 2010	Seattle, Washington 98101  	mostly cloudy	43 6	40 4	5	SE	39 4	87	29.87	10
Tue Feb  2 16:49:35 2010	Houston, Texas 77001  	mostly cloudy	50 10	45 7	12	NE	46 8	87	30.14	6
Tue Feb  2 16:49:36 2010	Philadelphia, Pennsylvania 19019  	clear sky	30 -1	22 -6	8	E	11-Dec	47	30.29	10
Tue Feb  2 16:49:36 2010	Detroit, Michigan 48201  	light snow	25 -4	17 -8	7	SE	21 -6	86	30.14	3
Tue Feb  2 16:49:36 2010	Milwaukee, Wisconsin 53201  	light snow	28 -2	22 -6	5	S	27 -3	93	30.02	0.5
Tue Feb  2 17:38:02 2010	Charlotte, North Carolina 28201  	light rain	36 2	29 -2	9	N	34 1	93	30.08	4
Tue Feb  2 17:38:02 2010	San Diego, California 92101  	mostly cloudy	54 12	54 12	3	NE	48 9	82	29.86	4
Tue Feb  2 17:38:02 2010	San Jose, California 95101  	mostly cloudy	46 8	46 8	0		43 6	87	29.87	10
Tue Feb  2 17:38:03 2010	Denver, Colorado 80214  	clear sky	27 -3	19 -7	8	S	12-Oct	50	29.97	10
Tue Feb  2 17:38:03 2010	Memphis, Tennessee 37501  	mostly cloudy	39 4	35 2	5	W	34 1	81	30.14	8
Tue Feb  2 17:38:03 2010	Los Angeles, California 90001  	mostly cloudy	55 13	55 13	0		50 10	82	29.86	2.5
Tue Feb  2 17:38:04 2010	El Paso, Texas 79901  	clear sky	45 7	40 4	10	N	28 -2	53	30.02	10
Tue Feb  2 17:38:04 2010	Baltimore, Maryland 21201  	normal	34 1	34 1			23 -5	64	30.23	
Tue Feb  2 17:38:04 2010	New York, New York 10001  	clear sky	28 -2	28 -2	0		12-Oct	46	30.29	10
Tue Feb  2 17:38:05 2010	Washington, Washington D. C. 20001  	mostly cloudy	34 1	29 -2	5	NE	25 -4	69	30.22	9
Tue Feb  2 17:38:05 2010	Austin, Texas 73301  	mostly cloudy	46 8	42 6	7	NE	45 7	93	30.15	1
Tue Feb  2 17:38:05 2010	Las Vegas, Nevada 89101  	mostly cloudy	46 8	46 8	0		30 -1	53	29.9	10
Tue Feb  2 17:38:06 2010	Oklahoma City, Oklahoma 73101  	mostly cloudy	34 1	29 -2	5	N	28 -2	80	30.19	7
Tue Feb  2 17:38:06 2010	Nashville, Tennessee 37201  	normal	37 3	37 3	0		36 2	93	30.12	0.5
Tue Feb  2 17:38:06 2010	San Francisco, California 94101  	mostly cloudy	48 9	48 9	0		45 7	87	29.88	10
Tue Feb  2 17:38:07 2010	Portland, Oregon 97201  	clear sky	30 -1	22 -6	8	N	11-Dec	47	30.28	10
Tue Feb  2 17:38:07 2010	Fort Worth, Texas 76101  	mostly cloudy	41 5	36 2	8	NE	36 2	81	30.21	10
Tue Feb  2 17:38:07 2010	Phoenix, Arizona 85001  	mostly cloudy	54 12	52 11	6	E	39 4	58	29.87	10
Tue Feb  2 17:38:08 2010	Indianapolis, Indiana 46201  	mostly cloudy	34 1	29 -2	6	SE	23 -5	64	30.04	10
Tue Feb  2 17:38:08 2010	Chicago, Illinois 60601  	light snow	28 -2	20 -7	8	SE	25 -4	86	30.02	2.5
Tue Feb  2 17:38:08 2010	San Antonio, Texas 78201  	mostly cloudy	48 9	45 7	7	NE	46 8	93	30.14	1.2
Tue Feb  2 17:38:09 2010	Columbus, Ohio 43085  	mostly cloudy	30 -1	24 -4	6	E	27 -3	86	30.08	5
Tue Feb  2 17:38:09 2010	Jacksonville, Florida 32099  	moderate rain	59 15	59 15	3	W	57 14	94	29.98	4
Tue Feb  2 17:38:10 2010	Dallas, Texas 75201  	mostly cloudy	43 6	38 3	9	N	34 1	70	30.22	10
Tue Feb  2 17:38:10 2010	Seattle, Washington 98101  	mostly cloudy	43 6	40 4	5	SE	39 4	87	29.87	10
Tue Feb  2 17:38:10 2010	Houston, Texas 77001  	mostly cloudy	50 10	45 7	12	NE	46 8	87	30.14	6
Tue Feb  2 17:38:11 2010	Philadelphia, Pennsylvania 19019  	clear sky	30 -1	22 -6	8	E	11-Dec	47	30.29	10
Tue Feb  2 17:38:11 2010	Detroit, Michigan 48201  	light snow	25 -4	17 -8	7	SE	21 -6	86	30.14	3
Tue Feb  2 17:38:11 2010	Milwaukee, Wisconsin 53201  	light snow	28 -2	22 -6	5	S	27 -3	93	30.02	0.5
Tue Feb  2 18:22:22 2010	Charlotte, North Carolina 28201  	light rain	36 2	30 -1	8	N	34 1	93	30.07	4
Tue Feb  2 18:22:22 2010	San Diego, California 92101  	mostly cloudy	54 12	54 12	0		48 9	82	29.86	5
Tue Feb  2 18:22:22 2010	San Jose, California 95101  	mostly cloudy	48 9	48 9	0		45 7	87	29.87	10
Tue Feb  2 18:22:23 2010	Denver, Colorado 80214  	clear sky	34 1	27 -3	8	S	12-Oct	37	29.97	10
Tue Feb  2 18:22:23 2010	Memphis, Tennessee 37501  	mostly cloudy	41 5	39 4	3	W	34 1	75	30.14	9
Tue Feb  2 18:22:23 2010	Los Angeles, California 90001  	clear sky	55 13	55 13	3	N	50 10	82	29.86	2
Tue Feb  2 18:22:24 2010	New York, New York 10001  	mostly cloudy	30 -1	22 -6	9	SE	12-Oct	43	30.27	10
Tue Feb  2 18:22:24 2010	El Paso, Texas 79901  	clear sky	48 9	44 7	10	N	28 -2	46	30.04	10
Tue Feb  2 18:22:24 2010	Baltimore, Maryland 21201  	normal	36 2	36 2			23 -5	60	30.22	
Tue Feb  2 18:22:25 2010	Austin, Texas 73301  	mostly cloudy	48 9	44 7	8	NE	46 8	93	30.18	1
Tue Feb  2 18:22:25 2010	Las Vegas, Nevada 89101  	mostly cloudy	48 9	48 9	0		30 -1	50	29.9	10
Tue Feb  2 18:22:25 2010	Washington, Washington D. C. 20001  	mostly cloudy	36 2	36 2	0		23 -5	60	30.22	10
Tue Feb  2 18:22:26 2010	Oklahoma City, Oklahoma 73101  	mostly cloudy	34 1	32 0	3	NW	30 -1	86	30.22	6
Tue Feb  2 18:22:26 2010	Nashville, Tennessee 37201  	normal	37 3	37 3	0		37 3	100	30.12	0.2
Tue Feb  2 18:22:26 2010	San Francisco, California 94101  	mostly cloudy	48 9	48 9	0		45 7	87	29.88	10
Tue Feb  2 18:22:27 2010	Portland, Oregon 97201  	clear sky	30 -1	25 -4	5	N	11-Dec	47	30.26	10
Tue Feb  2 18:22:27 2010	Fort Worth, Texas 76101  	mostly cloudy	43 6	37 3	12	N	34 1	70	30.22	10
Tue Feb  2 18:22:27 2010	Phoenix, Arizona 85001  	mostly cloudy	55 13	54 12	6	E	39 4	54	29.87	10
Tue Feb  2 18:22:28 2010	Indianapolis, Indiana 46201  	mostly cloudy	36 2	31 -1	6	S	21 -6	55	30.02	10
Tue Feb  2 18:22:28 2010	Chicago, Illinois 60601  	light snow	28 -2	22 -6	5	S	27 -3	93	30.02	1
Tue Feb  2 18:22:28 2010	San Antonio, Texas 78201  	mostly cloudy	48 9	44 7	9	N	46 8	93	30.16	0.7
Tue Feb  2 18:22:29 2010	Jacksonville, Florida 32099  	light rain	59 15	59 15	5	W	57 14	94	29.97	5
Tue Feb  2 18:22:30 2010	Columbus, Ohio 43085  	mostly cloudy	32 0	27 -3	5	E	25 -4	74	30.08	8
Tue Feb  2 18:22:30 2010	Dallas, Texas 75201  	mostly cloudy	43 6	38 3	8	N	34 1	70	30.23	10
Tue Feb  2 18:22:30 2010	Houston, Texas 77001  	mostly cloudy	52 11	48 9	12	NE	46 8	82	30.16	8
Tue Feb  2 18:22:30 2010	Seattle, Washington 98101  	clear sky	39 4	39 4	0		37 3	93	29.88	10
Tue Feb  2 18:22:31 2010	Detroit, Michigan 48201  	light snow	27 -3	19 -7	7	E	21 -6	80	30.12	2
Tue Feb  2 18:22:31 2010	Milwaukee, Wisconsin 53201  	light snow	30 -1	23 -5	7	S	27 -3	86	30.01	1
Tue Feb  2 18:22:32 2010	Philadelphia, Pennsylvania 19019  	clear sky	32 0	25 -4	8	E	12-Oct	40	30.26	10
Tue Feb  2 19:06:47 2010	San Jose, California 95101  	mostly cloudy	48 9	48 9	0		45 7	87	29.88	9
Tue Feb  2 19:06:48 2010	Denver, Colorado 80214  	clear sky	37 3	29 -2	12	S	16-Mar	23	29.96	10
Tue Feb  2 19:06:48 2010	Charlotte, North Carolina 28201  	light rain	36 2	29 -2	9	NE	34 1	93	30.04	4
Tue Feb  2 19:06:48 2010	San Diego, California 92101  	mostly cloudy	55 13	55 13	0		48 9	77	29.86	5
Tue Feb  2 19:06:49 2010	El Paso, Texas 79901  	clear sky	52 11	50 10	6	N	30 -1	43	30.04	10
Tue Feb  2 19:06:49 2010	Memphis, Tennessee 37501  	mostly cloudy	45 7	41 5	7	NW	36 2	70	30.15	10
Tue Feb  2 19:06:49 2010	Los Angeles, California 90001  	clear sky	57 14	57 14	0		50 10	77	29.86	2.5
Tue Feb  2 19:06:50 2010	New York, New York 10001  	mostly cloudy	32 0	27 -3	5	N	11-Dec	43	30.25	10
Tue Feb  2 19:06:50 2010	Baltimore, Maryland 21201  	normal	34 1	34 1			23 -5	64	30.2	
Tue Feb  2 19:06:50 2010	Las Vegas, Nevada 89101  	mostly cloudy	50 10	50 10	0		30 -1	46	29.91	10
Tue Feb  2 19:06:51 2010	San Francisco, California 94101  	mostly cloudy	50 10	50 10	3	SE	45 7	82	29.89	10
Tue Feb  2 19:06:51 2010	Austin, Texas 73301  	mostly cloudy	50 10	50 10	3	N	46 8	87	30.2	1
Tue Feb  2 19:06:51 2010	Washington, Washington D. C. 20001  	mostly cloudy	36 2	36 2	0		21 -6	55	30.2	10
Tue Feb  2 19:06:52 2010	Oklahoma City, Oklahoma 73101  	mostly cloudy	34 1	32 0	3	W	30 -1	86	30.24	7
Tue Feb  2 19:06:52 2010	Fort Worth, Texas 76101  	mostly cloudy	43 6	39 4	7	N	34 1	70	30.23	10
Tue Feb  2 19:06:52 2010	Nashville, Tennessee 37201  	normal	37 3	37 3	0		37 3	100	30.1	0.5
Tue Feb  2 19:06:53 2010	Portland, Oregon 97201  	clear sky	30 -1	27 -3	3	N	12-Oct	43	30.24	10
Tue Feb  2 19:06:53 2010	Chicago, Illinois 60601  	light snow	30 -1	27 -3	3	S	27 -3	86	30	3
Tue Feb  2 19:06:53 2010	Phoenix, Arizona 85001  	mostly cloudy	61 16	61 16	5	E	37 3	42	29.87	10
Tue Feb  2 19:06:54 2010	Indianapolis, Indiana 46201  	mostly cloudy	37 3	33 1	5	S	21 -6	52	30.01	10
Tue Feb  2 19:06:54 2010	San Antonio, Texas 78201  	mostly cloudy	50 10	47 8	8	NE	48 9	94	30.16	2
Tue Feb  2 19:06:55 2010	Columbus, Ohio 43085  	mostly cloudy	34 1	29 -2	6	E	21 -6	59	30.05	10
Tue Feb  2 19:06:55 2010	Dallas, Texas 75201  	mostly cloudy	45 7	41 5	8	N	34 1	66	30.23	10
Tue Feb  2 19:06:55 2010	Jacksonville, Florida 32099  	mostly cloudy	61 16	60 16	10	W	57 14	88	29.96	7
Tue Feb  2 19:06:56 2010	Milwaukee, Wisconsin 53201  	light snow	30 -1	23 -5	7	S	28 -2	93	29.99	1.5
Tue Feb  2 19:06:56 2010	Seattle, Washington 98101  	clear sky	45 7	42 6	5	N	41 5	87	29.89	10
Tue Feb  2 19:06:56 2010	Houston, Texas 77001  	light rain	54 12	54 12	3	E	46 8	77	30.17	8
Tue Feb  2 19:06:57 2010	Philadelphia, Pennsylvania 19019  	mostly cloudy	34 1	27 -3	9	E	11-Dec	40	30.24	10
Tue Feb  2 19:06:57 2010	Detroit, Michigan 48201  	light snow	28 -2	21 -6	7	E	23 -5	80	30.08	2.5
Tue Feb  2 19:57:24 2010	San Jose, California 95101  	mostly cloudy	52 11	52 11	0		46 8	82	29.89	8
Tue Feb  2 19:57:25 2010	Charlotte, North Carolina 28201  	mostly cloudy	36 2	27 -3	14	NE	34 1	93	29.99	4
Tue Feb  2 19:57:25 2010	San Diego, California 92101  	mostly cloudy	57 14	56 13	5	W	48 9	72	29.87	7
Tue Feb  2 19:57:26 2010	Denver, Colorado 80214  	clear sky	43 6	38 3	9	SW	16-Mar	19	29.94	10
Tue Feb  2 19:57:26 2010	Memphis, Tennessee 37501  	mostly cloudy	45 7	40 4	9	W	36 2	70	30.15	10
Tue Feb  2 19:57:26 2010	Los Angeles, California 90001  	clear sky	61 16	61 16	0		50 10	68	29.85	3
Tue Feb  2 19:57:27 2010	El Paso, Texas 79901  	mostly cloudy	55 13	53 12	7	N	30 -1	38	30.03	10
Tue Feb  2 19:57:27 2010	New York, New York 10001  	mostly cloudy	34 1	28 -2	7	SE	13-Sep	34	30.23	10
Tue Feb  2 19:57:28 2010	Las Vegas, Nevada 89101  	mostly cloudy	54 12	51 11	9	NE	27 -3	35	29.91	10
Tue Feb  2 19:57:28 2010	Baltimore, Maryland 21201  	normal	37 3	37 3			27 -3	65	30.17	
Tue Feb  2 19:57:29 2010	San Francisco, California 94101  	mostly cloudy	52 11	50 10	7	E	46 8	82	29.89	10
Tue Feb  2 19:57:29 2010	Austin, Texas 73301  	mostly cloudy	50 10	45 7	15	NE	48 9	94	30.15	1
Tue Feb  2 19:57:29 2010	Washington, Washington D. C. 20001  	mostly cloudy	37 3	37 3	0		21 -6	52	30.17	10
Tue Feb  2 19:57:30 2010	Fort Worth, Texas 76101  	mostly cloudy	43 6	40 4	5	NW	34 1	70	30.23	10
Tue Feb  2 19:57:30 2010	Nashville, Tennessee 37201  	mostly cloudy	43 6	40 4	5	NW	37 3	81	30.07	4
Tue Feb  2 19:57:30 2010	Oklahoma City, Oklahoma 73101  	mostly cloudy	34 1	34 1	0		30 -1	86	30.23	7
Tue Feb  2 19:57:31 2010	Portland, Oregon 97201  	mostly cloudy	30 -1	27 -3	3	N	11-Dec	47	30.22	10
Tue Feb  2 19:57:31 2010	Phoenix, Arizona 85001  	mostly cloudy	63 17	63 17	8	E	37 3	39	29.87	10
Tue Feb  2 19:57:32 2010	Chicago, Illinois 60601  	mostly cloudy	30 -1	24 -4	6	S	25 -4	80	29.99	5
Tue Feb  2 19:57:32 2010	San Antonio, Texas 78201  	mostly cloudy	52 11	49 9	9	NE	48 9	87	30.12	2.5
Tue Feb  2 19:57:33 2010	Indianapolis, Indiana 46201  	mostly cloudy	37 3	32 0	7	SW	21 -6	52	29.98	10
Tue Feb  2 19:57:33 2010	Jacksonville, Florida 32099  	mostly cloudy	61 16	60 16	9	W	57 14	88	29.94	10
Tue Feb  2 19:57:34 2010	Columbus, Ohio 43085  	mostly cloudy	36 2	32 0	5	SE	21 -6	55	30.01	10
Tue Feb  2 19:57:34 2010	Dallas, Texas 75201  	mostly cloudy	46 8	44 7	5	N	34 1	61	30.24	10
Tue Feb  2 19:57:34 2010	Houston, Texas 77001  	light rain	54 12	52 11	8	NE	46 8	77	30.14	7
Tue Feb  2 19:57:35 2010	Milwaukee, Wisconsin 53201  	light snow	32 0	27 -3	5	S	27 -3	80	29.97	3
Tue Feb  2 19:57:35 2010	Seattle, Washington 98101  	mostly cloudy	46 8	46 8	0		43 6	87	29.89	10
Tue Feb  2 19:57:36 2010	Philadelphia, Pennsylvania 19019  	mostly cloudy	34 1	29 -2	5	SE	11-Dec	40	30.22	10
Tue Feb  2 19:57:36 2010	Detroit, Michigan 48201  	clear sky	28 -2	21 -6	7	SE	23 -5	80	30.05	6
Tue Feb  2 20:48:46 2010	Charlotte, North Carolina 28201  	mostly cloudy	37 3	32 0	7	N	36 2	93	29.97	4
Tue Feb  2 20:48:46 2010	San Jose, California 95101  	mostly cloudy	55 13	55 13	0		46 8	72	29.88	8
Tue Feb  2 20:48:47 2010	Denver, Colorado 80214  	clear sky	45 7	44 7	3	N	17-Jan	16	29.91	10
Tue Feb  2 20:48:47 2010	San Diego, California 92101  	mostly cloudy	61 16	60 16	8	NW	48 9	63	29.86	10
Tue Feb  2 20:48:49 2010	Memphis, Tennessee 37501  	mostly cloudy	45 7	39 4	12	N	34 1	66	30.15	10
Tue Feb  2 20:48:49 2010	Los Angeles, California 90001  	clear sky	63 17	63 17	0		45 7	52	29.84	5
Tue Feb  2 20:48:50 2010	New York, New York 10001  	mostly cloudy	34 1	27 -3	8	SE	12-Oct	37	30.21	10
Tue Feb  2 20:48:50 2010	El Paso, Texas 79901  	mostly cloudy	59 15	57 14	9	NE	30 -1	33	29.98	10
Tue Feb  2 20:48:50 2010	Baltimore, Maryland 21201  	normal	36 2	36 2			25 -4	64	30.15	
Tue Feb  2 20:48:51 2010	Las Vegas, Nevada 89101  	mostly cloudy	55 13	51 11	14	NE	28 -2	35	29.89	10
Tue Feb  2 20:48:51 2010	Austin, Texas 73301  	mostly cloudy	50 10	45 7	13	N	46 8	87	30.14	2
Tue Feb  2 20:48:51 2010	Washington, Washington D. C. 20001  	mostly cloudy	39 4	39 4	0		21 -6	48	30.15	10
Tue Feb  2 20:48:52 2010	San Francisco, California 94101  	mostly cloudy	54 12	52 11	6	NE	46 8	77	29.88	10
Tue Feb  2 20:48:53 2010	Nashville, Tennessee 37201  	mostly cloudy	45 7	42 6	5	N	36 2	70	30.06	7
Tue Feb  2 20:48:53 2010	Oklahoma City, Oklahoma 73101  	mostly cloudy	36 2	36 2	0		30 -1	80	30.2	6
Tue Feb  2 20:48:54 2010	Fort Worth, Texas 76101  	clear sky	45 7	42 6	5	NW	36 2	70	30.21	10
Tue Feb  2 20:48:54 2010	Phoenix, Arizona 85001  	mostly cloudy	66 19	66 19	5	E	36 2	32	29.84	10
Tue Feb  2 20:48:55 2010	Portland, Oregon 97201  	clear sky	30 -1	27 -3	3	SW	11-Dec	47	30.2	10
Tue Feb  2 20:48:55 2010	Chicago, Illinois 60601  	mostly cloudy	32 0	26 -3	6	SW	23 -5	69	29.97	5
Tue Feb  2 20:48:56 2010	Indianapolis, Indiana 46201  	mostly cloudy	37 3	30 -1	9	W	23 -5	56	29.97	10
Tue Feb  2 20:48:56 2010	San Antonio, Texas 78201  	mostly cloudy	52 11	49 9	10	NE	48 9	87	30.11	5
Tue Feb  2 20:48:57 2010	Columbus, Ohio 43085  	mostly cloudy	37 3	35 2	3	N	21 -6	52	29.98	10
Tue Feb  2 20:48:57 2010	Dallas, Texas 75201  	mostly cloudy	48 9	45 7	6	N	34 1	57	30.22	10
Tue Feb  2 20:48:57 2010	Jacksonville, Florida 32099  	mostly cloudy	61 16	60 16	10	W	55 13	82	29.93	10
Tue Feb  2 20:48:58 2010	Seattle, Washington 98101  	mostly cloudy	48 9	46 8	5	SE	43 6	81	29.89	10
Tue Feb  2 20:48:58 2010	Houston, Texas 77001  	light rain	54 12	52 11	7	NE	48 9	82	30.12	3
Tue Feb  2 20:48:59 2010	Philadelphia, Pennsylvania 19019  	mostly cloudy	34 1	32 0	3	E	16 -9	47	30.2	10
Tue Feb  2 20:48:59 2010	Detroit, Michigan 48201  	light snow	28 -2	21 -6	6	E	25 -4	86	30.03	1
Tue Feb  2 20:48:59 2010	Milwaukee, Wisconsin 53201  	light snow	32 0	29 -2	3	SW	27 -3	80	29.96	5
Tue Feb  2 21:34:48 2010	San Jose, California 95101  	mostly cloudy	55 13	55 13	0		46 8	72	29.88	8
Tue Feb  2 21:34:49 2010	Charlotte, North Carolina 28201  	mostly cloudy	37 3	32 0	7	N	36 2	93	29.97	4
Tue Feb  2 21:34:49 2010	San Diego, California 92101  	mostly cloudy	61 16	60 16	8	NW	48 9	63	29.86	10
Tue Feb  2 21:34:50 2010	Denver, Colorado 80214  	clear sky	45 7	44 7	3	N	17-Jan	16	29.91	10
Tue Feb  2 21:34:50 2010	Memphis, Tennessee 37501  	mostly cloudy	45 7	39 4	12	N	34 1	66	30.15	10
Tue Feb  2 21:34:50 2010	Los Angeles, California 90001  	clear sky	63 17	63 17	0		45 7	52	29.84	5
Tue Feb  2 21:34:51 2010	New York, New York 10001  	mostly cloudy	34 1	27 -3	8	SE	12-Oct	37	30.21	10
Tue Feb  2 21:34:51 2010	El Paso, Texas 79901  	mostly cloudy	59 15	57 14	9	NE	30 -1	33	29.98	10
Tue Feb  2 21:34:52 2010	Las Vegas, Nevada 89101  	mostly cloudy	55 13	51 11	14	NE	28 -2	35	29.89	10
Tue Feb  2 21:34:52 2010	Baltimore, Maryland 21201  	normal	36 2	36 2			25 -4	64	30.15	
Tue Feb  2 21:34:52 2010	Washington, Washington D. C. 20001  	mostly cloudy	39 4	39 4	0		21 -6	48	30.15	10
Tue Feb  2 21:34:53 2010	Austin, Texas 73301  	mostly cloudy	50 10	45 7	13	N	46 8	87	30.14	2
Tue Feb  2 21:34:53 2010	San Francisco, California 94101  	mostly cloudy	54 12	52 11	6	NE	46 8	77	29.88	10
Tue Feb  2 21:34:54 2010	Fort Worth, Texas 76101  	clear sky	45 7	42 6	5	NW	36 2	70	30.21	10
Tue Feb  2 21:34:54 2010	Nashville, Tennessee 37201  	mostly cloudy	45 7	42 6	5	N	36 2	70	30.06	7
Tue Feb  2 21:34:54 2010	Oklahoma City, Oklahoma 73101  	mostly cloudy	36 2	36 2	0		30 -1	80	30.2	6
Tue Feb  2 21:34:55 2010	Portland, Oregon 97201  	clear sky	30 -1	27 -3	3	SW	11-Dec	47	30.2	10
Tue Feb  2 21:34:55 2010	Chicago, Illinois 60601  	mostly cloudy	32 0	26 -3	6	SW	23 -5	69	29.97	5
Tue Feb  2 21:34:55 2010	Phoenix, Arizona 85001  	mostly cloudy	66 19	66 19	5	E	36 2	32	29.84	10
Tue Feb  2 21:34:56 2010	Indianapolis, Indiana 46201  	mostly cloudy	37 3	30 -1	9	W	23 -5	56	29.97	10
Tue Feb  2 21:34:56 2010	San Antonio, Texas 78201  	mostly cloudy	52 11	49 9	10	NE	48 9	87	30.11	5
Tue Feb  2 21:34:57 2010	Columbus, Ohio 43085  	mostly cloudy	37 3	35 2	3	N	21 -6	52	29.98	10
Tue Feb  2 21:34:57 2010	Jacksonville, Florida 32099  	mostly cloudy	61 16	60 16	10	W	55 13	82	29.93	10
Tue Feb  2 21:34:58 2010	Dallas, Texas 75201  	mostly cloudy	48 9	45 7	6	N	34 1	57	30.22	10
Tue Feb  2 21:34:58 2010	Seattle, Washington 98101  	mostly cloudy	48 9	46 8	5	SE	43 6	81	29.89	10
Tue Feb  2 21:34:58 2010	Houston, Texas 77001  	light rain	54 12	52 11	7	NE	48 9	82	30.12	3
Tue Feb  2 21:34:59 2010	Philadelphia, Pennsylvania 19019  	mostly cloudy	34 1	32 0	3	E	16 -9	47	30.2	10
Tue Feb  2 21:34:59 2010	Detroit, Michigan 48201  	light snow	28 -2	21 -6	6	E	25 -4	86	30.03	1
Tue Feb  2 21:34:59 2010	Milwaukee, Wisconsin 53201  	light snow	32 0	29 -2	3	SW	27 -3	80	29.96	5
Tue Feb  2 22:22:18 2010	San Jose, California 95101  	mostly cloudy	55 13	55 13	0		46 8	72	29.85	8
Tue Feb  2 22:22:19 2010	Denver, Colorado 80214  	clear sky	48 9	47 8	3	N	17-Jan	14	29.88	10
Tue Feb  2 22:22:19 2010	Charlotte, North Carolina 28201  	mostly cloudy	37 3	31 -1	8	N	36 2	93	29.94	4
Tue Feb  2 22:22:19 2010	San Diego, California 92101  	mostly cloudy	61 16	60 16	7	NW	48 9	63	29.84	9
Tue Feb  2 22:22:20 2010	El Paso, Texas 79901  	mostly cloudy	61 16	59 15	20-Dec	E	30 -1	31	29.94	10
Tue Feb  2 22:22:20 2010	Memphis, Tennessee 37501  	mostly cloudy	45 7	41 5	8	NW	34 1	66	30.13	10
Tue Feb  2 22:22:20 2010	Los Angeles, California 90001  	clear sky	64 18	64 18	0		46 8	52	29.82	5
Tue Feb  2 22:22:21 2010	New York, New York 10001  	mostly cloudy	34 1	29 -2	6	N	16 -9	47	30.22	10
Tue Feb  2 22:22:21 2010	Las Vegas, Nevada 89101  	mostly cloudy	55 13	54 12	6	N	28 -2	35	29.85	10
Tue Feb  2 22:22:21 2010	Baltimore, Maryland 21201  	normal	37 3	37 3			25 -4	60	30.14	
Tue Feb  2 22:22:22 2010	San Francisco, California 94101  	mostly cloudy	52 11	50 10	6	NE	46 8	82	29.85	10
Tue Feb  2 22:22:22 2010	Austin, Texas 73301  	mostly cloudy	54 12	50 10	15	N	48 9	82	30.1	4
Tue Feb  2 22:22:22 2010	Washington, Washington D. C. 20001  	mostly cloudy	41 5	41 5	0		21 -6	45	30.12	10
Tue Feb  2 22:22:23 2010	Oklahoma City, Oklahoma 73101  	clear sky	36 2	34 1	3	S	30 -1	80	30.19	6
Tue Feb  2 22:22:23 2010	Fort Worth, Texas 76101  	clear sky	46 8	44 7	5	NE	36 2	66	30.18	10
Tue Feb  2 22:22:23 2010	Nashville, Tennessee 37201  	mostly cloudy	45 7	42 6	5	W	36 2	70	30.06	8
Tue Feb  2 22:22:24 2010	Portland, Oregon 97201  	mostly cloudy	28 -2	22 -6	5	SW	11-Dec	50	30.21	10
Tue Feb  2 22:22:24 2010	Chicago, Illinois 60601  	mostly cloudy	32 0	25 -4	8	SW	25 -4	74	29.96	6
Tue Feb  2 22:22:24 2010	Phoenix, Arizona 85001  	mostly cloudy	68 20	68 20	5	N	36 2	30	29.81	10
Tue Feb  2 22:22:25 2010	Indianapolis, Indiana 46201  	mostly cloudy	37 3	32 0	7	SW	25 -4	60	29.96	10
Tue Feb  2 22:22:25 2010	San Antonio, Texas 78201  	mostly cloudy	54 12	51 11	9	NE	48 9	82	30.09	6
Tue Feb  2 22:22:26 2010	Columbus, Ohio 43085  	mostly cloudy	39 4	37 3	3	SE	21 -6	48	29.96	10
Tue Feb  2 22:22:26 2010	Dallas, Texas 75201  	clear sky	48 9	45 7	7	N	34 1	57	30.18	10
Tue Feb  2 22:22:26 2010	Jacksonville, Florida 32099  	mostly cloudy	61 16	59 15	13	NW	55 13	82	29.92	10
Tue Feb  2 22:22:27 2010	Seattle, Washington 98101  	mostly cloudy	50 10	50 10	3	S	41 5	71	29.87	10
Tue Feb  2 22:22:27 2010	Houston, Texas 77001  	mostly cloudy	55 13	53 12	9	NE	50 10	82	30.1	7
Tue Feb  2 22:22:27 2010	Milwaukee, Wisconsin 53201  	mostly cloudy	34 1	34 1	0		27 -3	75	29.95	5
Tue Feb  2 22:22:28 2010	Philadelphia, Pennsylvania 19019  	mostly cloudy	36 2	34 1	3	E	16 -9	44	30.2	10
Tue Feb  2 22:22:28 2010	Detroit, Michigan 48201  	light snow	28 -2	20 -7	8	E	25 -4	86	30.02	1.5
Tue Feb  2 23:06:37 2010	Charlotte, North Carolina 28201  	light rain	37 3	32 0	6	N	36 2	93	29.95	1.7
Tue Feb  2 23:06:37 2010	San Jose, California 95101  	mostly cloudy	57 14	57 14	0		46 8	67	29.83	8
Tue Feb  2 23:06:38 2010	Memphis, Tennessee 37501  	mostly cloudy	45 7	40 4	10	NW	34 1	66	30.14	10
Tue Feb  2 23:06:38 2010	San Diego, California 92101  	mostly cloudy	61 16	60 16	8	W	48 9	63	29.82	10
Tue Feb  2 23:06:38 2010	Denver, Colorado 80214  	clear sky	48 9	48 9	0		16-Mar	15	29.87	10
Tue Feb  2 23:06:39 2010	New York, New York 10001  	mostly cloudy	34 1	29 -2	5	S	16 -9	47	30.22	10
Tue Feb  2 23:06:39 2010	El Paso, Texas 79901  	mostly cloudy	63 17	62 17	20-Oct	E	30 -1	29	29.92	10
Tue Feb  2 23:06:39 2010	Los Angeles, California 90001  	clear sky	64 18	64 18	6	N	50 10	60	29.8	4
Tue Feb  2 23:06:40 2010	Las Vegas, Nevada 89101  	mostly cloudy	57 14	56 13	5	E	30 -1	36	29.82	10
Tue Feb  2 23:06:40 2010	Baltimore, Maryland 21201  	normal	37 3	37 3			25 -4	60	30.13	
Tue Feb  2 23:06:41 2010	Washington, Washington D. C. 20001  	mostly cloudy	39 4	33 1	8	E	21 -6	48	30.12	10
Tue Feb  2 23:06:41 2010	Austin, Texas 73301  	mostly cloudy	54 12	50 10	12	N	46 8	77	30.1	4
Tue Feb  2 23:06:41 2010	San Francisco, California 94101  	mostly cloudy	54 12	54 12	3	N	46 8	77	29.84	10
Tue Feb  2 23:06:42 2010	Nashville, Tennessee 37201  	mostly cloudy	46 8	42 6	7	W	32 0	57	30.06	10
Tue Feb  2 23:06:42 2010	Oklahoma City, Oklahoma 73101  	clear sky	36 2	32 0	5	SW	32 0	87	30.18	5
Tue Feb  2 23:06:42 2010	Fort Worth, Texas 76101  	clear sky	50 10	50 10	3	N	36 2	58	30.17	10
Tue Feb  2 23:06:43 2010	Portland, Oregon 97201  	mostly cloudy	28 -2	22 -6	5	SW	11-Dec	50	30.22	10
Tue Feb  2 23:06:43 2010	Chicago, Illinois 60601  	mostly cloudy	32 0	25 -4	8	W	25 -4	74	29.97	6
Tue Feb  2 23:06:43 2010	Phoenix, Arizona 85001  	mostly cloudy	72 22	76 24	6	E	36 2	27	29.78	10
Tue Feb  2 23:06:44 2010	Indianapolis, Indiana 46201  	mostly cloudy	37 3	29 -2	12	W	25 -4	60	29.97	10
Tue Feb  2 23:06:44 2010	San Antonio, Texas 78201  	mostly cloudy	54 12	51 11	9	NE	48 9	82	30.09	6
Tue Feb  2 23:06:45 2010	Columbus, Ohio 43085  	mostly cloudy	41 5	38 3	5	S	21 -6	45	29.95	10
Tue Feb  2 23:06:45 2010	Jacksonville, Florida 32099  	mostly cloudy	61 16	59 15	12	NW	54 12	77	29.93	10
Tue Feb  2 23:06:45 2010	Dallas, Texas 75201  	clear sky	50 10	50 10	0		36 2	58	30.18	10
Tue Feb  2 23:06:46 2010	Milwaukee, Wisconsin 53201  	light snow	32 0	29 -2	3	W	27 -3	80	29.95	4
Tue Feb  2 23:06:46 2010	Houston, Texas 77001  	mostly cloudy	57 14	55 13	10	NE	50 10	77	30.11	10
Tue Feb  2 23:06:46 2010	Seattle, Washington 98101  	mostly cloudy	52 11	52 11	0		39 4	62	29.84	10
Tue Feb  2 23:06:47 2010	Philadelphia, Pennsylvania 19019  	mostly cloudy	36 2	31 -1	6	E	18 -8	47	30.18	10
Tue Feb  2 23:06:47 2010	Detroit, Michigan 48201  	light snow	28 -2	20 -7	8	E	27 -3	93	30.02	1.2
Tue Feb  2 23:51:58 2010	Charlotte, North Carolina 28201  	light snow	36 2	30 -1	7	N	36 2	100	29.97	1
Tue Feb  2 23:51:58 2010	San Diego, California 92101  	mostly cloudy	61 16	60 16	9	NW	50 10	68	29.81	10
Tue Feb  2 23:51:58 2010	San Jose, California 95101  	mostly cloudy	57 14	57 14	0		48 9	72	29.82	8
Tue Feb  2 23:51:59 2010	Memphis, Tennessee 37501  	mostly cloudy	43 6	38 3	8	NW	34 1	70	30.15	10
Tue Feb  2 23:51:59 2010	Denver, Colorado 80214  	clear sky	48 9	44 7	8	N	13-Sep	20	29.87	10
Tue Feb  2 23:52:00 2010	El Paso, Texas 79901  	mostly cloudy	63 17	62 17	13-17	E	30 -1	29	29.9	10
Tue Feb  2 23:52:00 2010	Los Angeles, California 90001  	clear sky	64 18	64 18	5	W	50 10	60	29.79	5
Tue Feb  2 23:52:01 2010	New York, New York 10001  	mostly cloudy	34 1	29 -2	6	N	18 -8	51	30.2	10
Tue Feb  2 23:52:01 2010	Baltimore, Maryland 21201  	normal	37 3	37 3			23 -5	56	30.13	
Tue Feb  2 23:52:02 2010	Washington, Washington D. C. 20001  	mostly cloudy	37 3	32 0	7	E	27 -3	65	30.12	10
Tue Feb  2 23:52:02 2010	Las Vegas, Nevada 89101  	mostly cloudy	57 14	56 13	7	NE	30 -1	36	29.81	10
Tue Feb  2 23:52:03 2010	Austin, Texas 73301  	mostly cloudy	54 12	50 10	14	NE	46 8	77	30.12	6
Tue Feb  2 23:52:03 2010	San Francisco, California 94101  	mostly cloudy	54 12	54 12	0		46 8	77	29.83	10
Tue Feb  2 23:52:04 2010	Nashville, Tennessee 37201  	mostly cloudy	45 7	42 6	6	W	30 -1	57	30.07	10
Tue Feb  2 23:52:04 2010	Oklahoma City, Oklahoma 73101  	clear sky	36 2	34 1	3	SW	32 0	87	30.18	6
Tue Feb  2 23:52:04 2010	Fort Worth, Texas 76101  	clear sky	50 10	47 8	8	NE	36 2	58	30.16	10
Tue Feb  2 23:52:05 2010	Portland, Oregon 97201  	mostly cloudy	28 -2	21 -6	6	SW	11-Dec	50	30.23	10
Tue Feb  2 23:52:05 2010	Chicago, Illinois 60601  	light snow	30 -1	23 -5	7	W	27 -3	86	29.99	5
Tue Feb  2 23:52:05 2010	Phoenix, Arizona 85001  	mostly cloudy	72 22	76 24	0		36 2	27	29.75	10
Tue Feb  2 23:52:06 2010	Indianapolis, Indiana 46201  	mostly cloudy	37 3	30 -1	9	W	25 -4	60	29.98	10
Tue Feb  2 23:52:06 2010	San Antonio, Texas 78201  	mostly cloudy	52 11	49 9	9	NE	48 9	87	30.1	6
Tue Feb  2 23:52:07 2010	Columbus, Ohio 43085  	mostly cloudy	39 4	37 3	3	S	21 -6	48	29.96	10
Tue Feb  2 23:52:07 2010	Jacksonville, Florida 32099  	mostly cloudy	59 15	58 14	8	NW	54 12	82	29.95	10
Tue Feb  2 23:52:08 2010	Dallas, Texas 75201  	mostly cloudy	52 11	49 9	10	N	36 2	54	30.16	10
Tue Feb  2 23:52:08 2010	Seattle, Washington 98101  	clear sky	54 12	53 12	5	NE	39 4	58	29.82	10
Tue Feb  2 23:52:08 2010	Houston, Texas 77001  	mostly cloudy	57 14	55 13	9	NE	50 10	77	30.11	10
Tue Feb  2 23:52:09 2010	Detroit, Michigan 48201  	light snow	27 -3	19 -7	7	SE	25 -4	93	30.01	2
Tue Feb  2 23:52:09 2010	Milwaukee, Wisconsin 53201  	light snow	32 0	27 -3	5	W	27 -3	80	29.96	4
Tue Feb  2 23:52:10 2010	Philadelphia, Pennsylvania 19019  	mostly cloudy	36 2	31 -1	6	E	18 -8	47	30.17	10
Wed Feb  3 00:36:27 2010	Charlotte, North Carolina 28201  	light snow	36 2	30 -1	7	N	36 2	100	29.97	1
Wed Feb  3 00:36:27 2010	San Jose, California 95101  	mostly cloudy	57 14	57 14	0		48 9	72	29.82	8
Wed Feb  3 00:36:28 2010	Memphis, Tennessee 37501  	mostly cloudy	43 6	38 3	8	NW	34 1	70	30.15	10
Wed Feb  3 00:36:28 2010	San Diego, California 92101  	mostly cloudy	61 16	60 16	9	NW	50 10	68	29.81	10
Wed Feb  3 00:36:28 2010	Denver, Colorado 80214  	clear sky	48 9	44 7	8	N	13-Sep	20	29.87	10
Wed Feb  3 00:36:29 2010	New York, New York 10001  	mostly cloudy	34 1	29 -2	6	N	18 -8	51	30.2	10
Wed Feb  3 00:36:29 2010	El Paso, Texas 79901  	mostly cloudy	63 17	62 17	13-17	E	30 -1	29	29.9	10
Wed Feb  3 00:36:29 2010	Los Angeles, California 90001  	clear sky	64 18	64 18	5	W	50 10	60	29.79	5
Wed Feb  3 00:36:30 2010	Washington, Washington D. C. 20001  	mostly cloudy	37 3	32 0	7	E	27 -3	65	30.12	10
Wed Feb  3 00:36:30 2010	Las Vegas, Nevada 89101  	mostly cloudy	57 14	56 13	7	NE	30 -1	36	29.81	10
Wed Feb  3 00:36:30 2010	Baltimore, Maryland 21201  	normal	37 3	37 3			23 -5	56	30.13	
Wed Feb  3 00:36:31 2010	Nashville, Tennessee 37201  	mostly cloudy	45 7	42 6	6	W	30 -1	57	30.07	10
Wed Feb  3 00:36:31 2010	Oklahoma City, Oklahoma 73101  	clear sky	36 2	34 1	3	SW	32 0	87	30.18	6
Wed Feb  3 00:36:31 2010	Austin, Texas 73301  	mostly cloudy	54 12	50 10	14	NE	46 8	77	30.12	6
Wed Feb  3 00:36:31 2010	San Francisco, California 94101  	mostly cloudy	54 12	54 12	0		46 8	77	29.83	10
Wed Feb  3 00:36:32 2010	Portland, Oregon 97201  	mostly cloudy	28 -2	21 -6	6	SW	11-Dec	50	30.23	10
Wed Feb  3 00:36:32 2010	Fort Worth, Texas 76101  	clear sky	50 10	47 8	8	NE	36 2	58	30.16	10
Wed Feb  3 00:36:32 2010	Phoenix, Arizona 85001  	mostly cloudy	72 22	76 24	0		36 2	27	29.75	10
Wed Feb  3 00:36:33 2010	Indianapolis, Indiana 46201  	mostly cloudy	37 3	30 -1	9	W	25 -4	60	29.98	10
Wed Feb  3 00:36:33 2010	Chicago, Illinois 60601  	light snow	30 -1	23 -5	7	W	27 -3	86	29.99	5
Wed Feb  3 00:36:33 2010	San Antonio, Texas 78201  	mostly cloudy	52 11	49 9	9	NE	48 9	87	30.1	6
Wed Feb  3 00:36:34 2010	Columbus, Ohio 43085  	mostly cloudy	39 4	37 3	3	S	21 -6	48	29.96	10
Wed Feb  3 00:36:34 2010	Jacksonville, Florida 32099  	mostly cloudy	59 15	58 14	8	NW	54 12	82	29.95	10
Wed Feb  3 00:36:35 2010	Dallas, Texas 75201  	mostly cloudy	52 11	49 9	10	N	36 2	54	30.16	10
Wed Feb  3 00:36:35 2010	Seattle, Washington 98101  	clear sky	54 12	53 12	5	NE	39 4	58	29.82	10
Wed Feb  3 00:36:35 2010	Houston, Texas 77001  	mostly cloudy	57 14	55 13	9	NE	50 10	77	30.11	10
Wed Feb  3 00:36:36 2010	Philadelphia, Pennsylvania 19019  	mostly cloudy	36 2	31 -1	6	E	18 -8	47	30.17	10
Wed Feb  3 00:36:36 2010	Detroit, Michigan 48201  	light snow	27 -3	19 -7	7	SE	25 -4	93	30.01	2
Wed Feb  3 00:36:36 2010	Milwaukee, Wisconsin 53201  	light snow	32 0	27 -3	5	W	27 -3	80	29.96	4
Wed Feb  3 01:23:37 2010	Charlotte, North Carolina 28201  	light rain	36 2	30 -1	8	N	34 1	93	29.99	3
Wed Feb  3 01:23:37 2010	San Jose, California 95101  	mostly cloudy	59 15	59 15	5	NW	46 8	63	29.82	9
Wed Feb  3 01:23:38 2010	Denver, Colorado 80214  	clear sky	46 8	42 6	8	N	12-Oct	23	29.87	10
Wed Feb  3 01:23:38 2010	Memphis, Tennessee 37501  	mostly cloudy	41 5	36 2	8	NW	32 0	70	30.17	10
Wed Feb  3 01:23:38 2010	San Diego, California 92101  	mostly cloudy	61 16	60 16	7	NW	50 10	68	29.8	10
Wed Feb  3 01:23:39 2010	New York, New York 10001  	mostly cloudy	34 1	32 0	3	N	19 -7	55	30.19	10
Wed Feb  3 01:23:39 2010	El Paso, Texas 79901  	mostly cloudy	63 17	62 17	17-Sep	SE	32 0	32	29.88	10
Wed Feb  3 01:23:39 2010	Los Angeles, California 90001  	clear sky	64 18	64 18	3	N	50 10	60	29.79	6
Wed Feb  3 01:23:40 2010	Washington, Washington D. C. 20001  	light snow	36 2	30 -1	8	NE	27 -3	69	30.12	5
Wed Feb  3 01:23:40 2010	Baltimore, Maryland 21201  	normal	36 2	36 2			21 -6	55	30.13	
Wed Feb  3 01:23:40 2010	Las Vegas, Nevada 89101  	mostly cloudy	59 15	59 15	0		30 -1	33	29.8	10
Wed Feb  3 01:23:41 2010	Oklahoma City, Oklahoma 73101  	clear sky	36 2	31 -1	6	SW	30 -1	80	30.2	6
Wed Feb  3 01:23:41 2010	Austin, Texas 73301  	mostly cloudy	54 12	51 11	9	NE	46 8	77	30.14	6
Wed Feb  3 01:23:41 2010	San Francisco, California 94101  	mostly cloudy	54 12	54 12	3	NE	48 9	82	29.83	9
Wed Feb  3 01:23:42 2010	Nashville, Tennessee 37201  	mostly cloudy	45 7	42 6	5	W	30 -1	57	30.08	10
Wed Feb  3 01:23:42 2010	Fort Worth, Texas 76101  	clear sky	48 9	44 7	9	NE	34 1	57	30.15	10
Wed Feb  3 01:23:42 2010	Phoenix, Arizona 85001  	mostly cloudy	72 22	76 24	3	SE	37 3	29	29.74	10
Wed Feb  3 01:23:43 2010	Chicago, Illinois 60601  	light snow	30 -1	24 -4	6	W	27 -3	86	29.99	3
Wed Feb  3 01:23:43 2010	San Antonio, Texas 78201  	mostly cloudy	52 11	48 9	13	NE	48 9	87	30.12	3
Wed Feb  3 01:23:43 2010	Portland, Oregon 97201  	mostly cloudy	28 -2	28 -2	0		11-Dec	50	30.22	10
Wed Feb  3 01:23:44 2010	Indianapolis, Indiana 46201  	mostly cloudy	36 2	29 -2	9	W	27 -3	69	30.01	10
Wed Feb  3 01:23:44 2010	Jacksonville, Florida 32099  	mostly cloudy	57 14	54 12	14	NW	52 11	82	29.98	10
Wed Feb  3 01:23:45 2010	Dallas, Texas 75201  	mostly cloudy	50 10	46 8	10	NE	36 2	58	30.16	10
Wed Feb  3 01:23:45 2010	Houston, Texas 77001  	mostly cloudy	57 14	55 13	9	NE	48 9	72	30.13	10
Wed Feb  3 01:23:45 2010	Columbus, Ohio 43085  	mostly cloudy	37 3	37 3	0		23 -5	56	29.97	10
Wed Feb  3 01:23:46 2010	Detroit, Michigan 48201  	light snow	27 -3	19 -7	7	SE	25 -4	93	30.01	2.5
Wed Feb  3 01:23:46 2010	Milwaukee, Wisconsin 53201  	light snow	32 0	29 -2	3	W	27 -3	80	29.97	4
Wed Feb  3 01:23:46 2010	Seattle, Washington 98101  	mostly cloudy	55 13	54 12	5	NE	36 2	47	29.8	10
Wed Feb  3 01:23:47 2010	Philadelphia, Pennsylvania 19019  	mostly cloudy	34 1	27 -3	8	E	19 -7	55	30.16	10
Wed Feb  3 02:08:58 2010	Charlotte, North Carolina 28201  	light rain	36 2	30 -1	17-Aug	E	36 2	100	29.97	3
Wed Feb  3 02:08:58 2010	San Diego, California 92101  	mostly cloudy	61 16	60 16	9	NW	50 10	68	29.8	10
Wed Feb  3 02:08:58 2010	San Jose, California 95101  	light rain	57 14	56 13	6	NW	50 10	77	29.83	9
Wed Feb  3 02:08:59 2010	Denver, Colorado 80214  	clear sky	39 4	34 1	7	N	16 -9	38	29.88	10
Wed Feb  3 02:08:59 2010	Memphis, Tennessee 37501  	mostly cloudy	41 5	38 3	5	NW	32 0	70	30.19	10
Wed Feb  3 02:09:00 2010	New York, New York 10001  	mostly cloudy	32 0	25 -4	7	N	19 -7	59	30.18	10
Wed Feb  3 02:09:00 2010	El Paso, Texas 79901  	mostly cloudy	61 16	59 15	13	E	34 1	36	29.88	10
Wed Feb  3 02:09:00 2010	Los Angeles, California 90001  	clear sky	64 18	64 18	3	N	48 9	56	29.78	10
Wed Feb  3 02:09:01 2010	Washington, Washington D. C. 20001  	light snow	34 1	29 -2	6	NE	28 -2	80	30.12	1.7
Wed Feb  3 02:09:01 2010	Las Vegas, Nevada 89101  	mostly cloudy	57 14	56 13	5	NE	30 -1	36	29.79	10
Wed Feb  3 02:09:01 2010	Baltimore, Maryland 21201  	normal	34 1	34 1			25 -4	69	30.12	
Wed Feb  3 02:09:02 2010	Austin, Texas 73301  	mostly cloudy	52 11	49 9	8	N	46 8	82	30.15	6
Wed Feb  3 02:09:02 2010	San Francisco, California 94101  	mostly cloudy	54 12	54 12	3	NE	48 9	82	29.83	9
Wed Feb  3 02:09:03 2010	Nashville, Tennessee 37201  	mostly cloudy	43 6	40 4	5	NW	30 -1	61	30.1	10
Wed Feb  3 02:09:03 2010	Oklahoma City, Oklahoma 73101  	clear sky	32 0	27 -3	5	S	30 -1	93	30.19	5
Wed Feb  3 02:09:03 2010	Fort Worth, Texas 76101  	clear sky	46 8	42 6	8	N	36 2	66	30.15	10
Wed Feb  3 02:09:04 2010	Portland, Oregon 97201  	clear sky	28 -2	25 -4	3	SW	16 -9	59	30.21	10
Wed Feb  3 02:09:04 2010	Chicago, Illinois 60601  	light snow	30 -1	23 -5	7	W	27 -3	86	30.01	4
Wed Feb  3 02:09:04 2010	Phoenix, Arizona 85001  	mostly cloudy	72 22	76 24	3	E	37 3	29	29.73	10
Wed Feb  3 02:09:05 2010	Indianapolis, Indiana 46201  	mostly cloudy	34 1	26 -3	10	W	27 -3	75	30.02	10
Wed Feb  3 02:09:05 2010	San Antonio, Texas 78201  	mostly cloudy	52 11	49 9	10	NE	48 9	87	30.12	3
Wed Feb  3 02:09:06 2010	Jacksonville, Florida 32099  	mostly cloudy	57 14	55 13	9	NW	52 11	82	30	10
Wed Feb  3 02:09:06 2010	Columbus, Ohio 43085  	mostly cloudy	37 3	37 3	0		19 -7	48	29.98	10
Wed Feb  3 02:09:07 2010	Dallas, Texas 75201  	mostly cloudy	48 9	45 7	6	N	36 2	62	30.16	10
Wed Feb  3 02:09:07 2010	Seattle, Washington 98101  	mostly cloudy	54 12	54 12	3	NW	39 4	58	29.8	10
Wed Feb  3 02:09:07 2010	Houston, Texas 77001  	mostly cloudy	57 14	56 13	7	NE	48 9	72	30.15	10
Wed Feb  3 02:09:08 2010	Detroit, Michigan 48201  	mostly cloudy	27 -3	20 -7	6	SE	25 -4	93	30.02	4
Wed Feb  3 02:09:08 2010	Milwaukee, Wisconsin 53201  	light snow	32 0	27 -3	5	W	27 -3	80	29.98	4
Wed Feb  3 02:09:09 2010	Philadelphia, Pennsylvania 19019  	mostly cloudy	34 1	29 -2	6	E	21 -6	59	30.17	10
Wed Feb  3 03:00:14 2010	San Jose, California 95101  	light rain	55 13	55 13	0		48 9	77	29.84	9
Wed Feb  3 03:00:15 2010	Charlotte, North Carolina 28201  	mostly cloudy	36 2	31 -1	6	E	36 2	100	29.96	4
Wed Feb  3 03:00:15 2010	San Diego, California 92101  	mostly cloudy	59 15	58 14	6	NW	50 10	72	29.81	10
Wed Feb  3 03:00:16 2010	Denver, Colorado 80214  	clear sky	37 3	35 2	3	N	16 -9	41	29.89	10
Wed Feb  3 03:00:16 2010	Memphis, Tennessee 37501  	mostly cloudy	39 4	37 3	3	NW	30 -1	70	30.21	10
Wed Feb  3 03:00:16 2010	Los Angeles, California 90001  	clear sky	63 17	63 17	5	W	48 9	59	29.78	9
Wed Feb  3 03:00:17 2010	New York, New York 10001  	mostly cloudy	32 0	25 -4	8	SE	21 -6	64	30.18	9
Wed Feb  3 03:00:17 2010	El Paso, Texas 79901  	mostly cloudy	57 14	55 13	10	E	34 1	41	29.88	10
Wed Feb  3 03:00:17 2010	Baltimore, Maryland 21201  	normal	32 0	32 0			28 -2	86	30.11	
Wed Feb  3 03:00:18 2010	Washington, Washington D. C. 20001  	light snow	34 1	29 -2	6	NE	28 -2	80	30.11	1.2
Wed Feb  3 03:00:18 2010	Las Vegas, Nevada 89101  	mostly cloudy	57 14	56 13	5	E	32 0	38	29.79	10
Wed Feb  3 03:00:18 2010	Austin, Texas 73301  	mostly cloudy	48 9	45 7	7	N	45 7	87	30.15	8
Wed Feb  3 03:00:19 2010	Oklahoma City, Oklahoma 73101  	clear sky	30 -1	25 -4	5	S	28 -2	93	30.2	4
Wed Feb  3 03:00:19 2010	Nashville, Tennessee 37201  	mostly cloudy	43 6	38 3	8	NW	30 -1	61	30.12	10
Wed Feb  3 03:00:19 2010	San Francisco, California 94101  	mostly cloudy	54 12	54 12	3	E	48 9	82	29.84	10
Wed Feb  3 03:00:20 2010	Portland, Oregon 97201  	mostly cloudy	25 -4	19 -7	5	NE	16 -9	68	30.2	10
Wed Feb  3 03:00:20 2010	Fort Worth, Texas 76101  	clear sky	45 7	42 6	6	E	34 1	66	30.19	10
Wed Feb  3 03:00:20 2010	Phoenix, Arizona 85001  	mostly cloudy	70 21	76 24	0		39 4	33	29.73	10
Wed Feb  3 03:00:21 2010	Chicago, Illinois 60601  	light snow	32 0	23 -5	12	W	27 -3	80	30.03	4
Wed Feb  3 03:00:21 2010	Indianapolis, Indiana 46201  	mostly cloudy	34 1	25 -4	12	W	28 -2	80	30.04	10
Wed Feb  3 03:00:21 2010	San Antonio, Texas 78201  	mostly cloudy	52 11	49 9	8	NE	48 9	87	30.12	3
Wed Feb  3 03:00:22 2010	Columbus, Ohio 43085  	mostly cloudy	36 2	34 1	3	NW	25 -4	64	29.98	10
Wed Feb  3 03:00:22 2010	Jacksonville, Florida 32099  	mostly cloudy	57 14	54 12	12	N	52 11	82	30.01	10
Wed Feb  3 03:00:23 2010	Seattle, Washington 98101  	mostly cloudy	52 11	50 10	6	NW	39 4	62	29.79	10
Wed Feb  3 03:00:23 2010	Houston, Texas 77001  	mostly cloudy	55 13	54 12	6	NE	48 9	77	30.15	10
Wed Feb  3 03:00:23 2010	Dallas, Texas 75201  	mostly cloudy	48 9	48 9	0		36 2	62	30.21	10
Wed Feb  3 03:00:24 2010	Philadelphia, Pennsylvania 19019  	mostly cloudy	34 1	29 -2	6	E	21 -6	59	30.16	10
Wed Feb  3 03:00:24 2010	Detroit, Michigan 48201  	mostly cloudy	27 -3	24 -4	3	SE	25 -4	93	30.02	4
Wed Feb  3 03:00:24 2010	Milwaukee, Wisconsin 53201  	light snow	32 0	29 -2	3	W	27 -3	80	30	3
Wed Feb  3 03:43:40 2010	Charlotte, North Carolina 28201  	light rain	37 3	33 1	5	N	36 2	93	29.98	4
Wed Feb  3 03:43:40 2010	San Jose, California 95101  	mostly cloudy	55 13	55 13	0		48 9	77	29.83	10
Wed Feb  3 03:43:41 2010	Memphis, Tennessee 37501  	clear sky	37 3	35 2	3	NW	30 -1	75	30.23	10
Wed Feb  3 03:43:41 2010	San Diego, California 92101  	mostly cloudy	59 15	58 14	6	NW	52 11	77	29.81	10
Wed Feb  3 03:43:41 2010	Denver, Colorado 80214  	clear sky	34 1	34 1	0		16 -9	47	29.89	10
Wed Feb  3 03:43:42 2010	New York, New York 10001  	light snow	30 -1	24 -4	6	E	25 -4	80	30.16	2.5
Wed Feb  3 03:43:42 2010	El Paso, Texas 79901  	mostly cloudy	54 12	51 11	9	E	34 1	47	29.88	10
Wed Feb  3 03:43:42 2010	Los Angeles, California 90001  	mostly cloudy	61 16	61 16	3	W	50 10	68	29.78	10
Wed Feb  3 03:43:43 2010	Washington, Washington D. C. 20001  	light snow	34 1	28 -2	7	NE	30 -1	86	30.1	1.5
Wed Feb  3 03:43:43 2010	Las Vegas, Nevada 89101  	mostly cloudy	55 13	54 12	5	NE	32 0	41	29.79	10
Wed Feb  3 03:43:43 2010	Baltimore, Maryland 21201  	normal	32 0	32 0			28 -2	86	30.1	
Wed Feb  3 03:43:44 2010	Oklahoma City, Oklahoma 73101  	mostly cloudy	32 0	27 -3	5	S	30 -1	93	30.21	2.5
Wed Feb  3 03:43:44 2010	Austin, Texas 73301  	mostly cloudy	52 11	50 10	6	NE	46 8	82	30.15	8
Wed Feb  3 03:43:44 2010	San Francisco, California 94101  	mostly cloudy	54 12	54 12	0		48 9	82	29.84	10
Wed Feb  3 03:43:45 2010	Portland, Oregon 97201  	mostly cloudy	27 -3	24 -4	3	NE	16 -9	63	30.19	10
Wed Feb  3 03:43:45 2010	Nashville, Tennessee 37201  	mostly cloudy	41 5	38 3	5	NW	30 -1	65	30.14	10
Wed Feb  3 03:43:45 2010	Fort Worth, Texas 76101  	clear sky	43 6	39 4	6	NE	34 1	70	30.18	10
Wed Feb  3 03:43:45 2010	Phoenix, Arizona 85001  	mostly cloudy	66 19	66 19	0		43 6	43	29.72	10
Wed Feb  3 03:43:46 2010	Chicago, Illinois 60601  	light snow	30 -1	20 -7	13	W	25 -4	80	30.05	5
Wed Feb  3 03:43:46 2010	Indianapolis, Indiana 46201  	light snow	34 1	26 -3	10	W	28 -2	80	30.05	8
Wed Feb  3 03:43:46 2010	San Antonio, Texas 78201  	mostly cloudy	52 11	48 9	12	NE	46 8	82	30.11	6
Wed Feb  3 03:43:47 2010	Columbus, Ohio 43085  	mostly cloudy	36 2	31 -1	6	N	25 -4	64	29.99	10
Wed Feb  3 03:43:47 2010	Jacksonville, Florida 32099  	mostly cloudy	55 13	51 11	14	NW	48 9	77	30.03	10
Wed Feb  3 03:43:48 2010	Dallas, Texas 75201  	mostly cloudy	45 7	42 6	5	NE	36 2	70	30.2	10
Wed Feb  3 03:43:48 2010	Seattle, Washington 98101  	clear sky	52 11	51 11	5	W	39 4	62	29.78	10
Wed Feb  3 03:43:48 2010	Houston, Texas 77001  	mostly cloudy	55 13	54 12	6	E	48 9	77	30.16	10
Wed Feb  3 03:43:49 2010	Philadelphia, Pennsylvania 19019  	mostly cloudy	34 1	29 -2	5	NE	21 -6	59	30.14	10
Wed Feb  3 03:43:49 2010	Detroit, Michigan 48201  	mostly cloudy	27 -3	20 -7	6	SE	25 -4	93	30.02	4
Wed Feb  3 03:43:49 2010	Milwaukee, Wisconsin 53201  	light snow	30 -1	24 -4	6	W	27 -3	86	30.01	3
Wed Feb  3 04:32:03 2010	Charlotte, North Carolina 28201  	light rain	37 3	33 1	5	N	36 2	93	29.98	4
Wed Feb  3 04:32:03 2010	San Jose, California 95101  	mostly cloudy	55 13	55 13	0		48 9	77	29.83	10
Wed Feb  3 04:32:04 2010	Memphis, Tennessee 37501  	clear sky	37 3	35 2	3	NW	30 -1	75	30.23	10
Wed Feb  3 04:32:04 2010	San Diego, California 92101  	mostly cloudy	59 15	58 14	6	NW	52 11	77	29.81	10
Wed Feb  3 04:32:04 2010	Denver, Colorado 80214  	clear sky	34 1	34 1	0		16 -9	47	29.89	10
Wed Feb  3 04:32:05 2010	New York, New York 10001  	light snow	30 -1	24 -4	6	E	25 -4	80	30.16	2.5
Wed Feb  3 04:32:05 2010	El Paso, Texas 79901  	mostly cloudy	54 12	51 11	9	E	34 1	47	29.88	10
Wed Feb  3 04:32:05 2010	Los Angeles, California 90001  	mostly cloudy	61 16	61 16	3	W	50 10	68	29.78	10
Wed Feb  3 04:32:06 2010	Washington, Washington D. C. 20001  	light snow	34 1	28 -2	7	NE	30 -1	86	30.1	1.5
Wed Feb  3 04:32:06 2010	Las Vegas, Nevada 89101  	mostly cloudy	55 13	54 12	5	NE	32 0	41	29.79	10
Wed Feb  3 04:32:06 2010	Baltimore, Maryland 21201  	normal	32 0	32 0			28 -2	86	30.1	
Wed Feb  3 04:32:07 2010	Oklahoma City, Oklahoma 73101  	mostly cloudy	32 0	27 -3	5	S	30 -1	93	30.21	2.5
Wed Feb  3 04:32:07 2010	Austin, Texas 73301  	mostly cloudy	52 11	50 10	6	NE	46 8	82	30.15	8
Wed Feb  3 04:32:07 2010	San Francisco, California 94101  	mostly cloudy	54 12	54 12	0		48 9	82	29.84	10
Wed Feb  3 04:32:08 2010	Nashville, Tennessee 37201  	mostly cloudy	41 5	38 3	5	NW	30 -1	65	30.14	10
Wed Feb  3 04:32:08 2010	Fort Worth, Texas 76101  	clear sky	43 6	39 4	6	NE	34 1	70	30.18	10
Wed Feb  3 04:32:08 2010	Phoenix, Arizona 85001  	mostly cloudy	66 19	66 19	0		43 6	43	29.72	10
Wed Feb  3 04:32:09 2010	Portland, Oregon 97201  	mostly cloudy	27 -3	24 -4	3	NE	16 -9	63	30.19	10
Wed Feb  3 04:32:09 2010	Chicago, Illinois 60601  	light snow	30 -1	20 -7	13	W	25 -4	80	30.05	5
Wed Feb  3 04:32:09 2010	San Antonio, Texas 78201  	mostly cloudy	52 11	48 9	12	NE	46 8	82	30.11	6
Wed Feb  3 04:32:10 2010	Indianapolis, Indiana 46201  	light snow	34 1	26 -3	10	W	28 -2	80	30.05	8
Wed Feb  3 04:32:10 2010	Jacksonville, Florida 32099  	mostly cloudy	55 13	51 11	14	NW	48 9	77	30.03	10
Wed Feb  3 04:32:11 2010	Columbus, Ohio 43085  	mostly cloudy	36 2	31 -1	6	N	25 -4	64	29.99	10
Wed Feb  3 04:32:11 2010	Dallas, Texas 75201  	mostly cloudy	45 7	42 6	5	NE	36 2	70	30.2	10
Wed Feb  3 04:32:11 2010	Houston, Texas 77001  	mostly cloudy	55 13	54 12	6	E	48 9	77	30.16	10
Wed Feb  3 04:32:12 2010	Detroit, Michigan 48201  	mostly cloudy	27 -3	20 -7	6	SE	25 -4	93	30.02	4
Wed Feb  3 04:32:12 2010	Milwaukee, Wisconsin 53201  	light snow	30 -1	24 -4	6	W	27 -3	86	30.01	3
Wed Feb  3 04:32:12 2010	Seattle, Washington 98101  	clear sky	52 11	51 11	5	W	39 4	62	29.78	10
Wed Feb  3 04:32:13 2010	Philadelphia, Pennsylvania 19019  	mostly cloudy	34 1	29 -2	5	NE	21 -6	59	30.14	10
Wed Feb  3 05:18:59 2010	Charlotte, North Carolina 28201  	mostly cloudy	37 3	33 1	5	NW	36 2	93	30	7
Wed Feb  3 05:18:59 2010	San Diego, California 92101  	mostly cloudy	57 14	56 13	6	NW	50 10	77	29.82	10
Wed Feb  3 05:18:59 2010	San Jose, California 95101  	mostly cloudy	55 13	55 13	0		48 9	77	29.84	10
Wed Feb  3 05:19:00 2010	Denver, Colorado 80214  	clear sky	34 1	34 1	0		16 -9	47	29.9	10
Wed Feb  3 05:19:00 2010	Memphis, Tennessee 37501  	clear sky	36 2	36 2	0		30 -1	80	30.23	10
Wed Feb  3 05:19:01 2010	New York, New York 10001  	light snow	30 -1	25 -4	5	NE	25 -4	80	30.15	2
Wed Feb  3 05:19:01 2010	El Paso, Texas 79901  	mostly cloudy	54 12	50 10	12	E	36 2	50	29.88	10
Wed Feb  3 05:19:01 2010	Los Angeles, California 90001  	clear sky	57 14	57 14	0		48 9	72	29.79	10
Wed Feb  3 05:19:02 2010	Washington, Washington D. C. 20001  	light snow	32 0	26 -3	6	N	30 -1	93	30.1	1
Wed Feb  3 05:19:02 2010	Las Vegas, Nevada 89101  	mostly cloudy	54 12	52 11	6	N	34 1	47	29.8	10
Wed Feb  3 05:19:02 2010	Baltimore, Maryland 21201  	normal	32 0	32 0			30 -1	93	30.09	
Wed Feb  3 05:19:03 2010	Oklahoma City, Oklahoma 73101  	mostly cloudy	32 0	25 -4	7	S	30 -1	93	30.21	0.5
Wed Feb  3 05:19:03 2010	Austin, Texas 73301  	mostly cloudy	52 11	50 10	7	NE	46 8	82	30.15	8
Wed Feb  3 05:19:03 2010	San Francisco, California 94101  	mostly cloudy	55 13	55 13	3	NW	48 9	77	29.85	10
Wed Feb  3 05:19:04 2010	Nashville, Tennessee 37201  	mostly cloudy	39 4	33 1	8	W	30 -1	70	30.17	10
Wed Feb  3 05:19:04 2010	Fort Worth, Texas 76101  	clear sky	43 6	42 6	3	E	34 1	70	30.21	10
Wed Feb  3 05:19:04 2010	Phoenix, Arizona 85001  	mostly cloudy	63 17	63 17	3	SW	46 8	55	29.73	10
Wed Feb  3 05:19:05 2010	Portland, Oregon 97201  	mostly cloudy	28 -2	22 -6	5	E	16 -9	59	30.17	10
Wed Feb  3 05:19:05 2010	Chicago, Illinois 60601  	light snow	28 -2	19 -7	10	W	21 -6	74	30.07	5
Wed Feb  3 05:19:05 2010	San Antonio, Texas 78201  	mostly cloudy	52 11	49 9	10	NE	46 8	82	30.12	9
Wed Feb  3 05:19:06 2010	Indianapolis, Indiana 46201  	mostly cloudy	34 1	26 -3	10	W	28 -2	80	30.07	10
Wed Feb  3 05:19:06 2010	Jacksonville, Florida 32099  	mostly cloudy	55 13	52 11	10	NW	48 9	77	30.04	10
Wed Feb  3 05:19:07 2010	Columbus, Ohio 43085  	mostly cloudy	34 1	32 0	3	NW	27 -3	75	30	10
Wed Feb  3 05:19:07 2010	Dallas, Texas 75201  	clear sky	45 7	41 5	7	E	36 2	70	30.21	10
Wed Feb  3 05:19:07 2010	Houston, Texas 77001  	mostly cloudy	55 13	54 12	6	NE	48 9	77	30.17	10
Wed Feb  3 05:19:08 2010	Milwaukee, Wisconsin 53201  	light snow	30 -1	25 -4	5	W	27 -3	86	30.02	3
Wed Feb  3 05:19:08 2010	Detroit, Michigan 48201  	light snow	27 -3	27 -3	0		25 -4	93	30.02	2.5
Wed Feb  3 05:19:08 2010	Seattle, Washington 98101  	mostly cloudy	50 10	50 10	0		39 4	66	29.77	10
Wed Feb  3 05:19:09 2010	Philadelphia, Pennsylvania 19019  	mostly cloudy	34 1	29 -2	5	NE	21 -6	59	30.12	10
Wed Feb  3 06:06:39 2010	Charlotte, North Carolina 28201  	mostly cloudy	37 3	32 0	6	NW	36 2	93	30.02	8
Wed Feb  3 06:06:39 2010	San Jose, California 95101  	mostly cloudy	54 12	52 11	6	W	48 9	82	29.84	10
Wed Feb  3 06:06:40 2010	Denver, Colorado 80214  	clear sky	32 0	29 -2	3	S	14 -10	47	29.9	10
Wed Feb  3 06:06:40 2010	San Diego, California 92101  	mostly cloudy	57 14	57 14	3	N	52 11	82	29.82	10
Wed Feb  3 06:06:40 2010	Memphis, Tennessee 37501  	clear sky	36 2	36 2	0		28 -2	75	30.24	10
Wed Feb  3 06:06:41 2010	New York, New York 10001  	light snow	28 -2	22 -6	5	N	27 -3	93	30.12	1.7
Wed Feb  3 06:06:41 2010	El Paso, Texas 79901  	mostly cloudy	50 10	45 7	12	E	37 3	62	29.87	10
Wed Feb  3 06:06:41 2010	Los Angeles, California 90001  	clear sky	57 14	57 14	0		50 10	77	29.79	9
Wed Feb  3 06:06:42 2010	Washington, Washington D. C. 20001  	light snow	32 0	25 -4	7	NE	28 -2	86	30.07	0.7
Wed Feb  3 06:06:42 2010	Las Vegas, Nevada 89101  	mostly cloudy	52 11	52 11	3	W	34 1	50	29.8	10
Wed Feb  3 06:06:42 2010	Baltimore, Maryland 21201  	normal	32 0	32 0			28 -2	86	30.07	
Wed Feb  3 06:06:43 2010	Oklahoma City, Oklahoma 73101  	normal	32 0	26 -3	6	S	30 -1	93	30.21	0.2
Wed Feb  3 06:06:43 2010	Austin, Texas 73301  	mostly cloudy	50 10	48 9	5	NE	46 8	87	30.16	7
Wed Feb  3 06:06:43 2010	San Francisco, California 94101  	mostly cloudy	55 13	54 12	5	S	50 10	82	29.84	10
Wed Feb  3 06:06:44 2010	Nashville, Tennessee 37201  	mostly cloudy	39 4	34 1	7	NW	28 -2	65	30.19	10
Wed Feb  3 06:06:44 2010	Phoenix, Arizona 85001  	mostly cloudy	63 17	63 17	5	SW	45 7	52	29.71	10
Wed Feb  3 06:06:44 2010	Fort Worth, Texas 76101  	clear sky	37 3	37 3	0		34 1	87	30.2	10
Wed Feb  3 06:06:45 2010	Chicago, Illinois 60601  	mostly cloudy	25 -4	16 -9	9	W	19 -7	80	30.08	4
Wed Feb  3 06:06:45 2010	San Antonio, Texas 78201  	light rain	52 11	49 9	9	NE	46 8	82	30.12	8
Wed Feb  3 06:06:45 2010	Portland, Oregon 97201  	mostly cloudy	28 -2	28 -2	0		18 -8	63	30.16	10
Wed Feb  3 06:06:46 2010	Indianapolis, Indiana 46201  	mostly cloudy	32 0	24 -4	10	W	27 -3	80	30.09	10
Wed Feb  3 06:06:46 2010	Jacksonville, Florida 32099  	mostly cloudy	54 12	51 11	10	NW	48 9	82	30.07	10
Wed Feb  3 06:06:47 2010	Columbus, Ohio 43085  	mostly cloudy	36 2	30 -1	7	W	27 -3	69	30.01	9
Wed Feb  3 06:06:47 2010	Dallas, Texas 75201  	clear sky	43 6	42 6	3	E	36 2	75	30.21	10
Wed Feb  3 06:06:47 2010	Houston, Texas 77001  	mostly cloudy	54 12	51 11	9	NE	48 9	82	30.14	10
Wed Feb  3 06:06:48 2010	Detroit, Michigan 48201  	mostly cloudy	27 -3	24 -4	3	SW	25 -4	93	30.03	3
Wed Feb  3 06:06:48 2010	Milwaukee, Wisconsin 53201  	light snow	30 -1	25 -4	5	W	27 -3	86	30.03	3
Wed Feb  3 06:06:48 2010	Seattle, Washington 98101  	clear sky	48 9	48 9	0		39 4	71	29.77	10
Wed Feb  3 06:06:49 2010	Philadelphia, Pennsylvania 19019  	light snow	30 -1	25 -4	5	N	27 -3	86	30.1	3
Wed Feb  3 06:53:31 2010	San Jose, California 95101  	clear sky	52 11	52 11	0		48 9	87	29.84	8
Wed Feb  3 06:53:32 2010	Denver, Colorado 80214  	clear sky	28 -2	22 -6	5	S	16 -9	59	29.89	10
Wed Feb  3 06:53:32 2010	San Diego, California 92101  	mostly cloudy	57 14	56 13	5	N	52 11	82	29.82	10
Wed Feb  3 06:53:32 2010	Charlotte, North Carolina 28201  	mostly cloudy	37 3	37 3	0		36 2	93	30.03	9
Wed Feb  3 06:53:33 2010	El Paso, Texas 79901  	mostly cloudy	50 10	44 7	16	E	36 2	58	29.89	10
Wed Feb  3 06:53:33 2010	Los Angeles, California 90001  	clear sky	55 13	55 13	0		52 11	88	29.79	8
Wed Feb  3 06:53:33 2010	Memphis, Tennessee 37501  	clear sky	32 0	32 0	0		27 -3	80	30.23	10
Wed Feb  3 06:53:34 2010	New York, New York 10001  	light snow	28 -2	25 -4	3	N	27 -3	93	30.11	1.2
Wed Feb  3 06:53:34 2010	Baltimore, Maryland 21201  	normal	32 0	32 0			28 -2	86	30.06	
Wed Feb  3 06:53:35 2010	Washington, Washington D. C. 20001  	moderate snow	32 0	26 -3	6	NE	28 -2	86	30.06	0.5
Wed Feb  3 06:53:35 2010	Las Vegas, Nevada 89101  	mostly cloudy	52 11	52 11	3	W	34 1	50	29.79	10
Wed Feb  3 06:53:35 2010	Austin, Texas 73301  	mostly cloudy	52 11	50 10	6	NE	46 8	82	30.15	8
Wed Feb  3 06:53:36 2010	Nashville, Tennessee 37201  	mostly cloudy	37 3	32 0	7	NW	28 -2	70	30.19	10
Wed Feb  3 06:53:36 2010	Oklahoma City, Oklahoma 73101  	normal	30 -1	23 -5	7	S	30 -1	100	30.22	0.5
Wed Feb  3 06:53:36 2010	Fort Worth, Texas 76101  	clear sky	39 4	35 2	5	NE	34 1	81	30.21	10
Wed Feb  3 06:53:36 2010	San Francisco, California 94101  	mostly cloudy	54 12	54 12	0		50 10	88	29.84	10
Wed Feb  3 06:53:37 2010	Phoenix, Arizona 85001  	mostly cloudy	61 16	61 16	5	SW	46 8	59	29.71	10
Wed Feb  3 06:53:37 2010	Portland, Oregon 97201  	mostly cloudy	28 -2	28 -2	0		19 -7	69	30.13	10
Wed Feb  3 06:53:38 2010	Chicago, Illinois 60601  	mostly cloudy	25 -4	16 -9	8	W	19 -7	80	30.09	4
Wed Feb  3 06:53:38 2010	Indianapolis, Indiana 46201  	mostly cloudy	32 0	24 -4	9	W	27 -3	80	30.1	10
Wed Feb  3 06:53:38 2010	San Antonio, Texas 78201  	moderate rain	50 10	46 8	10	NE	48 9	94	30.11	2
Wed Feb  3 06:53:39 2010	Columbus, Ohio 43085  	mostly cloudy	34 1	27 -3	9	W	28 -2	80	30.02	9
Wed Feb  3 06:53:39 2010	Jacksonville, Florida 32099  	mostly cloudy	52 11	49 9	18-Sep	W	45 7	76	30.07	10
Wed Feb  3 06:53:40 2010	Dallas, Texas 75201  	mostly cloudy	41 5	39 4	3	E	36 2	81	30.21	10
Wed Feb  3 06:53:40 2010	Houston, Texas 77001  	mostly cloudy	54 12	52 11	7	NE	48 9	82	30.15	10
Wed Feb  3 06:53:40 2010	Seattle, Washington 98101  	clear sky	46 8	46 8	0		39 4	76	29.77	10
Wed Feb  3 06:53:41 2010	Milwaukee, Wisconsin 53201  	mostly cloudy	30 -1	25 -4	5	W	27 -3	86	30.05	3
Wed Feb  3 06:53:41 2010	Philadelphia, Pennsylvania 19019  	light snow	30 -1	24 -4	6	N	28 -2	93	30.08	3
Wed Feb  3 06:53:41 2010	Detroit, Michigan 48201  	light snow	27 -3	27 -3	0		25 -4	93	30.02	2.5
Wed Feb  3 07:38:00 2010	San Diego, California 92101  	mostly cloudy	57 14	56 13	5	N	52 11	82	29.82	10
Wed Feb  3 07:38:00 2010	Charlotte, North Carolina 28201  	mostly cloudy	37 3	37 3	0		36 2	93	30.03	9
Wed Feb  3 07:38:00 2010	San Jose, California 95101  	clear sky	52 11	52 11	0		48 9	87	29.84	8
Wed Feb  3 07:38:01 2010	Denver, Colorado 80214  	clear sky	28 -2	22 -6	5	S	16 -9	59	29.89	10
Wed Feb  3 07:38:01 2010	El Paso, Texas 79901  	mostly cloudy	50 10	44 7	16	E	36 2	58	29.89	10
Wed Feb  3 07:38:01 2010	Los Angeles, California 90001  	clear sky	55 13	55 13	0		52 11	88	29.79	8
Wed Feb  3 07:38:01 2010	Memphis, Tennessee 37501  	clear sky	32 0	32 0	0		27 -3	80	30.23	10
Wed Feb  3 07:38:02 2010	New York, New York 10001  	light snow	28 -2	25 -4	3	N	27 -3	93	30.11	1.2
Wed Feb  3 07:38:02 2010	Las Vegas, Nevada 89101  	mostly cloudy	52 11	52 11	3	W	34 1	50	29.79	10
Wed Feb  3 07:38:02 2010	Baltimore, Maryland 21201  	normal	32 0	32 0			28 -2	86	30.06	
Wed Feb  3 07:38:03 2010	Washington, Washington D. C. 20001  	moderate snow	32 0	26 -3	6	NE	28 -2	86	30.06	0.5
Wed Feb  3 07:38:03 2010	Austin, Texas 73301  	mostly cloudy	52 11	50 10	6	NE	46 8	82	30.15	8
Wed Feb  3 07:38:03 2010	San Francisco, California 94101  	mostly cloudy	54 12	54 12	0		50 10	88	29.84	10
Wed Feb  3 07:38:04 2010	Nashville, Tennessee 37201  	mostly cloudy	37 3	32 0	7	NW	28 -2	70	30.19	10
Wed Feb  3 07:38:04 2010	Oklahoma City, Oklahoma 73101  	normal	30 -1	23 -5	7	S	30 -1	100	30.22	0.5
Wed Feb  3 07:38:04 2010	Fort Worth, Texas 76101  	clear sky	39 4	35 2	5	NE	34 1	81	30.21	10
Wed Feb  3 07:38:05 2010	Chicago, Illinois 60601  	mostly cloudy	25 -4	16 -9	8	W	19 -7	80	30.09	4
Wed Feb  3 07:38:05 2010	Phoenix, Arizona 85001  	mostly cloudy	61 16	61 16	5	SW	46 8	59	29.71	10
Wed Feb  3 07:38:05 2010	Portland, Oregon 97201  	mostly cloudy	28 -2	28 -2	0		19 -7	69	30.13	10
Wed Feb  3 07:38:06 2010	Indianapolis, Indiana 46201  	mostly cloudy	32 0	24 -4	9	W	27 -3	80	30.1	10
Wed Feb  3 07:38:06 2010	San Antonio, Texas 78201  	moderate rain	50 10	46 8	10	NE	48 9	94	30.11	2
Wed Feb  3 07:38:07 2010	Columbus, Ohio 43085  	mostly cloudy	34 1	27 -3	9	W	28 -2	80	30.02	9
Wed Feb  3 07:38:07 2010	Dallas, Texas 75201  	mostly cloudy	41 5	39 4	3	E	36 2	81	30.21	10
Wed Feb  3 07:38:07 2010	Jacksonville, Florida 32099  	mostly cloudy	52 11	49 9	18-Sep	W	45 7	76	30.07	10
Wed Feb  3 07:38:07 2010	Houston, Texas 77001  	mostly cloudy	54 12	52 11	7	NE	48 9	82	30.15	10
Wed Feb  3 07:38:08 2010	Milwaukee, Wisconsin 53201  	mostly cloudy	30 -1	25 -4	5	W	27 -3	86	30.05	3
Wed Feb  3 07:38:08 2010	Detroit, Michigan 48201  	light snow	27 -3	27 -3	0		25 -4	93	30.02	2.5
Wed Feb  3 07:38:08 2010	Seattle, Washington 98101  	clear sky	46 8	46 8	0		39 4	76	29.77	10
Wed Feb  3 07:38:09 2010	Philadelphia, Pennsylvania 19019  	light snow	30 -1	24 -4	6	N	28 -2	93	30.08	3
Wed Feb  3 08:21:02 2010	San Jose, California 95101  	clear sky	50 10	50 10	3	S	48 9	94	29.85	8
Wed Feb  3 08:21:02 2010	San Diego, California 92101  	mostly cloudy	57 14	57 14	3	N	52 11	82	29.82	10
Wed Feb  3 08:21:02 2010	Charlotte, North Carolina 28201  	mostly cloudy	37 3	37 3	0		36 2	93	30.02	9
Wed Feb  3 08:21:03 2010	Denver, Colorado 80214  	clear sky	28 -2	21 -6	6	S	11-Dec	50	29.89	10
Wed Feb  3 08:21:03 2010	Memphis, Tennessee 37501  	clear sky	30 -1	30 -1	0		27 -3	86	30.25	10
Wed Feb  3 08:21:04 2010	New York, New York 10001  	light snow	28 -2	22 -6	5	N	27 -3	93	30.08	2
Wed Feb  3 08:21:04 2010	El Paso, Texas 79901  	light rain	46 8	46 8	0		39 4	76	29.89	10
Wed Feb  3 08:21:04 2010	Los Angeles, California 90001  	mostly cloudy	57 14	57 14	0		52 11	82	29.79	8
Wed Feb  3 08:21:05 2010	Washington, Washington D. C. 20001  	light snow	32 0	26 -3	6	N	30 -1	93	30.05	0.7
Wed Feb  3 08:21:05 2010	Las Vegas, Nevada 89101  	mostly cloudy	50 10	50 10	3	W	36 2	58	29.79	10
Wed Feb  3 08:21:05 2010	Baltimore, Maryland 21201  	normal	32 0	32 0			28 -2	86	30.04	
Wed Feb  3 08:21:06 2010	Oklahoma City, Oklahoma 73101  	mostly cloudy	30 -1	25 -4	5	S	28 -2	93	30.2	0.5
Wed Feb  3 08:21:06 2010	Austin, Texas 73301  	light rain	50 10	46 8	9	NE	45 7	82	30.14	8
Wed Feb  3 08:21:06 2010	San Francisco, California 94101  	clear sky	54 12	54 12	0		50 10	88	29.85	10
Wed Feb  3 08:21:07 2010	Nashville, Tennessee 37201  	mostly cloudy	37 3	31 -1	8	NW	28 -2	70	30.21	10
Wed Feb  3 08:21:07 2010	Fort Worth, Texas 76101  	clear sky	39 4	35 2	6	NE	34 1	81	30.21	10
Wed Feb  3 08:21:07 2010	Phoenix, Arizona 85001  	mostly cloudy	61 16	61 16	3	W	46 8	59	29.69	10
Wed Feb  3 08:21:08 2010	Chicago, Illinois 60601  	mostly cloudy	25 -4	14 -10	12	W	19 -7	80	30.1	4
Wed Feb  3 08:21:08 2010	San Antonio, Texas 78201  	light rain	50 10	45 7	12	NE	48 9	94	30.09	5
Wed Feb  3 08:21:08 2010	Portland, Oregon 97201  	mostly cloudy	27 -3	27 -3	0		18 -8	68	30.11	10
Wed Feb  3 08:21:09 2010	Indianapolis, Indiana 46201  	mostly cloudy	32 0	25 -4	8	W	27 -3	80	30.09	10
Wed Feb  3 08:21:09 2010	Jacksonville, Florida 32099  	mostly cloudy	52 11	47 8	16-18	NW	45 7	76	30.08	10
Wed Feb  3 08:21:10 2010	Columbus, Ohio 43085  	mostly cloudy	34 1	25 -4	12	W	27 -3	75	30.03	7
Wed Feb  3 08:21:10 2010	Houston, Texas 77001  	mostly cloudy	54 12	52 11	6	E	46 8	77	30.14	10
Wed Feb  3 08:21:10 2010	Dallas, Texas 75201  	mostly cloudy	41 5	41 5	0		36 2	81	30.22	10
Wed Feb  3 08:21:11 2010	Milwaukee, Wisconsin 53201  	mostly cloudy	30 -1	25 -4	5	W	27 -3	86	30.05	3
Wed Feb  3 08:21:11 2010	Seattle, Washington 98101  	clear sky	46 8	46 8	0		37 3	71	29.76	10
Wed Feb  3 08:21:12 2010	Philadelphia, Pennsylvania 19019  	light snow	30 -1	24 -4	6	N	28 -2	93	30.07	2
Wed Feb  3 08:21:12 2010	Detroit, Michigan 48201  	mostly cloudy	27 -3	27 -3	0		25 -4	93	30.03	3
Wed Feb  3 09:07:42 2010	Charlotte, North Carolina 28201  	mostly cloudy	37 3	35 2	3	NW	36 2	93	30.03	7
Wed Feb  3 09:07:42 2010	San Jose, California 95101  	clear sky	50 10	50 10	3	SE	48 9	94	29.84	9
Wed Feb  3 09:07:43 2010	Denver, Colorado 80214  	clear sky	27 -3	20 -7	6	S	11-Dec	54	29.89	10
Wed Feb  3 09:07:43 2010	Memphis, Tennessee 37501  	clear sky	34 1	32 0	3	N	27 -3	75	30.25	10
Wed Feb  3 09:07:43 2010	San Diego, California 92101  	mostly cloudy	57 14	57 14	3	N	52 11	82	29.81	8
Wed Feb  3 09:07:44 2010	New York, New York 10001  	light snow	28 -2	21 -6	7	NE	27 -3	93	30.07	3
Wed Feb  3 09:07:44 2010	El Paso, Texas 79901  	mostly cloudy	46 8	41 5	10	NE	37 3	71	29.84	10
Wed Feb  3 09:07:44 2010	Los Angeles, California 90001  	mostly cloudy	55 13	55 13	0		52 11	88	29.79	8
Wed Feb  3 09:07:45 2010	Washington, Washington D. C. 20001  	light snow	34 1	28 -2	7	N	28 -2	80	30.06	1.5
Wed Feb  3 09:07:45 2010	Baltimore, Maryland 21201  	normal	32 0	32 0			28 -2	86	30.04	
Wed Feb  3 09:07:45 2010	Las Vegas, Nevada 89101  	mostly cloudy	48 9	48 9	0		36 2	62	29.79	10
Wed Feb  3 09:07:46 2010	Oklahoma City, Oklahoma 73101  	mostly cloudy	30 -1	24 -4	6	S	28 -2	93	30.2	0.5
Wed Feb  3 09:07:46 2010	Austin, Texas 73301  	mostly cloudy	48 9	45 7	7	N	46 8	93	30.12	8
Wed Feb  3 09:07:46 2010	San Francisco, California 94101  	mostly cloudy	52 11	52 11	0		46 8	82	29.85	10
Wed Feb  3 09:07:47 2010	Nashville, Tennessee 37201  	mostly cloudy	37 3	31 -1	8	N	28 -2	70	30.21	10
Wed Feb  3 09:07:47 2010	Fort Worth, Texas 76101  	clear sky	37 3	32 0	7	NE	34 1	87	30.18	10
Wed Feb  3 09:07:47 2010	Phoenix, Arizona 85001  	mostly cloudy	59 15	59 15	3	SW	45 7	59	29.68	10
Wed Feb  3 09:07:48 2010	Chicago, Illinois 60601  	mostly cloudy	25 -4	15 -9	10	W	19 -7	80	30.12	4
Wed Feb  3 09:07:48 2010	Portland, Oregon 97201  	mostly cloudy	27 -3	21 -6	5	N	21 -6	80	30.09	10
Wed Feb  3 09:07:48 2010	San Antonio, Texas 78201  	light rain	50 10	47 8	18-Aug	E	48 9	94	30.05	4
Wed Feb  3 09:07:49 2010	Indianapolis, Indiana 46201  	mostly cloudy	32 0	25 -4	8	W	27 -3	80	30.12	7
Wed Feb  3 09:07:50 2010	Columbus, Ohio 43085  	mostly cloudy	34 1	25 -4	12	W	27 -3	75	30.05	6
Wed Feb  3 09:07:50 2010	Dallas, Texas 75201  	mostly cloudy	37 3	35 2	3	NE	34 1	87	30.21	10
Wed Feb  3 09:07:50 2010	Jacksonville, Florida 32099  	mostly cloudy	52 11	47 8	15-22	NW	43 6	71	30.09	10
Wed Feb  3 09:07:51 2010	Milwaukee, Wisconsin 53201  	mostly cloudy	30 -1	23 -5	7	NW	27 -3	86	30.07	5
Wed Feb  3 09:07:51 2010	Houston, Texas 77001  	mostly cloudy	54 12	53 12	5	NE	46 8	77	30.14	10
Wed Feb  3 09:07:51 2010	Seattle, Washington 98101  	clear sky	45 7	45 7	0		37 3	76	29.76	10
Wed Feb  3 09:07:52 2010	Detroit, Michigan 48201  	clear sky	28 -2	25 -4	3	W	25 -4	86	30.03	4
Wed Feb  3 09:07:52 2010	Philadelphia, Pennsylvania 19019  	light snow	30 -1	24 -4	6	N	28 -2	93	30.06	2.5
Wed Feb  3 09:51:20 2010	Charlotte, North Carolina 28201  	mostly cloudy	37 3	32 0	7	N	36 2	93	30.05	5
Wed Feb  3 09:51:20 2010	San Jose, California 95101  	clear sky	48 9	48 9	0		46 8	93	29.85	9
Wed Feb  3 09:51:21 2010	Denver, Colorado 80214  	clear sky	27 -3	20 -7	6	S	12-Oct	50	29.89	10
Wed Feb  3 09:51:21 2010	San Diego, California 92101  	mostly cloudy	57 14	57 14	3	N	52 11	82	29.8	7
Wed Feb  3 09:51:23 2010	El Paso, Texas 79901  	mostly cloudy	46 8	41 5	9	N	37 3	71	29.85	10
Wed Feb  3 09:51:23 2010	Los Angeles, California 90001  	mostly cloudy	55 13	55 13	0		52 11	88	29.79	7
Wed Feb  3 09:51:23 2010	Memphis, Tennessee 37501  	clear sky	30 -1	30 -1	0		27 -3	86	30.24	9
Wed Feb  3 09:51:24 2010	New York, New York 10001  	mostly cloudy	28 -2	20 -7	8	E	27 -3	93	30.06	8
Wed Feb  3 09:51:24 2010	Las Vegas, Nevada 89101  	mostly cloudy	48 9	47 8	3	W	36 2	62	29.77	10
Wed Feb  3 09:51:24 2010	Baltimore, Maryland 21201  	normal	32 0	32 0			28 -2	86	30.04	
Wed Feb  3 09:51:25 2010	Washington, Washington D. C. 20001  	light snow	34 1	32 0	3	NE	30 -1	86	30.05	3
Wed Feb  3 09:51:25 2010	Austin, Texas 73301  	mostly cloudy	48 9	44 7	8	NE	46 8	93	30.07	6
Wed Feb  3 09:51:26 2010	Oklahoma City, Oklahoma 73101  	mostly cloudy	30 -1	22 -6	9	S	28 -2	93	30.2	0.5
Wed Feb  3 09:51:26 2010	San Francisco, California 94101  	clear sky	52 11	52 11	0		46 8	82	29.85	10
Wed Feb  3 09:51:27 2010	Nashville, Tennessee 37201  	mostly cloudy	36 2	30 -1	8	N	25 -4	64	30.24	10
Wed Feb  3 09:51:27 2010	Fort Worth, Texas 76101  	clear sky	37 3	33 1	5	E	34 1	87	30.16	10
Wed Feb  3 09:51:27 2010	Phoenix, Arizona 85001  	mostly cloudy	57 14	56 13	5	SW	45 7	63	29.67	10
Wed Feb  3 09:51:28 2010	Chicago, Illinois 60601  	mostly cloudy	25 -4	14 -10	12	W	19 -7	80	30.14	4
Wed Feb  3 09:51:28 2010	Portland, Oregon 97201  	mostly cloudy	28 -2	25 -4	3	N	23 -5	80	30.08	10
Wed Feb  3 09:51:29 2010	San Antonio, Texas 78201  	light rain	50 10	46 8	18-Oct	E	48 9	94	30.04	3
Wed Feb  3 09:51:30 2010	Indianapolis, Indiana 46201  	mostly cloudy	30 -1	20 -7	13	NW	27 -3	86	30.15	4
Wed Feb  3 09:51:30 2010	Jacksonville, Florida 32099  	mostly cloudy	52 11	48 9	13	NW	43 6	71	30.08	10
Wed Feb  3 09:51:31 2010	Columbus, Ohio 43085  	mostly cloudy	34 1	25 -4	12	W	28 -2	80	30.06	5
Wed Feb  3 09:51:31 2010	Dallas, Texas 75201  	mostly cloudy	37 3	32 0	7	E	34 1	87	30.17	10
Wed Feb  3 09:51:32 2010	Houston, Texas 77001  	mostly cloudy	52 11	49 9	9	E	45 7	76	30.11	10
Wed Feb  3 09:51:32 2010	Seattle, Washington 98101  	mostly cloudy	45 7	45 7	0		37 3	76	29.76	10
Wed Feb  3 09:51:33 2010	Detroit, Michigan 48201  	mostly cloudy	28 -2	25 -4	3	W	25 -4	86	30.04	4
Wed Feb  3 09:51:33 2010	Milwaukee, Wisconsin 53201  	mostly cloudy	28 -2	20 -7	8	NW	25 -4	86	30.09	4
Wed Feb  3 09:51:33 2010	Philadelphia, Pennsylvania 19019  	light snow	30 -1	30 -1	0		28 -2	93	30.06	2.5
Wed Feb  3 10:35:00 2010	Charlotte, North Carolina 28201  	mostly cloudy	37 3	32 0	7	N	36 2	93	30.05	5
Wed Feb  3 10:35:00 2010	San Jose, California 95101  	clear sky	48 9	48 9	0		46 8	93	29.85	9
Wed Feb  3 10:35:01 2010	Denver, Colorado 80214  	clear sky	27 -3	20 -7	6	S	12-Oct	50	29.89	10
Wed Feb  3 10:35:01 2010	San Diego, California 92101  	mostly cloudy	57 14	57 14	3	N	52 11	82	29.8	7
Wed Feb  3 10:35:02 2010	Los Angeles, California 90001  	mostly cloudy	55 13	55 13	0		52 11	88	29.79	7
Wed Feb  3 10:35:02 2010	Memphis, Tennessee 37501  	clear sky	30 -1	30 -1	0		27 -3	86	30.24	9
Wed Feb  3 10:35:03 2010	New York, New York 10001  	mostly cloudy	28 -2	20 -7	8	E	27 -3	93	30.06	8
Wed Feb  3 10:35:03 2010	El Paso, Texas 79901  	mostly cloudy	46 8	41 5	9	N	37 3	71	29.85	10
Wed Feb  3 10:35:03 2010	Baltimore, Maryland 21201  	normal	32 0	32 0			28 -2	86	30.04	
Wed Feb  3 10:35:04 2010	Washington, Washington D. C. 20001  	light snow	34 1	32 0	3	NE	30 -1	86	30.05	3
Wed Feb  3 10:35:04 2010	Las Vegas, Nevada 89101  	mostly cloudy	48 9	47 8	3	W	36 2	62	29.77	10
Wed Feb  3 10:35:05 2010	Austin, Texas 73301  	mostly cloudy	48 9	44 7	8	NE	46 8	93	30.07	6
Wed Feb  3 10:35:05 2010	San Francisco, California 94101  	clear sky	52 11	52 11	0		46 8	82	29.85	10
Wed Feb  3 10:35:06 2010	Nashville, Tennessee 37201  	mostly cloudy	36 2	30 -1	8	N	25 -4	64	30.24	10
Wed Feb  3 10:35:06 2010	Oklahoma City, Oklahoma 73101  	mostly cloudy	30 -1	22 -6	9	S	28 -2	93	30.2	0.5
Wed Feb  3 10:35:06 2010	Fort Worth, Texas 76101  	clear sky	37 3	33 1	5	E	34 1	87	30.16	10
Wed Feb  3 10:35:07 2010	Portland, Oregon 97201  	mostly cloudy	28 -2	25 -4	3	N	23 -5	80	30.08	10
Wed Feb  3 10:35:07 2010	Phoenix, Arizona 85001  	mostly cloudy	57 14	56 13	5	SW	45 7	63	29.67	10
Wed Feb  3 10:35:08 2010	Chicago, Illinois 60601  	mostly cloudy	25 -4	14 -10	12	W	19 -7	80	30.14	4
Wed Feb  3 10:35:08 2010	Indianapolis, Indiana 46201  	mostly cloudy	30 -1	20 -7	13	NW	27 -3	86	30.15	4
Wed Feb  3 10:35:08 2010	San Antonio, Texas 78201  	light rain	50 10	46 8	18-Oct	E	48 9	94	30.04	3
Wed Feb  3 10:35:09 2010	Jacksonville, Florida 32099  	mostly cloudy	52 11	48 9	13	NW	43 6	71	30.08	10
Wed Feb  3 10:35:10 2010	Columbus, Ohio 43085  	mostly cloudy	34 1	25 -4	12	W	28 -2	80	30.06	5
Wed Feb  3 10:35:10 2010	Dallas, Texas 75201  	mostly cloudy	37 3	32 0	7	E	34 1	87	30.17	10
Wed Feb  3 10:35:10 2010	Houston, Texas 77001  	mostly cloudy	52 11	49 9	9	E	45 7	76	30.11	10
Wed Feb  3 10:35:11 2010	Milwaukee, Wisconsin 53201  	mostly cloudy	28 -2	20 -7	8	NW	25 -4	86	30.09	4
Wed Feb  3 10:35:11 2010	Seattle, Washington 98101  	mostly cloudy	45 7	45 7	0		37 3	76	29.76	10
Wed Feb  3 10:35:12 2010	Detroit, Michigan 48201  	mostly cloudy	28 -2	25 -4	3	W	25 -4	86	30.04	4
Wed Feb  3 10:35:12 2010	Philadelphia, Pennsylvania 19019  	light snow	30 -1	30 -1	0		28 -2	93	30.06	2.5
Wed Feb  3 11:21:46 2010	San Jose, California 95101  	clear sky	46 8	46 8	0		45 7	93	29.85	10
Wed Feb  3 11:21:47 2010	Charlotte, North Carolina 28201  	mostly cloudy	36 2	34 1	3	NW	36 2	100	30.06	3
Wed Feb  3 11:21:47 2010	San Diego, California 92101  	clear sky	55 13	55 13	0		50 10	82	29.78	6
Wed Feb  3 11:21:48 2010	Memphis, Tennessee 37501  	clear sky	28 -2	25 -4	3	S	25 -4	86	30.25	9
Wed Feb  3 11:21:48 2010	Denver, Colorado 80214  	clear sky	27 -3	20 -7	6	S	13-Sep	46	29.88	10
Wed Feb  3 11:21:48 2010	Los Angeles, California 90001  	clear sky	55 13	55 13	0		50 10	82	29.78	7
Wed Feb  3 11:21:49 2010	New York, New York 10001  	light snow	28 -2	21 -6	6	E	27 -3	93	30.06	2.5
Wed Feb  3 11:21:49 2010	El Paso, Texas 79901  	light rain	45 7	45 7	0		39 4	81	29.82	8
Wed Feb  3 11:21:50 2010	Washington, Washington D. C. 20001  	light snow	34 1	28 -2	7	NW	28 -2	80	30.06	4
Wed Feb  3 11:21:50 2010	Baltimore, Maryland 21201  	normal	32 0	32 0			28 -2	86	30.04	
Wed Feb  3 11:21:50 2010	Las Vegas, Nevada 89101  	mostly cloudy	48 9	48 9	0		36 2	62	29.77	10
Wed Feb  3 11:21:51 2010	Austin, Texas 73301  	light rain	48 9	44 7	9	NE	45 7	87	30.05	5
Wed Feb  3 11:21:51 2010	San Francisco, California 94101  	mostly cloudy	50 10	48 9	5	W	46 8	87	29.85	10
Wed Feb  3 11:21:52 2010	Nashville, Tennessee 37201  	mostly cloudy	36 2	30 -1	7	N	25 -4	64	30.24	10
Wed Feb  3 11:21:52 2010	Oklahoma City, Oklahoma 73101  	normal	28 -2	25 -4	3	S	28 -2	100	30.18	0.5
Wed Feb  3 11:21:52 2010	Fort Worth, Texas 76101  	clear sky	37 3	32 0	7	NE	34 1	87	30.14	10
Wed Feb  3 11:21:53 2010	Chicago, Illinois 60601  	mostly cloudy	25 -4	15 -9	10	W	19 -7	80	30.15	4
Wed Feb  3 11:21:53 2010	Portland, Oregon 97201  	mostly cloudy	30 -1	22 -6	8	N	21 -6	69	30.06	10
Wed Feb  3 11:21:53 2010	Phoenix, Arizona 85001  	mostly cloudy	55 13	54 12	5	SW	45 7	67	29.66	10
Wed Feb  3 11:21:54 2010	Indianapolis, Indiana 46201  	light snow	28 -2	21 -6	7	W	27 -3	93	30.15	4
Wed Feb  3 11:21:54 2010	San Antonio, Texas 78201  	light rain	50 10	46 8	9	E	48 9	94	30.03	4
Wed Feb  3 11:21:55 2010	Columbus, Ohio 43085  	mostly cloudy	32 0	22 -6	14	W	28 -2	86	30.1	4
Wed Feb  3 11:21:55 2010	Jacksonville, Florida 32099  	clear sky	50 10	46 8	10	NW	43 6	76	30.1	10
Wed Feb  3 11:21:56 2010	Dallas, Texas 75201  	mostly cloudy	37 3	35 2	3	NE	34 1	87	30.16	10
Wed Feb  3 11:21:56 2010	Houston, Texas 77001  	mostly cloudy	52 11	49 9	10	E	45 7	76	30.09	10
Wed Feb  3 11:21:56 2010	Seattle, Washington 98101  	mostly cloudy	45 7	45 7	0		37 3	76	29.75	10
Wed Feb  3 11:21:57 2010	Milwaukee, Wisconsin 53201  	mostly cloudy	28 -2	20 -7	8	W	23 -5	80	30.11	5
Wed Feb  3 11:21:57 2010	Detroit, Michigan 48201  	clear sky	28 -2	22 -6	5	W	27 -3	93	30.05	4
Wed Feb  3 11:21:57 2010	Philadelphia, Pennsylvania 19019  	light snow	30 -1	30 -1	0		28 -2	93	30.06	2
Wed Feb  3 12:06:41 2010	San Jose, California 95101  	mostly cloudy	45 7	42 6	5	E	45 7	100	29.84	7
Wed Feb  3 12:06:42 2010	Charlotte, North Carolina 28201  	mostly cloudy	36 2	32 0	5	N	36 2	100	30.07	4
Wed Feb  3 12:06:42 2010	Denver, Colorado 80214  	clear sky	27 -3	21 -6	5	SE	13-Sep	46	29.87	10
Wed Feb  3 12:06:42 2010	San Diego, California 92101  	mostly cloudy	55 13	55 13	0		52 11	88	29.77	6
Wed Feb  3 12:06:43 2010	El Paso, Texas 79901  	light rain	45 7	41 5	8	E	39 4	81	29.82	7
Wed Feb  3 12:06:43 2010	Los Angeles, California 90001  	clear sky	54 12	54 12	0		48 9	82	29.77	6
Wed Feb  3 12:06:43 2010	Memphis, Tennessee 37501  	clear sky	28 -2	28 -2	0		27 -3	93	30.24	9
Wed Feb  3 12:06:44 2010	New York, New York 10001  	light snow	28 -2	21 -6	6	NE	27 -3	93	30.06	2.5
Wed Feb  3 12:06:44 2010	Baltimore, Maryland 21201  	normal	32 0	32 0			28 -2	86	30.05	
Wed Feb  3 12:06:45 2010	Washington, Washington D. C. 20001  	light snow	32 0	25 -4	8	NW	28 -2	86	30.06	4
Wed Feb  3 12:06:45 2010	Austin, Texas 73301  	light rain	48 9	44 7	10	NE	45 7	87	30.05	5
Wed Feb  3 12:06:45 2010	Las Vegas, Nevada 89101  	mostly cloudy	46 8	46 8	0		36 2	66	29.76	10
Wed Feb  3 12:06:46 2010	Nashville, Tennessee 37201  	mostly cloudy	36 2	34 1	3	NE	27 -3	69	30.24	10
Wed Feb  3 12:06:46 2010	Oklahoma City, Oklahoma 73101  	mostly cloudy	28 -2	22 -6	5	S	28 -2	100	30.19	0.2
Wed Feb  3 12:06:46 2010	San Francisco, California 94101  	clear sky	48 9	48 9	0		46 8	93	29.84	10
Wed Feb  3 12:06:47 2010	Portland, Oregon 97201  	mostly cloudy	28 -2	20 -7	8	N	23 -5	80	30.05	10
Wed Feb  3 12:06:47 2010	Phoenix, Arizona 85001  	mostly cloudy	57 14	56 13	5	W	43 6	59	29.64	10
Wed Feb  3 12:06:47 2010	Fort Worth, Texas 76101  	clear sky	36 2	36 2	0		34 1	93	30.15	9
Wed Feb  3 12:06:48 2010	Chicago, Illinois 60601  	mostly cloudy	25 -4	15 -9	10	W	19 -7	80	30.16	4
Wed Feb  3 12:06:48 2010	Indianapolis, Indiana 46201  	mostly cloudy	28 -2	17 -8	13	W	21 -6	74	30.15	7
Wed Feb  3 12:06:48 2010	San Antonio, Texas 78201  	light rain	48 9	44 7	8	NE	48 9	100	30.01	4
Wed Feb  3 12:06:49 2010	Jacksonville, Florida 32099  	mostly cloudy	48 9	45 7	6	NW	43 6	81	30.09	10
Wed Feb  3 12:06:50 2010	Columbus, Ohio 43085  	light snow	32 0	23 -5	12	W	28 -2	86	30.11	3
Wed Feb  3 12:06:50 2010	Dallas, Texas 75201  	mostly cloudy	37 3	32 0	7	NE	34 1	87	30.16	10
Wed Feb  3 12:06:50 2010	Houston, Texas 77001  	mostly cloudy	52 11	49 9	10	E	45 7	76	30.08	10
Wed Feb  3 12:06:51 2010	Milwaukee, Wisconsin 53201  	mostly cloudy	28 -2	20 -7	8	NW	23 -5	80	30.12	5
Wed Feb  3 12:06:51 2010	Detroit, Michigan 48201  	mostly cloudy	28 -2	25 -4	3	W	27 -3	93	30.06	4
Wed Feb  3 12:06:51 2010	Seattle, Washington 98101  	mostly cloudy	43 6	43 6	0		37 3	81	29.74	10
Wed Feb  3 12:06:52 2010	Philadelphia, Pennsylvania 19019  	light snow	30 -1	30 -1	0		28 -2	93	30.06	1.5
Wed Feb  3 12:49:28 2010	Charlotte, North Carolina 28201  	mostly cloudy	36 2	34 1	3	NW	36 2	100	30.07	4
Wed Feb  3 12:49:28 2010	San Jose, California 95101  	clear sky	46 8	45 7	3	S	45 7	93	29.84	10
Wed Feb  3 12:49:29 2010	San Diego, California 92101  	mostly cloudy	55 13	54 12	5	N	50 10	82	29.77	7
Wed Feb  3 12:49:29 2010	Denver, Colorado 80214  	clear sky	25 -4	18 -8	6	S	13-Sep	49	29.88	10
Wed Feb  3 12:49:30 2010	El Paso, Texas 79901  	light rain	43 6	36 2	14-22	E	39 4	87	29.74	8
Wed Feb  3 12:49:30 2010	Los Angeles, California 90001  	clear sky	52 11	52 11	0		48 9	87	29.75	6
Wed Feb  3 12:49:30 2010	Memphis, Tennessee 37501  	clear sky	28 -2	28 -2	0		25 -4	86	30.24	9
Wed Feb  3 12:49:31 2010	Baltimore, Maryland 21201  	normal	32 0	32 0			28 -2	86	30.06	
Wed Feb  3 12:49:31 2010	New York, New York 10001  	mostly cloudy	28 -2	28 -2	0		27 -3	93	30.06	4
Wed Feb  3 12:49:32 2010	Austin, Texas 73301  	light rain	46 8	42 6	8	NE	45 7	93	30.05	2.5
Wed Feb  3 12:49:32 2010	Las Vegas, Nevada 89101  	clear sky	46 8	46 8	0		36 2	66	29.74	10
Wed Feb  3 12:49:32 2010	Washington, Washington D. C. 20001  	mostly cloudy	32 0	32 0	0		28 -2	86	30.07	4
Wed Feb  3 12:49:33 2010	Oklahoma City, Oklahoma 73101  	normal	28 -2	28 -2	0		28 -2	100	30.16	0.2
Wed Feb  3 12:49:33 2010	San Francisco, California 94101  	clear sky	48 9	48 9	0		46 8	93	29.84	10
Wed Feb  3 12:49:34 2010	Fort Worth, Texas 76101  	clear sky	36 2	31 -1	6	NE	34 1	93	30.13	9
Wed Feb  3 12:49:34 2010	Phoenix, Arizona 85001  	mostly cloudy	55 13	55 13	3	SW	45 7	67	29.63	10
Wed Feb  3 12:49:34 2010	Nashville, Tennessee 37201  	mostly cloudy	34 1	34 1	0		27 -3	75	30.23	10
Wed Feb  3 12:49:35 2010	Chicago, Illinois 60601  	mostly cloudy	25 -4	17 -8	7	SW	19 -7	80	30.19	5
Wed Feb  3 12:49:35 2010	Portland, Oregon 97201  	light snow	28 -2	22 -6	5	NE	27 -3	93	30.06	2.5
Wed Feb  3 12:49:36 2010	Indianapolis, Indiana 46201  	mostly cloudy	25 -4	16 -9	9	NW	19 -7	80	30.18	7
Wed Feb  3 12:49:36 2010	San Antonio, Texas 78201  	moderate rain	48 9	44 7	9	E	48 9	100	30	4
Wed Feb  3 12:49:37 2010	Columbus, Ohio 43085  	mostly cloudy	32 0	24 -4	10	W	28 -2	86	30.13	4
Wed Feb  3 12:49:37 2010	Jacksonville, Florida 32099  	mostly cloudy	46 8	45 7	3	W	43 6	87	30.11	10
Wed Feb  3 12:49:38 2010	Houston, Texas 77001  	mostly cloudy	50 10	46 8	9	E	45 7	82	30.1	9
Wed Feb  3 12:49:38 2010	Dallas, Texas 75201  	mostly cloudy	39 4	39 4	0		34 1	81	30.14	10
Wed Feb  3 12:49:39 2010	Milwaukee, Wisconsin 53201  	mostly cloudy	27 -3	18 -8	10	NW	19 -7	74	30.15	7
Wed Feb  3 12:49:39 2010	Seattle, Washington 98101  	mostly cloudy	43 6	43 6	0		37 3	81	29.74	10
Wed Feb  3 12:49:40 2010	Detroit, Michigan 48201  	light snow	28 -2	25 -4	3	W	27 -3	93	30.09	2
Wed Feb  3 12:49:40 2010	Philadelphia, Pennsylvania 19019  	mostly cloudy	30 -1	27 -3	3	N	28 -2	93	30.06	4
Wed Feb  3 13:33:32 2010	Charlotte, North Carolina 28201  	mostly cloudy	36 2	34 1	3	NW	36 2	100	30.07	4
Wed Feb  3 13:33:32 2010	San Jose, California 95101  	clear sky	46 8	45 7	3	S	45 7	93	29.84	10
Wed Feb  3 13:33:32 2010	San Diego, California 92101  	mostly cloudy	55 13	54 12	5	N	50 10	82	29.77	7
Wed Feb  3 13:33:33 2010	Denver, Colorado 80214  	clear sky	25 -4	18 -8	6	S	13-Sep	49	29.88	10
Wed Feb  3 13:33:33 2010	Los Angeles, California 90001  	clear sky	52 11	52 11	0		48 9	87	29.75	6
Wed Feb  3 13:33:33 2010	Memphis, Tennessee 37501  	clear sky	28 -2	28 -2	0		25 -4	86	30.24	9
Wed Feb  3 13:33:34 2010	El Paso, Texas 79901  	light rain	43 6	36 2	14-22	E	39 4	87	29.74	8
Wed Feb  3 13:33:34 2010	Baltimore, Maryland 21201  	normal	32 0	32 0			28 -2	86	30.06	
Wed Feb  3 13:33:34 2010	New York, New York 10001  	mostly cloudy	28 -2	28 -2	0		27 -3	93	30.06	4
Wed Feb  3 13:33:35 2010	Austin, Texas 73301  	light rain	46 8	42 6	8	NE	45 7	93	30.05	2.5
Wed Feb  3 13:33:35 2010	Las Vegas, Nevada 89101  	clear sky	46 8	46 8	0		36 2	66	29.74	10
Wed Feb  3 13:33:35 2010	Washington, Washington D. C. 20001  	mostly cloudy	32 0	32 0	0		28 -2	86	30.07	4
Wed Feb  3 13:33:36 2010	Oklahoma City, Oklahoma 73101  	normal	28 -2	28 -2	0		28 -2	100	30.16	0.2
Wed Feb  3 13:33:36 2010	San Francisco, California 94101  	clear sky	48 9	48 9	0		46 8	93	29.84	10
Wed Feb  3 13:33:37 2010	Fort Worth, Texas 76101  	clear sky	36 2	31 -1	6	NE	34 1	93	30.13	9
Wed Feb  3 13:33:37 2010	Phoenix, Arizona 85001  	mostly cloudy	55 13	55 13	3	SW	45 7	67	29.63	10
Wed Feb  3 13:33:37 2010	Nashville, Tennessee 37201  	mostly cloudy	34 1	34 1	0		27 -3	75	30.23	10
Wed Feb  3 13:33:38 2010	Chicago, Illinois 60601  	mostly cloudy	25 -4	17 -8	7	SW	19 -7	80	30.19	5
Wed Feb  3 13:33:38 2010	Portland, Oregon 97201  	light snow	28 -2	22 -6	5	NE	27 -3	93	30.06	2.5
Wed Feb  3 13:33:38 2010	San Antonio, Texas 78201  	moderate rain	48 9	44 7	9	E	48 9	100	30	4
Wed Feb  3 13:33:39 2010	Indianapolis, Indiana 46201  	mostly cloudy	25 -4	16 -9	9	NW	19 -7	80	30.18	7
Wed Feb  3 13:33:39 2010	Jacksonville, Florida 32099  	mostly cloudy	46 8	45 7	3	W	43 6	87	30.11	10
Wed Feb  3 13:33:40 2010	Columbus, Ohio 43085  	mostly cloudy	32 0	24 -4	10	W	28 -2	86	30.13	4
Wed Feb  3 13:33:40 2010	Houston, Texas 77001  	mostly cloudy	50 10	46 8	9	E	45 7	82	30.1	9
Wed Feb  3 13:33:40 2010	Dallas, Texas 75201  	mostly cloudy	39 4	39 4	0		34 1	81	30.14	10
Wed Feb  3 13:33:41 2010	Milwaukee, Wisconsin 53201  	mostly cloudy	27 -3	18 -8	10	NW	19 -7	74	30.15	7
Wed Feb  3 13:33:41 2010	Seattle, Washington 98101  	mostly cloudy	43 6	43 6	0		37 3	81	29.74	10
Wed Feb  3 13:33:42 2010	Detroit, Michigan 48201  	light snow	28 -2	25 -4	3	W	27 -3	93	30.09	2
Wed Feb  3 13:33:42 2010	Philadelphia, Pennsylvania 19019  	mostly cloudy	30 -1	27 -3	3	N	28 -2	93	30.06	4
Wed Feb  3 14:19:31 2010	Charlotte, North Carolina 28201  	mostly cloudy	37 3	35 2	3	N	36 2	93	30.09	5
Wed Feb  3 14:19:31 2010	San Jose, California 95101  	clear sky	46 8	46 8	0		45 7	93	29.83	7
Wed Feb  3 14:19:32 2010	Denver, Colorado 80214  	clear sky	25 -4	25 -4	0		13-Sep	49	29.9	10
Wed Feb  3 14:19:32 2010	San Diego, California 92101  	mostly cloudy	55 13	55 13	0		50 10	82	29.77	6
Wed Feb  3 14:19:33 2010	El Paso, Texas 79901  	light rain	43 6	36 2	14	E	39 4	87	29.73	10
Wed Feb  3 14:19:33 2010	Los Angeles, California 90001  	clear sky	52 11	52 11	0		46 8	82	29.75	8
Wed Feb  3 14:19:33 2010	Memphis, Tennessee 37501  	clear sky	28 -2	28 -2	0		25 -4	86	30.28	9
Wed Feb  3 14:19:34 2010	Baltimore, Maryland 21201  	normal	30 -1	30 -1			28 -2	93	30.08	
Wed Feb  3 14:19:34 2010	Las Vegas, Nevada 89101  	clear sky	45 7	45 7	0		36 2	70	29.74	10
Wed Feb  3 14:19:34 2010	New York, New York 10001  	mostly cloudy	30 -1	30 -1	0		27 -3	86	30.06	6
Wed Feb  3 14:19:35 2010	Washington, Washington D. C. 20001  	mostly cloudy	34 1	32 0	3	E	28 -2	80	30.1	3
Wed Feb  3 14:19:35 2010	Austin, Texas 73301  	light rain	46 8	41 5	9	NE	46 8	100	30.05	2.5
Wed Feb  3 14:19:35 2010	San Francisco, California 94101  	clear sky	46 8	46 8	0		45 7	93	29.83	10
Wed Feb  3 14:19:36 2010	Oklahoma City, Oklahoma 73101  	normal	28 -2	21 -6	6	E	27 -3	93	30.16	0.2
Wed Feb  3 14:19:36 2010	Fort Worth, Texas 76101  	clear sky	37 3	30 -1	9	NE	34 1	87	30.13	9
Wed Feb  3 14:19:36 2010	Nashville, Tennessee 37201  	mostly cloudy	34 1	34 1	0		27 -3	75	30.23	7
Wed Feb  3 14:19:37 2010	Chicago, Illinois 60601  	mostly cloudy	25 -4	16 -9	8	W	19 -7	80	30.19	4
Wed Feb  3 14:19:37 2010	Portland, Oregon 97201  	light snow	28 -2	21 -6	6	N	28 -2	100	30.04	1.7
Wed Feb  3 14:19:37 2010	Phoenix, Arizona 85001  	mostly cloudy	55 13	55 13	0		45 7	67	29.62	10
Wed Feb  3 14:19:38 2010	Indianapolis, Indiana 46201  	mostly cloudy	25 -4	16 -9	9	NW	19 -7	80	30.19	4
Wed Feb  3 14:19:38 2010	San Antonio, Texas 78201  	moderate rain	50 10	44 7	16-21	E	48 9	94	29.98	3
Wed Feb  3 14:19:39 2010	Columbus, Ohio 43085  	mostly cloudy	32 0	25 -4	8	W	28 -2	86	30.14	4
Wed Feb  3 14:19:39 2010	Dallas, Texas 75201  	mostly cloudy	39 4	37 3	3	E	34 1	81	30.15	10
Wed Feb  3 14:19:39 2010	Jacksonville, Florida 32099  	mostly cloudy	48 9	44 7	9	NW	41 5	76	30.13	10
Wed Feb  3 14:19:40 2010	Milwaukee, Wisconsin 53201  	mostly cloudy	27 -3	19 -7	8	NW	19 -7	74	30.17	8
Wed Feb  3 14:19:40 2010	Houston, Texas 77001  	light rain	50 10	45 7	13	E	45 7	82	30.11	9
Wed Feb  3 14:19:40 2010	Seattle, Washington 98101  	mostly cloudy	43 6	43 6	0		39 4	87	29.73	10
Wed Feb  3 14:19:41 2010	Detroit, Michigan 48201  	mostly cloudy	28 -2	25 -4	3	W	27 -3	93	30.09	3
Wed Feb  3 14:19:41 2010	Philadelphia, Pennsylvania 19019  	mostly cloudy	30 -1	27 -3	3	N	28 -2	93	30.07	5
Wed Feb  3 15:05:36 2010	Charlotte, North Carolina 28201  	mostly cloudy	36 2	34 1	3	W	34 1	93	30.12	2.5
Wed Feb  3 15:05:36 2010	San Diego, California 92101  	mostly cloudy	55 13	54 12	5	N	50 10	82	29.77	6
Wed Feb  3 15:05:36 2010	San Jose, California 95101  	clear sky	45 7	45 7	0		45 7	100	29.83	6
Wed Feb  3 15:05:37 2010	Denver, Colorado 80214  	clear sky	25 -4	25 -4	0		13-Sep	49	29.92	10
Wed Feb  3 15:05:37 2010	Los Angeles, California 90001  	clear sky	50 10	50 10	0		45 7	82	29.75	7
Wed Feb  3 15:05:37 2010	Memphis, Tennessee 37501  	clear sky	28 -2	28 -2	0		25 -4	86	30.31	5
Wed Feb  3 15:05:38 2010	El Paso, Texas 79901  	moderate rain	43 6	36 2	14	E	39 4	87	29.72	7
Wed Feb  3 15:05:38 2010	Baltimore, Maryland 21201  	normal	32 0	32 0			28 -2	86	30.1	
Wed Feb  3 15:05:38 2010	New York, New York 10001  	mostly cloudy	30 -1	30 -1	0		27 -3	86	30.08	6
Wed Feb  3 15:05:39 2010	Austin, Texas 73301  	heavy rain	46 8	41 5	9	NE	46 8	100	30.04	2.5
Wed Feb  3 15:05:39 2010	Las Vegas, Nevada 89101  	clear sky	45 7	45 7	0		34 1	66	29.75	10
Wed Feb  3 15:05:39 2010	Washington, Washington D. C. 20001  	mostly cloudy	34 1	34 1	0		30 -1	86	30.12	2.5
Wed Feb  3 15:05:40 2010	Oklahoma City, Oklahoma 73101  	normal	28 -2	25 -4	3	NE	27 -3	93	30.16	0.1
Wed Feb  3 15:05:40 2010	Nashville, Tennessee 37201  	mostly cloudy	36 2	36 2	0		27 -3	69	30.27	7
Wed Feb  3 15:05:40 2010	San Francisco, California 94101  	clear sky	48 9	48 9	0		46 8	93	29.84	10
Wed Feb  3 15:05:41 2010	Portland, Oregon 97201  	light snow	28 -2	20 -7	8	N	28 -2	100	30.04	1.5
Wed Feb  3 15:05:41 2010	Fort Worth, Texas 76101  	clear sky	37 3	33 1	5	E	34 1	87	30.15	10
Wed Feb  3 15:05:41 2010	Phoenix, Arizona 85001  	mostly cloudy	55 13	55 13	3	SW	43 6	62	29.62	10
Wed Feb  3 15:05:42 2010	Chicago, Illinois 60601  	mostly cloudy	23 -5	15 -9	7	NW	18 -8	79	30.2	5
Wed Feb  3 15:05:42 2010	Indianapolis, Indiana 46201  	mostly cloudy	25 -4	17 -8	7	NW	18 -8	74	30.19	4
Wed Feb  3 15:05:42 2010	San Antonio, Texas 78201  	light rain	50 10	46 8	22-Oct	NE	48 9	94	29.97	5
Wed Feb  3 15:05:43 2010	Jacksonville, Florida 32099  	mostly cloudy	46 8	41 5	9	NW	41 5	81	30.14	10
Wed Feb  3 15:05:44 2010	Columbus, Ohio 43085  	mostly cloudy	30 -1	22 -6	8	W	27 -3	86	30.16	3
Wed Feb  3 15:05:44 2010	Dallas, Texas 75201  	mostly cloudy	39 4	33 1	9	E	36 2	87	30.15	10
Wed Feb  3 15:05:44 2010	Seattle, Washington 98101  	light rain	46 8	45 7	3	N	43 6	87	29.72	7
Wed Feb  3 15:05:44 2010	Houston, Texas 77001  	light rain	50 10	45 7	12	E	45 7	82	30.15	9
Wed Feb  3 15:05:45 2010	Milwaukee, Wisconsin 53201  	mostly cloudy	25 -4	18 -8	6	NW	19 -7	80	30.2	8
Wed Feb  3 15:05:45 2010	Detroit, Michigan 48201  	mostly cloudy	28 -2	22 -6	5	W	27 -3	93	30.12	2
Wed Feb  3 15:05:46 2010	Philadelphia, Pennsylvania 19019  	mostly cloudy	30 -1	24 -4	6	N	28 -2	93	30.09	4
Wed Feb  3 15:50:26 2010	Charlotte, North Carolina 28201  	mostly cloudy	36 2	34 1	3	W	36 2	100	30.13	2
Wed Feb  3 15:50:26 2010	San Jose, California 95101  	mostly cloudy	45 7	44 7	3	E	43 6	93	29.87	7
Wed Feb  3 15:50:27 2010	Denver, Colorado 80214  	clear sky	25 -4	19 -7	5	SE	14-Jul	46	29.92	10
Wed Feb  3 15:50:27 2010	San Diego, California 92101  	mostly cloudy	55 13	55 13	0		50 10	82	29.77	5
Wed Feb  3 15:50:28 2010	Los Angeles, California 90001  	clear sky	50 10	50 10	0		45 7	82	29.75	7
Wed Feb  3 15:50:28 2010	Memphis, Tennessee 37501  	clear sky	30 -1	30 -1	0		27 -3	86	30.3	5
Wed Feb  3 15:50:29 2010	El Paso, Texas 79901  	light rain	43 6	39 4	7	E	39 4	87	29.74	5
Wed Feb  3 15:50:29 2010	New York, New York 10001  	mostly cloudy	30 -1	30 -1	0		28 -2	93	30.08	5
Wed Feb  3 15:50:30 2010	Baltimore, Maryland 21201  	normal	34 1	34 1			28 -2	80	30.11	
Wed Feb  3 15:50:30 2010	Las Vegas, Nevada 89101  	clear sky	43 6	43 6	0		34 1	70	29.75	10
Wed Feb  3 15:50:31 2010	Washington, Washington D. C. 20001  	light snow	34 1	29 -2	6	NW	30 -1	86	30.13	2.5
Wed Feb  3 15:50:31 2010	San Francisco, California 94101  	clear sky	45 7	44 7	3	SW	43 6	93	29.86	10
Wed Feb  3 15:50:31 2010	Austin, Texas 73301  	light rain	48 9	43 6	13	NE	46 8	93	30.03	3
Wed Feb  3 15:50:32 2010	Oklahoma City, Oklahoma 73101  	normal	28 -2	25 -4	3	E	28 -2	100	30.18	0.1
Wed Feb  3 15:50:32 2010	Nashville, Tennessee 37201  	mostly cloudy	37 3	37 3	0		27 -3	65	30.29	10
Wed Feb  3 15:50:33 2010	Portland, Oregon 97201  	light snow	28 -2	19 -7	9	N	28 -2	100	30.01	2.5
Wed Feb  3 15:50:33 2010	Fort Worth, Texas 76101  	clear sky	37 3	35 2	3	E	34 1	87	30.16	9
Wed Feb  3 15:50:33 2010	Phoenix, Arizona 85001  	mostly cloudy	55 13	55 13	0		43 6	62	29.62	10
Wed Feb  3 15:50:34 2010	Chicago, Illinois 60601  	mostly cloudy	25 -4	17 -8	7	W	19 -7	80	30.24	3
Wed Feb  3 15:50:34 2010	San Antonio, Texas 78201  	moderate rain	50 10	46 8	17-Sep	E	48 9	94	30.01	1.7
Wed Feb  3 15:50:35 2010	Indianapolis, Indiana 46201  	mostly cloudy	23 -5	15 -9	7	NW	18 -8	79	30.25	2.5
Wed Feb  3 15:50:36 2010	Columbus, Ohio 43085  	mostly cloudy	32 0	24 -4	9	W	27 -3	80	30.18	4
Wed Feb  3 15:50:36 2010	Dallas, Texas 75201  	mostly cloudy	41 5	35 2	9	E	36 2	81	30.17	9
Wed Feb  3 15:50:36 2010	Jacksonville, Florida 32099  	clear sky	48 9	42 6	15	N	41 5	76	30.15	10
Wed Feb  3 15:50:37 2010	Houston, Texas 77001  	mostly cloudy	48 9	41 5	18	E	45 7	87	30.09	8
Wed Feb  3 15:50:37 2010	Seattle, Washington 98101  	clear sky	43 6	43 6	0		39 4	87	29.71	10
Wed Feb  3 15:50:38 2010	Milwaukee, Wisconsin 53201  	mostly cloudy	25 -4	16 -9	9	NW	19 -7	80	30.21	7
Wed Feb  3 15:50:38 2010	Detroit, Michigan 48201  	mostly cloudy	30 -1	23 -5	7	NW	27 -3	86	30.14	3
Wed Feb  3 15:50:39 2010	Philadelphia, Pennsylvania 19019  	mostly cloudy	30 -1	27 -3	3	W	30 -1	100	30.1	4
Wed Feb  3 16:36:21 2010	Charlotte, North Carolina 28201  	mostly cloudy	36 2	34 1	3	W	36 2	100	30.13	2
Wed Feb  3 16:36:21 2010	San Jose, California 95101  	mostly cloudy	45 7	44 7	3	E	43 6	93	29.87	7
Wed Feb  3 16:36:21 2010	San Diego, California 92101  	mostly cloudy	55 13	55 13	0		50 10	82	29.77	5
Wed Feb  3 16:36:22 2010	Denver, Colorado 80214  	clear sky	25 -4	19 -7	5	SE	14-Jul	46	29.92	10
Wed Feb  3 16:36:22 2010	Los Angeles, California 90001  	clear sky	50 10	50 10	0		45 7	82	29.75	7
Wed Feb  3 16:36:22 2010	Memphis, Tennessee 37501  	clear sky	30 -1	30 -1	0		27 -3	86	30.3	5
Wed Feb  3 16:36:23 2010	El Paso, Texas 79901  	light rain	43 6	39 4	7	E	39 4	87	29.74	5
Wed Feb  3 16:36:23 2010	Baltimore, Maryland 21201  	normal	34 1	34 1			28 -2	80	30.11	
Wed Feb  3 16:36:23 2010	New York, New York 10001  	mostly cloudy	30 -1	30 -1	0		28 -2	93	30.08	5
Wed Feb  3 16:36:24 2010	Washington, Washington D. C. 20001  	light snow	34 1	29 -2	6	NW	30 -1	86	30.13	2.5
Wed Feb  3 16:36:24 2010	Austin, Texas 73301  	light rain	48 9	43 6	13	NE	46 8	93	30.03	3
Wed Feb  3 16:36:24 2010	Las Vegas, Nevada 89101  	clear sky	43 6	43 6	0		34 1	70	29.75	10
Wed Feb  3 16:36:25 2010	Oklahoma City, Oklahoma 73101  	normal	28 -2	25 -4	3	E	28 -2	100	30.18	0.1
Wed Feb  3 16:36:25 2010	San Francisco, California 94101  	clear sky	45 7	44 7	3	SW	43 6	93	29.86	10
Wed Feb  3 16:36:25 2010	Nashville, Tennessee 37201  	mostly cloudy	37 3	37 3	0		27 -3	65	30.29	10
Wed Feb  3 16:36:26 2010	Portland, Oregon 97201  	light snow	28 -2	19 -7	9	N	28 -2	100	30.01	2.5
Wed Feb  3 16:36:26 2010	Fort Worth, Texas 76101  	clear sky	37 3	35 2	3	E	34 1	87	30.16	9
Wed Feb  3 16:36:26 2010	Phoenix, Arizona 85001  	mostly cloudy	55 13	55 13	0		43 6	62	29.62	10
Wed Feb  3 16:36:27 2010	Chicago, Illinois 60601  	mostly cloudy	25 -4	17 -8	7	W	19 -7	80	30.24	3
Wed Feb  3 16:36:27 2010	San Antonio, Texas 78201  	moderate rain	50 10	46 8	17-Sep	E	48 9	94	30.01	1.7
Wed Feb  3 16:36:28 2010	Indianapolis, Indiana 46201  	mostly cloudy	23 -5	15 -9	7	NW	18 -8	79	30.25	2.5
Wed Feb  3 16:36:28 2010	Jacksonville, Florida 32099  	clear sky	48 9	42 6	15	N	41 5	76	30.15	10
Wed Feb  3 16:36:29 2010	Columbus, Ohio 43085  	mostly cloudy	32 0	24 -4	9	W	27 -3	80	30.18	4
Wed Feb  3 16:36:29 2010	Dallas, Texas 75201  	mostly cloudy	41 5	35 2	9	E	36 2	81	30.17	9
Wed Feb  3 16:36:29 2010	Houston, Texas 77001  	mostly cloudy	48 9	41 5	18	E	45 7	87	30.09	8
Wed Feb  3 16:36:30 2010	Milwaukee, Wisconsin 53201  	mostly cloudy	25 -4	16 -9	9	NW	19 -7	80	30.21	7
Wed Feb  3 16:36:30 2010	Detroit, Michigan 48201  	mostly cloudy	30 -1	23 -5	7	NW	27 -3	86	30.14	3
Wed Feb  3 16:36:30 2010	Seattle, Washington 98101  	clear sky	43 6	43 6	0		39 4	87	29.71	10
Wed Feb  3 16:36:31 2010	Philadelphia, Pennsylvania 19019  	mostly cloudy	30 -1	27 -3	3	W	30 -1	100	30.1	4
Wed Feb  3 17:23:18 2010	Charlotte, North Carolina 28201  	mostly cloudy	36 2	32 0	5	W	36 2	100	30.17	4
Wed Feb  3 17:23:18 2010	San Jose, California 95101  	mostly cloudy	45 7	44 7	3	SE	43 6	93	29.88	7
Wed Feb  3 17:23:19 2010	Memphis, Tennessee 37501  	mostly cloudy	37 3	32 0	6	N	32 0	81	30.31	6
Wed Feb  3 17:23:19 2010	San Diego, California 92101  	mostly cloudy	55 13	55 13	3	NE	50 10	82	29.78	5
Wed Feb  3 17:23:19 2010	Denver, Colorado 80214  	clear sky	25 -4	25 -4	0		11-Dec	58	29.92	10
Wed Feb  3 17:23:20 2010	El Paso, Texas 79901  	mostly cloudy	43 6	35 2	17-22	E	37 3	81	29.74	10
Wed Feb  3 17:23:20 2010	Los Angeles, California 90001  	clear sky	48 9	48 9	0		45 7	87	29.76	7
Wed Feb  3 17:23:21 2010	New York, New York 10001  	mostly cloudy	30 -1	27 -3	3	N	27 -3	86	30.09	5
Wed Feb  3 17:23:21 2010	Las Vegas, Nevada 89101  	clear sky	43 6	42 6	3	SW	34 1	70	29.75	10
Wed Feb  3 17:23:21 2010	Baltimore, Maryland 21201  	normal	36 2	36 2			30 -1	80	30.11	
Wed Feb  3 17:23:22 2010	Washington, Washington D. C. 20001  	mostly cloudy	34 1	29 -2	6	N	30 -1	86	30.13	3
Wed Feb  3 17:23:22 2010	Austin, Texas 73301  	light rain	48 9	44 7	9	NE	46 8	93	30.04	3
Wed Feb  3 17:23:22 2010	San Francisco, California 94101  	clear sky	45 7	45 7	0		45 7	100	29.88	10
Wed Feb  3 17:23:23 2010	Nashville, Tennessee 37201  	mostly cloudy	37 3	33 1	5	N	27 -3	65	30.29	10
Wed Feb  3 17:23:23 2010	Oklahoma City, Oklahoma 73101  	mostly cloudy	30 -1	24 -4	6	E	28 -2	93	30.19	1.5
Wed Feb  3 17:23:23 2010	Fort Worth, Texas 76101  	clear sky	39 4	35 2	6	E	36 2	87	30.17	9
Wed Feb  3 17:23:24 2010	Chicago, Illinois 60601  	mostly cloudy	25 -4	17 -8	7	W	19 -7	80	30.28	4
Wed Feb  3 17:23:24 2010	Portland, Oregon 97201  	light snow	30 -1	22 -6	8	N	28 -2	93	30.02	3
Wed Feb  3 17:23:24 2010	Phoenix, Arizona 85001  	mostly cloudy	54 12	54 12	0		43 6	67	29.62	10
Wed Feb  3 17:23:25 2010	Indianapolis, Indiana 46201  	mostly cloudy	25 -4	16 -9	8	NW	19 -7	80	30.26	2
Wed Feb  3 17:23:25 2010	San Antonio, Texas 78201  	moderate rain	50 10	46 8	10	NE	48 9	94	30.01	2.5
Wed Feb  3 17:23:26 2010	Columbus, Ohio 43085  	mostly cloudy	34 1	26 -3	10	W	27 -3	75	30.2	4
Wed Feb  3 17:23:26 2010	Dallas, Texas 75201  	mostly cloudy	43 6	37 3	10	SE	37 3	81	30.19	8
Wed Feb  3 17:23:26 2010	Jacksonville, Florida 32099  	clear sky	50 10	46 8	9	N	41 5	71	30.18	10
Wed Feb  3 17:23:27 2010	Milwaukee, Wisconsin 53201  	mostly cloudy	27 -3	18 -8	10	NW	19 -7	74	30.24	5
Wed Feb  3 17:23:27 2010	Houston, Texas 77001  	mostly cloudy	48 9	42 6	16-28	E	43 6	81	30.06	10
Wed Feb  3 17:23:27 2010	Seattle, Washington 98101  	mostly cloudy	43 6	43 6	0		39 4	87	29.72	10
Wed Feb  3 17:23:28 2010	Detroit, Michigan 48201  	mostly cloudy	28 -2	20 -7	8	NW	23 -5	80	30.16	8
Wed Feb  3 17:23:28 2010	Philadelphia, Pennsylvania 19019  	mostly cloudy	32 0	25 -4	7	NW	28 -2	86	30.1	8
Wed Feb  3 18:11:42 2010	San Jose, California 95101  	clear sky	46 8	44 7	5	SE	43 6	87	29.89	6
Wed Feb  3 18:11:43 2010	San Diego, California 92101  	mostly cloudy	57 14	57 14	3	NE	50 10	77	29.79	6
Wed Feb  3 18:11:43 2010	Charlotte, North Carolina 28201  	mostly cloudy	39 4	39 4	0		37 3	93	30.17	9
Wed Feb  3 18:11:43 2010	Denver, Colorado 80214  	clear sky	34 1	34 1	0		11-Dec	40	29.92	10
Wed Feb  3 18:11:44 2010	Memphis, Tennessee 37501  	mostly cloudy	39 4	34 1	7	NE	30 -1	70	30.32	10
Wed Feb  3 18:11:44 2010	El Paso, Texas 79901  	light rain	43 6	37 3	22-Dec	E	37 3	81	29.75	6
Wed Feb  3 18:11:44 2010	Los Angeles, California 90001  	clear sky	52 11	52 11	0		45 7	76	29.77	7
Wed Feb  3 18:11:45 2010	New York, New York 10001  	mostly cloudy	34 1	29 -2	6	N	28 -2	80	30.07	9
Wed Feb  3 18:11:45 2010	Las Vegas, Nevada 89101  	clear sky	43 6	40 4	5	SW	34 1	70	29.76	10
Wed Feb  3 18:11:45 2010	Baltimore, Maryland 21201  	normal	37 3	37 3			30 -1	75	30.1	
Wed Feb  3 18:11:46 2010	Washington, Washington D. C. 20001  	mostly cloudy	36 2	32 0	5	N	28 -2	75	30.13	4
Wed Feb  3 18:11:46 2010	Austin, Texas 73301  	light rain	48 9	44 7	10	E	45 7	87	30.07	4
Wed Feb  3 18:11:46 2010	San Francisco, California 94101  	mostly cloudy	48 9	48 9	0		46 8	93	29.89	10
Wed Feb  3 18:11:47 2010	Nashville, Tennessee 37201  	mostly cloudy	39 4	35 2	6	N	27 -3	60	30.32	10
Wed Feb  3 18:11:47 2010	Oklahoma City, Oklahoma 73101  	mostly cloudy	30 -1	25 -4	5	SE	30 -1	100	30.19	2
Wed Feb  3 18:11:47 2010	Fort Worth, Texas 76101  	clear sky	43 6	38 3	8	E	37 3	81	30.16	9
Wed Feb  3 18:11:48 2010	Chicago, Illinois 60601  	mostly cloudy	25 -4	17 -8	7	W	19 -7	80	30.31	4
Wed Feb  3 18:11:48 2010	Portland, Oregon 97201  	light snow	30 -1	22 -6	8	N	28 -2	93	30.01	4
Wed Feb  3 18:11:48 2010	Phoenix, Arizona 85001  	mostly cloudy	57 14	57 14	3	SW	43 6	59	29.64	10
Wed Feb  3 18:11:49 2010	Indianapolis, Indiana 46201  	light snow	25 -4	18 -8	6	NW	19 -7	80	30.26	3
Wed Feb  3 18:11:49 2010	San Antonio, Texas 78201  	light rain	50 10	45 7	13-20	E	48 9	94	29.99	4
Wed Feb  3 18:11:50 2010	Columbus, Ohio 43085  	mostly cloudy	34 1	26 -3	10	W	27 -3	75	30.22	4
Wed Feb  3 18:11:50 2010	Jacksonville, Florida 32099  	clear sky	52 11	49 9	10	N	41 5	66	30.19	10
Wed Feb  3 18:11:51 2010	Dallas, Texas 75201  	mostly cloudy	45 7	40 4	10	E	37 3	76	30.18	8
Wed Feb  3 18:11:51 2010	Houston, Texas 77001  	mostly cloudy	48 9	42 6	16-28	E	43 6	81	30.08	10
Wed Feb  3 18:11:51 2010	Seattle, Washington 98101  	mostly cloudy	45 7	45 7	0		39 4	81	29.72	10
Wed Feb  3 18:11:52 2010	Milwaukee, Wisconsin 53201  	mostly cloudy	27 -3	18 -8	10	NW	19 -7	74	30.27	5
Wed Feb  3 18:11:52 2010	Detroit, Michigan 48201  	mostly cloudy	30 -1	25 -4	5	N	23 -5	74	30.18	8
Wed Feb  3 18:11:52 2010	Philadelphia, Pennsylvania 19019  	mostly cloudy	32 0	26 -3	6	W	28 -2	86	30.09	8
Wed Feb  3 18:54:41 2010	Charlotte, North Carolina 28201  	clear sky	43 6	42 6	3	N	36 2	75	30.17	10
Wed Feb  3 18:54:41 2010	San Jose, California 95101  	clear sky	48 9	47 8	3	E	46 8	93	29.9	10
Wed Feb  3 18:54:41 2010	San Diego, California 92101  	mostly cloudy	57 14	57 14	0		48 9	72	29.81	7
Wed Feb  3 18:54:42 2010	Memphis, Tennessee 37501  	clear sky	43 6	40 4	5	NE	30 -1	61	30.31	10
Wed Feb  3 18:54:42 2010	Denver, Colorado 80214  	clear sky	39 4	37 3	3	N	14-Jul	25	29.92	10
Wed Feb  3 18:54:42 2010	Los Angeles, California 90001  	clear sky	57 14	57 14	0		45 7	63	29.79	7
Wed Feb  3 18:54:43 2010	New York, New York 10001  	clear sky	34 1	28 -2	7	W	28 -2	80	30.04	10
Wed Feb  3 18:54:43 2010	El Paso, Texas 79901  	light rain	45 7	40 4	10	E	39 4	81	29.75	10
Wed Feb  3 18:54:43 2010	Baltimore, Maryland 21201  	normal	39 4	39 4			30 -1	70	30.1	
Wed Feb  3 18:54:44 2010	Washington, Washington D. C. 20001  	clear sky	37 3	33 1	5	N	30 -1	75	30.13	5
Wed Feb  3 18:54:44 2010	Austin, Texas 73301  	light rain	48 9	44 7	8	E	45 7	87	30.04	6
Wed Feb  3 18:54:44 2010	Las Vegas, Nevada 89101  	clear sky	48 9	48 9	0		34 1	57	29.75	10
Wed Feb  3 18:54:45 2010	Oklahoma City, Oklahoma 73101  	mostly cloudy	32 0	25 -4	7	SE	30 -1	93	30.19	2
Wed Feb  3 18:54:45 2010	San Francisco, California 94101  	mostly cloudy	52 11	52 11	3	E	48 9	87	29.89	10
Wed Feb  3 18:54:46 2010	Nashville, Tennessee 37201  	clear sky	41 5	38 3	5	NW	27 -3	56	30.32	10
Wed Feb  3 18:54:46 2010	Fort Worth, Texas 76101  	clear sky	45 7	39 4	12	E	37 3	76	30.16	10
Wed Feb  3 18:54:46 2010	Phoenix, Arizona 85001  	mostly cloudy	59 15	59 15	5	SW	41 5	51	29.65	10
Wed Feb  3 18:54:47 2010	Chicago, Illinois 60601  	mostly cloudy	27 -3	19 -7	7	W	19 -7	74	30.31	4
Wed Feb  3 18:54:47 2010	Portland, Oregon 97201  	mostly cloudy	30 -1	22 -6	9	N	28 -2	93	29.97	10
Wed Feb  3 18:54:47 2010	San Antonio, Texas 78201  	moderate rain	50 10	44 7	17-26	E	48 9	94	29.96	1.5
Wed Feb  3 18:54:48 2010	Indianapolis, Indiana 46201  	mostly cloudy	27 -3	20 -7	6	W	19 -7	74	30.29	4
Wed Feb  3 18:54:48 2010	Jacksonville, Florida 32099  	clear sky	54 12	52 11	7	N	43 6	67	30.16	10
Wed Feb  3 18:54:49 2010	Columbus, Ohio 43085  	mostly cloudy	34 1	25 -4	13	W	25 -4	69	30.22	5
Wed Feb  3 18:54:49 2010	Dallas, Texas 75201  	mostly cloudy	45 7	41 5	7	E	37 3	76	30.18	7
Wed Feb  3 18:54:49 2010	Houston, Texas 77001  	mostly cloudy	52 11	47 8	17-21	E	43 6	71	30.1	10
Wed Feb  3 18:54:50 2010	Milwaukee, Wisconsin 53201  	mostly cloudy	28 -2	19 -7	9	NW	18 -8	63	30.29	6
Wed Feb  3 18:54:50 2010	Detroit, Michigan 48201  	clear sky	32 0	27 -3	5	W	25 -4	74	30.2	9
Wed Feb  3 18:54:50 2010	Seattle, Washington 98101  	light rain	46 8	46 8	0		43 6	87	29.74	10
Wed Feb  3 18:54:51 2010	Philadelphia, Pennsylvania 19019  	clear sky	36 2	29 -2	9	NW	30 -1	80	30.06	10
Wed Feb  3 19:38:55 2010	San Jose, California 95101  	clear sky	48 9	47 8	3	E	46 8	93	29.9	10
Wed Feb  3 19:38:56 2010	Charlotte, North Carolina 28201  	clear sky	43 6	42 6	3	N	36 2	75	30.17	10
Wed Feb  3 19:38:56 2010	Denver, Colorado 80214  	clear sky	39 4	37 3	3	N	14-Jul	25	29.92	10
Wed Feb  3 19:38:56 2010	San Diego, California 92101  	mostly cloudy	57 14	57 14	0		48 9	72	29.81	7
Wed Feb  3 19:38:57 2010	Memphis, Tennessee 37501  	clear sky	43 6	40 4	5	NE	30 -1	61	30.31	10
Wed Feb  3 19:38:57 2010	El Paso, Texas 79901  	light rain	45 7	40 4	10	E	39 4	81	29.75	10
Wed Feb  3 19:38:57 2010	Los Angeles, California 90001  	clear sky	57 14	57 14	0		45 7	63	29.79	7
Wed Feb  3 19:38:58 2010	New York, New York 10001  	clear sky	34 1	28 -2	7	W	28 -2	80	30.04	10
Wed Feb  3 19:38:58 2010	Baltimore, Maryland 21201  	normal	39 4	39 4			30 -1	70	30.1	
Wed Feb  3 19:38:58 2010	Las Vegas, Nevada 89101  	clear sky	48 9	48 9	0		34 1	57	29.75	10
Wed Feb  3 19:38:59 2010	Washington, Washington D. C. 20001  	clear sky	37 3	33 1	5	N	30 -1	75	30.13	5
Wed Feb  3 19:38:59 2010	Austin, Texas 73301  	light rain	48 9	44 7	8	E	45 7	87	30.04	6
Wed Feb  3 19:38:59 2010	San Francisco, California 94101  	mostly cloudy	52 11	52 11	3	E	48 9	87	29.89	10
Wed Feb  3 19:39:00 2010	Nashville, Tennessee 37201  	clear sky	41 5	38 3	5	NW	27 -3	56	30.32	10
Wed Feb  3 19:39:00 2010	Oklahoma City, Oklahoma 73101  	mostly cloudy	32 0	25 -4	7	SE	30 -1	93	30.19	2
Wed Feb  3 19:39:00 2010	Fort Worth, Texas 76101  	clear sky	45 7	39 4	12	E	37 3	76	30.16	10
Wed Feb  3 19:39:01 2010	Chicago, Illinois 60601  	mostly cloudy	27 -3	19 -7	7	W	19 -7	74	30.31	4
Wed Feb  3 19:39:01 2010	Portland, Oregon 97201  	mostly cloudy	30 -1	22 -6	9	N	28 -2	93	29.97	10
Wed Feb  3 19:39:01 2010	Phoenix, Arizona 85001  	mostly cloudy	59 15	59 15	5	SW	41 5	51	29.65	10
Wed Feb  3 19:39:02 2010	Indianapolis, Indiana 46201  	mostly cloudy	27 -3	20 -7	6	W	19 -7	74	30.29	4
Wed Feb  3 19:39:02 2010	San Antonio, Texas 78201  	moderate rain	50 10	44 7	17-26	E	48 9	94	29.96	1.5
Wed Feb  3 19:39:03 2010	Columbus, Ohio 43085  	mostly cloudy	34 1	25 -4	13	W	25 -4	69	30.22	5
Wed Feb  3 19:39:03 2010	Dallas, Texas 75201  	mostly cloudy	45 7	41 5	7	E	37 3	76	30.18	7
Wed Feb  3 19:39:03 2010	Houston, Texas 77001  	mostly cloudy	52 11	47 8	17-21	E	43 6	71	30.1	10
Wed Feb  3 19:39:03 2010	Jacksonville, Florida 32099  	clear sky	54 12	52 11	7	N	43 6	67	30.16	10
Wed Feb  3 19:39:04 2010	Milwaukee, Wisconsin 53201  	mostly cloudy	28 -2	19 -7	9	NW	18 -8	63	30.29	6
Wed Feb  3 19:39:04 2010	Detroit, Michigan 48201  	clear sky	32 0	27 -3	5	W	25 -4	74	30.2	9
Wed Feb  3 19:39:04 2010	Seattle, Washington 98101  	light rain	46 8	46 8	0		43 6	87	29.74	10
Wed Feb  3 19:39:05 2010	Philadelphia, Pennsylvania 19019  	clear sky	36 2	29 -2	9	NW	30 -1	80	30.06	10
Wed Feb  3 20:22:53 2010	Charlotte, North Carolina 28201  	clear sky	46 8	45 7	3	N	36 2	66	30.16	10
Wed Feb  3 20:22:53 2010	San Diego, California 92101  	mostly cloudy	59 15	58 14	6	N	48 9	67	29.83	10
Wed Feb  3 20:22:53 2010	San Jose, California 95101  	clear sky	54 12	54 12	0		46 8	77	29.9	10
Wed Feb  3 20:22:54 2010	Memphis, Tennessee 37501  	clear sky	45 7	41 5	7	NE	30 -1	57	30.28	10
Wed Feb  3 20:22:54 2010	Denver, Colorado 80214  	clear sky	43 6	43 6	0		15-May	20	29.93	10
Wed Feb  3 20:22:54 2010	Los Angeles, California 90001  	clear sky	61 16	61 16	0		45 7	55	29.79	8
Wed Feb  3 20:22:55 2010	New York, New York 10001  	mostly cloudy	36 2	34 1	3	W	27 -3	69	30.02	10
Wed Feb  3 20:22:55 2010	El Paso, Texas 79901  	light rain	45 7	41 5	8	NE	39 4	81	29.73	7
Wed Feb  3 20:22:55 2010	Baltimore, Maryland 21201  	normal	43 6	43 6			28 -2	56	30.08	
Wed Feb  3 20:22:56 2010	Washington, Washington D. C. 20001  	mostly cloudy	41 5	35 2	10	NW	30 -1	65	30.11	10
Wed Feb  3 20:22:56 2010	Austin, Texas 73301  	light rain	48 9	42 6	15	NE	45 7	87	29.99	4
Wed Feb  3 20:22:56 2010	Las Vegas, Nevada 89101  	clear sky	54 12	54 12	0		34 1	47	29.75	10
Wed Feb  3 20:22:57 2010	Nashville, Tennessee 37201  	clear sky	43 6	39 4	7	W	27 -3	52	30.29	10
Wed Feb  3 20:22:57 2010	Oklahoma City, Oklahoma 73101  	mostly cloudy	34 1	27 -3	8	S	32 0	93	30.18	6
Wed Feb  3 20:22:57 2010	San Francisco, California 94101  	mostly cloudy	52 11	51 11	5	E	48 9	87	29.9	10
Wed Feb  3 20:22:58 2010	Portland, Oregon 97201  	mostly cloudy	30 -1	20 -7	12	N	28 -2	93	29.95	10
Wed Feb  3 20:22:58 2010	Fort Worth, Texas 76101  	clear sky	46 8	40 4	14	E	37 3	71	30.11	10
Wed Feb  3 20:22:58 2010	Phoenix, Arizona 85001  	mostly cloudy	61 16	61 16	0		39 4	45	29.65	10
Wed Feb  3 20:22:59 2010	Chicago, Illinois 60601  	mostly cloudy	30 -1	23 -5	7	NW	21 -6	69	30.3	4
Wed Feb  3 20:22:59 2010	San Antonio, Texas 78201  	light rain	50 10	44 7	16-24	E	48 9	94	29.93	1.5
Wed Feb  3 20:23:00 2010	Indianapolis, Indiana 46201  	mostly cloudy	28 -2	22 -6	5	NW	21 -6	74	30.29	5
Wed Feb  3 20:23:00 2010	Jacksonville, Florida 32099  	mostly cloudy	52 11	49 9	9	NE	43 6	71	30.16	10
Wed Feb  3 20:23:01 2010	Columbus, Ohio 43085  	mostly cloudy	34 1	25 -4	13	W	25 -4	69	30.21	7
Wed Feb  3 20:23:01 2010	Dallas, Texas 75201  	mostly cloudy	46 8	40 4	21-Dec	E	37 3	71	30.14	7
Wed Feb  3 20:23:01 2010	Houston, Texas 77001  	mostly cloudy	52 11	47 8	16-24	E	43 6	71	30.09	10
Wed Feb  3 20:23:02 2010	Milwaukee, Wisconsin 53201  	mostly cloudy	28 -2	21 -6	7	NW	18 -8	63	30.31	7
Wed Feb  3 20:23:02 2010	Detroit, Michigan 48201  	clear sky	32 0	25 -4	8	NW	23 -5	69	30.2	10
Wed Feb  3 20:23:02 2010	Seattle, Washington 98101  	light rain	46 8	43 6	6	S	43 6	87	29.76	9
Wed Feb  3 20:23:03 2010	Philadelphia, Pennsylvania 19019  	clear sky	37 3	30 -1	10	W	30 -1	75	30.05	10
Wed Feb  3 21:07:28 2010	San Jose, California 95101  	clear sky	57 14	57 14	0		46 8	67	29.88	10
Wed Feb  3 21:07:29 2010	Charlotte, North Carolina 28201  	clear sky	48 9	47 8	3	W	34 1	57	30.14	10
Wed Feb  3 21:07:29 2010	San Diego, California 92101  	mostly cloudy	61 16	60 16	9	W	50 10	68	29.84	10
Wed Feb  3 21:07:29 2010	Denver, Colorado 80214  	clear sky	46 8	45 7	3	NE	13-Sep	21	29.91	10
Wed Feb  3 21:07:30 2010	Memphis, Tennessee 37501  	mostly cloudy	48 9	44 7	8	NE	30 -1	50	30.26	10
Wed Feb  3 21:07:30 2010	El Paso, Texas 79901  	moderate rain	45 7	40 4	9	N	41 5	87	29.71	5
Wed Feb  3 21:07:30 2010	Los Angeles, California 90001  	clear sky	64 18	64 18	0		43 6	45	29.78	10
Wed Feb  3 21:07:31 2010	New York, New York 10001  	mostly cloudy	37 3	30 -1	9	W	27 -3	65	30.01	10
Wed Feb  3 21:07:31 2010	Baltimore, Maryland 21201  	normal	43 6	43 6			27 -3	52	30.07	
Wed Feb  3 21:07:32 2010	Washington, Washington D. C. 20001  	mostly cloudy	41 5	36 2	16-Jul	NW	28 -2	61	30.11	10
Wed Feb  3 21:07:32 2010	Las Vegas, Nevada 89101  	clear sky	57 14	56 13	5	NE	32 0	38	29.74	10
Wed Feb  3 21:07:32 2010	Austin, Texas 73301  	light rain	48 9	43 6	12	E	46 8	93	29.97	4
Wed Feb  3 21:07:33 2010	Nashville, Tennessee 37201  	clear sky	45 7	42 6	5	NE	27 -3	49	30.26	10
Wed Feb  3 21:07:33 2010	Oklahoma City, Oklahoma 73101  	mostly cloudy	36 2	30 -1	8	SE	32 0	87	30.15	6
Wed Feb  3 21:07:33 2010	San Francisco, California 94101  	mostly cloudy	54 12	52 11	6	E	50 10	88	29.89	8
Wed Feb  3 21:07:34 2010	Portland, Oregon 97201  	mostly cloudy	32 0	22 -6	13	N	28 -2	86	29.93	10
Wed Feb  3 21:07:34 2010	Phoenix, Arizona 85001  	mostly cloudy	66 19	66 19	6	E	36 2	32	29.63	10
Wed Feb  3 21:07:34 2010	Fort Worth, Texas 76101  	light rain	46 8	41 5	16-Sep	E	37 3	71	30.06	10
Wed Feb  3 21:07:35 2010	Chicago, Illinois 60601  	mostly cloudy	30 -1	27 -3	3	NW	21 -6	69	30.27	6
Wed Feb  3 21:07:35 2010	San Antonio, Texas 78201  	heavy rain	48 9	42 6	16-23	E	48 9	100	29.91	0.7
Wed Feb  3 21:07:36 2010	Indianapolis, Indiana 46201  	mostly cloudy	28 -2	21 -6	6	NW	21 -6	74	30.28	6
Wed Feb  3 21:07:36 2010	Jacksonville, Florida 32099  	mostly cloudy	54 12	51 11	10	NE	43 6	67	30.15	10
Wed Feb  3 21:07:37 2010	Columbus, Ohio 43085  	mostly cloudy	34 1	25 -4	13	W	25 -4	69	30.22	7
Wed Feb  3 21:07:37 2010	Dallas, Texas 75201  	mostly cloudy	46 8	40 4	13-21	E	37 3	71	30.07	9
Wed Feb  3 21:07:37 2010	Houston, Texas 77001  	mostly cloudy	54 12	49 9	18-23	E	45 7	71	30.03	10
Wed Feb  3 21:07:38 2010	Milwaukee, Wisconsin 53201  	mostly cloudy	28 -2	22 -6	5	NW	18 -8	63	30.29	8
Wed Feb  3 21:07:38 2010	Detroit, Michigan 48201  	mostly cloudy	34 1	28 -2	7	W	23 -5	64	30.2	10
Wed Feb  3 21:07:38 2010	Seattle, Washington 98101  	light rain	45 7	44 7	3	SE	43 6	93	29.76	8
Wed Feb  3 21:07:39 2010	Philadelphia, Pennsylvania 19019  	mostly cloudy	39 4	32 0	12	W	28 -2	65	30.05	10
Wed Feb  3 21:55:37 2010	San Jose, California 95101  	clear sky	61 16	61 16	0		46 8	59	29.86	10
Wed Feb  3 21:55:38 2010	San Diego, California 92101  	clear sky	63 17	63 17	7	NW	50 10	63	29.81	10
Wed Feb  3 21:55:38 2010	Denver, Colorado 80214  	clear sky	46 8	40 4	14	E	13-Sep	21	29.88	10
Wed Feb  3 21:55:38 2010	Charlotte, North Carolina 28201  	clear sky	50 10	50 10	0		32 0	50	30.12	10
Wed Feb  3 21:55:39 2010	Memphis, Tennessee 37501  	mostly cloudy	46 8	42 6	7	NE	30 -1	53	30.24	10
Wed Feb  3 21:55:39 2010	Los Angeles, California 90001  	clear sky	66 19	66 19	0		48 9	52	29.76	10
Wed Feb  3 21:55:40 2010	New York, New York 10001  	mostly cloudy	37 3	35 2	3	N	25 -4	60	30.01	10
Wed Feb  3 21:55:40 2010	El Paso, Texas 79901  	moderate rain	43 6	37 3	12	N	41 5	93	29.68	3
Wed Feb  3 21:55:40 2010	Baltimore, Maryland 21201  	normal	43 6	43 6			27 -3	52	30.08	
Wed Feb  3 21:55:41 2010	Washington, Washington D. C. 20001  	mostly cloudy	41 5	35 2	16-Sep	W	28 -2	61	30.12	10
Wed Feb  3 21:55:41 2010	Austin, Texas 73301  	light rain	48 9	45 7	6	E	45 7	87	29.98	5
Wed Feb  3 21:55:41 2010	Las Vegas, Nevada 89101  	mostly cloudy	59 15	59 15	0		32 0	36	29.73	10
Wed Feb  3 21:55:42 2010	Oklahoma City, Oklahoma 73101  	mostly cloudy	37 3	35 2	3	E	34 1	87	30.13	5
Wed Feb  3 21:55:42 2010	San Francisco, California 94101  	clear sky	55 13	54 12	5	NE	50 10	82	29.87	10
Wed Feb  3 21:55:42 2010	Nashville, Tennessee 37201  	clear sky	45 7	45 7	0		27 -3	49	30.24	10
Wed Feb  3 21:55:43 2010	Portland, Oregon 97201  	mostly cloudy	30 -1	20 -7	13	NW	27 -3	86	29.93	10
Wed Feb  3 21:55:43 2010	Fort Worth, Texas 76101  	light rain	45 7	40 4	16-Sep	E	37 3	76	30.05	9
Wed Feb  3 21:55:43 2010	Phoenix, Arizona 85001  	mostly cloudy	70 21	75 24	0		36 2	28	29.62	10
Wed Feb  3 21:55:44 2010	Chicago, Illinois 60601  	mostly cloudy	30 -1	27 -3	3	N	19 -7	64	30.27	6
Wed Feb  3 21:55:44 2010	San Antonio, Texas 78201  	light rain	48 9	42 6	17-24	E	46 8	93	29.87	2
Wed Feb  3 21:55:45 2010	Indianapolis, Indiana 46201  	mostly cloudy	28 -2	22 -6	5	NW	21 -6	74	30.26	6
Wed Feb  3 21:55:45 2010	Jacksonville, Florida 32099  	mostly cloudy	54 12	50 10	14	NE	45 7	71	30.14	10
Wed Feb  3 21:55:46 2010	Columbus, Ohio 43085  	mostly cloudy	34 1	26 -3	10	W	25 -4	69	30.22	7
Wed Feb  3 21:55:46 2010	Dallas, Texas 75201  	light rain	46 8	41 5	9	E	39 4	76	30.08	9
Wed Feb  3 21:55:46 2010	Houston, Texas 77001  	mostly cloudy	54 12	49 9	17-29	E	43 6	67	30.02	10
Wed Feb  3 21:55:47 2010	Milwaukee, Wisconsin 53201  	clear sky	32 0	27 -3	5	N	18 -8	55	30.26	10
Wed Feb  3 21:55:47 2010	Detroit, Michigan 48201  	mostly cloudy	34 1	27 -3	9	W	23 -5	64	30.19	10
Wed Feb  3 21:55:47 2010	Seattle, Washington 98101  	light rain	45 7	45 7	0		43 6	93	29.75	5
Wed Feb  3 21:55:48 2010	Philadelphia, Pennsylvania 19019  	mostly cloudy	37 3	30 -1	21-Sep	W	28 -2	70	30.04	10
Wed Feb  3 22:40:54 2010	Charlotte, North Carolina 28201  	clear sky	52 11	52 11	3	N	32 0	47	30.11	10
Wed Feb  3 22:40:54 2010	San Jose, California 95101  	clear sky	63 17	63 17	6	W	46 8	55	29.83	10
Wed Feb  3 22:40:55 2010	Denver, Colorado 80214  	clear sky	46 8	39 4	16	SE	12-Oct	23	29.85	10
Wed Feb  3 22:40:55 2010	Memphis, Tennessee 37501  	mostly cloudy	48 9	43 6	12	NE	28 -2	46	30.22	10
Wed Feb  3 22:40:55 2010	San Diego, California 92101  	clear sky	63 17	63 17	0		50 10	63	29.79	10
Wed Feb  3 22:40:56 2010	New York, New York 10001  	mostly cloudy	37 3	29 -2	20-Dec	W	21 -6	52	30.02	10
Wed Feb  3 22:40:56 2010	El Paso, Texas 79901  	light rain	43 6	36 2	14	N	41 5	93	29.68	4
Wed Feb  3 22:40:56 2010	Los Angeles, California 90001  	clear sky	70 21	76 24	5	N	45 7	40	29.73	10
Wed Feb  3 22:40:57 2010	Washington, Washington D. C. 20001  	mostly cloudy	41 5	36 2	8	W	28 -2	61	30.14	10
Wed Feb  3 22:40:57 2010	Las Vegas, Nevada 89101  	clear sky	61 16	61 16	3	N	30 -1	31	29.71	10
Wed Feb  3 22:40:57 2010	Baltimore, Maryland 21201  	normal	43 6	43 6			27 -3	52	30.1	
Wed Feb  3 22:40:58 2010	Oklahoma City, Oklahoma 73101  	clear sky	37 3	32 0	7	E	34 1	87	30.11	9
Wed Feb  3 22:40:58 2010	Austin, Texas 73301  	light rain	48 9	44 7	10	NE	46 8	93	29.93	3
Wed Feb  3 22:40:58 2010	San Francisco, California 94101  	mostly cloudy	55 13	55 13	3	NE	50 10	82	29.84	10
Wed Feb  3 22:40:59 2010	Nashville, Tennessee 37201  	clear sky	46 8	41 5	9	NE	27 -3	46	30.23	10
Wed Feb  3 22:40:59 2010	Phoenix, Arizona 85001  	mostly cloudy	70 21	75 24	3	SW	36 2	28	29.6	10
Wed Feb  3 22:40:59 2010	Fort Worth, Texas 76101  	moderate rain	45 7	40 4	10	NE	37 3	76	30.01	7
Wed Feb  3 22:41:00 2010	Chicago, Illinois 60601  	mostly cloudy	30 -1	23 -5	7	E	21 -6	69	30.29	7
Wed Feb  3 22:41:00 2010	Portland, Oregon 97201  	mostly cloudy	30 -1	19 -7	15	NW	27 -3	86	29.94	10
Wed Feb  3 22:41:00 2010	San Antonio, Texas 78201  	light rain	48 9	42 6	16-23	E	46 8	93	29.88	2
Wed Feb  3 22:41:01 2010	Indianapolis, Indiana 46201  	mostly cloudy	28 -2	22 -6	5	N	21 -6	74	30.27	8
Wed Feb  3 22:41:01 2010	Jacksonville, Florida 32099  	mostly cloudy	52 11	49 9	9	NE	43 6	71	30.15	10
Wed Feb  3 22:41:02 2010	Columbus, Ohio 43085  	mostly cloudy	34 1	26 -3	10	W	25 -4	69	30.24	6
Wed Feb  3 22:41:02 2010	Dallas, Texas 75201  	light rain	45 7	39 4	12	NE	39 4	81	30.03	7
Wed Feb  3 22:41:02 2010	Seattle, Washington 98101  	light rain	46 8	44 7	5	SE	43 6	87	29.74	6
Wed Feb  3 22:41:02 2010	Houston, Texas 77001  	mostly cloudy	52 11	47 8	16-24	E	45 7	76	29.99	9
Wed Feb  3 22:41:03 2010	Milwaukee, Wisconsin 53201  	clear sky	28 -2	22 -6	5	E	18 -8	63	30.28	10
Wed Feb  3 22:41:03 2010	Detroit, Michigan 48201  	mostly cloudy	34 1	29 -2	5	NW	23 -5	64	30.2	10
Wed Feb  3 22:41:03 2010	Philadelphia, Pennsylvania 19019  	mostly cloudy	37 3	29 -2	18-Dec	NW	28 -2	70	30.05	9
Wed Feb  3 23:31:59 2010	San Jose, California 95101  	clear sky	63 17	63 17	6	W	46 8	55	29.83	10
Wed Feb  3 23:32:00 2010	Denver, Colorado 80214  	clear sky	46 8	39 4	16	SE	12-Oct	23	29.85	10
Wed Feb  3 23:32:00 2010	Charlotte, North Carolina 28201  	clear sky	52 11	52 11	3	N	32 0	47	30.11	10
Wed Feb  3 23:32:00 2010	San Diego, California 92101  	clear sky	63 17	63 17	0		50 10	63	29.79	10
Wed Feb  3 23:32:01 2010	Memphis, Tennessee 37501  	mostly cloudy	48 9	43 6	12	NE	28 -2	46	30.22	10
Wed Feb  3 23:32:01 2010	El Paso, Texas 79901  	light rain	43 6	36 2	14	N	41 5	93	29.68	4
Wed Feb  3 23:32:01 2010	Los Angeles, California 90001  	clear sky	70 21	76 24	5	N	45 7	40	29.73	10
Wed Feb  3 23:32:02 2010	New York, New York 10001  	mostly cloudy	37 3	29 -2	20-Dec	W	21 -6	52	30.02	10
Wed Feb  3 23:32:02 2010	Baltimore, Maryland 21201  	normal	43 6	43 6			27 -3	52	30.1	
Wed Feb  3 23:32:03 2010	Washington, Washington D. C. 20001  	mostly cloudy	41 5	36 2	8	W	28 -2	61	30.14	10
Wed Feb  3 23:32:03 2010	Las Vegas, Nevada 89101  	clear sky	61 16	61 16	3	N	30 -1	31	29.71	10
Wed Feb  3 23:32:03 2010	Austin, Texas 73301  	light rain	48 9	44 7	10	NE	46 8	93	29.93	3
Wed Feb  3 23:32:04 2010	Nashville, Tennessee 37201  	clear sky	46 8	41 5	9	NE	27 -3	46	30.23	10
Wed Feb  3 23:32:04 2010	Oklahoma City, Oklahoma 73101  	clear sky	37 3	32 0	7	E	34 1	87	30.11	9
Wed Feb  3 23:32:04 2010	Fort Worth, Texas 76101  	moderate rain	45 7	40 4	10	NE	37 3	76	30.01	7
Wed Feb  3 23:32:04 2010	San Francisco, California 94101  	mostly cloudy	55 13	55 13	3	NE	50 10	82	29.84	10
Wed Feb  3 23:32:05 2010	Portland, Oregon 97201  	mostly cloudy	30 -1	19 -7	15	NW	27 -3	86	29.94	10
Wed Feb  3 23:32:05 2010	Phoenix, Arizona 85001  	mostly cloudy	70 21	75 24	3	SW	36 2	28	29.6	10
Wed Feb  3 23:32:06 2010	Chicago, Illinois 60601  	mostly cloudy	30 -1	23 -5	7	E	21 -6	69	30.29	7
Wed Feb  3 23:32:06 2010	Indianapolis, Indiana 46201  	mostly cloudy	28 -2	22 -6	5	N	21 -6	74	30.27	8
Wed Feb  3 23:32:06 2010	San Antonio, Texas 78201  	light rain	48 9	42 6	16-23	E	46 8	93	29.88	2
Wed Feb  3 23:32:07 2010	Columbus, Ohio 43085  	mostly cloudy	34 1	26 -3	10	W	25 -4	69	30.24	6
Wed Feb  3 23:32:07 2010	Jacksonville, Florida 32099  	mostly cloudy	52 11	49 9	9	NE	43 6	71	30.15	10
Wed Feb  3 23:32:08 2010	Milwaukee, Wisconsin 53201  	clear sky	28 -2	22 -6	5	E	18 -8	63	30.28	10
Wed Feb  3 23:32:08 2010	Dallas, Texas 75201  	light rain	45 7	39 4	12	NE	39 4	81	30.03	7
Wed Feb  3 23:32:08 2010	Seattle, Washington 98101  	light rain	46 8	44 7	5	SE	43 6	87	29.74	6
Wed Feb  3 23:32:08 2010	Houston, Texas 77001  	mostly cloudy	52 11	47 8	16-24	E	45 7	76	29.99	9
Wed Feb  3 23:32:09 2010	Detroit, Michigan 48201  	mostly cloudy	34 1	29 -2	5	NW	23 -5	64	30.2	10
Wed Feb  3 23:32:09 2010	Philadelphia, Pennsylvania 19019  	mostly cloudy	37 3	29 -2	18-Dec	NW	28 -2	70	30.05	9
